{"type": "FeatureCollection", "features": [{"type": "Feature", "properties": {"identifier": "05d72ccc-2f05-41ce-a778-613057705e00", "name": "Postkartengalerie Kabinetli Hinterrhein", "description": "<p>Seit Jahren ist Elisabeth&nbsp;Hasler-Stoffel leidenschaftliche Sammlerin entsprechender Postkarten und Lithos und hat diesen Schatz nun auch Interessierten zug\u00e4nglich gemacht.</p><p>Auf den Fotos von anno dazumal lebt die \"Welt von Gestern\" neu auf - die unseres Dorfes, des Bernhardinpasses, des Rheinwalds, aber auch&nbsp;die seiner Nachbart\u00e4ler (Mesolcina, Valsertal, Valle San Giacomo), zu denen infolge des Passwesens und gegenseitiger wirtschaftlicher und famili\u00e4rer Verflechtungen (S\u00e4umerei, Pferdepostwesen)&nbsp;die Nachbarschaft gelebt wurde - st\u00e4rker als heute.</p><p>Der Keller und das \"St\u00e4lli\", in&nbsp;dem Elisabeths&nbsp;Urgrossvater Joseph Stoffel sein Kleinvieh hielt, wurden ger\u00e4umt und f\u00fcr die Ausstellung hergerichtet.&nbsp;Sie wurde am 20. September 2020 mit einer Vernissage er\u00f6ffnet.</p>", "url": "https://www.kabinet-altesneuerleben.ch", "image": "https://viatpimtsoch.sos-ch-dk-2.exoscale-cdn.com/catalog/8/0/b/b/80bbc1dabcf8f1635cd877eaf2b023a7347dc7ca_postkartengalerie_im_kabinetli_in_hinterrhein.jpg", "openstreetmap_id": "node/12100162940"}, "geometry": {"type": "Point", "coordinates": ["9.19892281293869", "46.53109816598707"]}}, {"type": "Feature", "properties": {"identifier": "271b28c0-a546-4680-9687-42c310609ac7", "name": "Guida Viamala - private F\u00fchrungen", "description": "Ob Schluchten, Br\u00fccken, Kirchen oder Burgen, ob Schulreise, Gesch\u00e4ftsausflug oder Wandertag: Eine gef\u00fchrte Exkursion macht den Tag in der Destination Viamala zum unvergesslichen Erlebnis. / Die Guida Viamala sind eine Gruppe von ausgebildeten Kultur- und Wanderleitern und kennen die Region und ihre Geschichten bestens. Die Highlights sind nat\u00fcrlich die Viamala-Schlucht, die Kirche Zillis oder auch der Traversinersteg. Wer diese bereits kennt, kann sich von vielen weiteren Ausflugszielen \u00fcberraschen lassen. / Wir beraten Sie gerne.", "url": "https://www.viamala.ch", "image": "https://viatpimtsoch.sos-ch-dk-2.exoscale-cdn.com/catalog/2/1/1/d/211db6570dc95b505628fdb2019f92252072e949_bilderdecke_kirche_st.jpg"}, "geometry": {"type": "Point", "coordinates": ["9.448575", "46.661818"]}}, {"type": "Feature", "properties": {"identifier": "47fa4af8-04a3-404d-9ffa-727d7fa52974", "name": "Gef\u00fchrte Wanderung Paradieslilien im Walserdorf Obermutten", "description": "<p><span style=\"font-weight: bold;\">\u00d6V Anreise</span><br>M\u00f6glich ab Uster 6:09 Uhr \u00fcber Pf\u00e4ffikon-Chur-Thusis (Kleinbus auf Vorreservation: Stafel Mutten ) Ankunft: 9:09 Uhr</p><p> <br><span style=\"font-weight: bold;\">Treffpunkt\n</span><br>Bushaltestelle und Parkplatz Stafel.<br><br></p><p><span style=\"font-weight: bold;\">Kondition\n</span><br>Es handelt sich um eine einfache Bergwanderung T2, Kondition gering. Bei Fragen <a href=\"https://happywandern.ch/index.php/kontakt/\" target=\"_blank\">kontaktiere </a>mich!\n</p><p><br><span style=\"font-weight: bold;\">Mitnehmen\n</span><br>Tagesrucksack mit Lunch und ausreichend Getr\u00e4nken. Eigene Medikamente/ Notfalldecke. Passende Bergkleidung, es kann in den Bergen stets rasch frisch sein. Gute Laune und Freude an der Natur und Kultur. Interesse am Wandern in einer Kleingruppe.</p><p><br></p><p><span style=\"font-weight: bold;\">\nAnmeldung</span><span style=\"font-weight: 700;\"><br></span>Bis Mitte Mai 2025. <a href=\"https://happywandern.ch/index.php/2024/10/05/paradieslilien-im-walserdorf-obermutten/\" target=\"_blank\">Hier </a>kannst du dich anmelden.<br></p><p><br><span style=\"font-weight: bold;\">Versicherung\n</span><br>Versicherung ist Sache des Teilnehmers.</p>", "url": "https://happywandern.ch", "image": "https://viatpimtsoch.sos-ch-dk-2.exoscale-cdn.com/catalog/7/e/b/7/7eb7c1427e5777e1a93c7dca30fe536eb249795e__AD_8685.jpg"}}, {"type": "Feature", "properties": {"identifier": "67d415cb-d555-42c4-84ac-ee39ece4aebb", "name": "Bergkristalle vom Berufsstrahler Wolfgang Josch\u00e9", "description": "<p>Was in der w\u00e4rmeren Jahreszeit gefunden wird, muss im Winter gereinigt oder auch weiterverarbeitet werden. So kann Wolfgang Josche von Bergkristallen aus Graub\u00fcnden in erstklassiger Sammlerqualit\u00e4t bis hin zu einfachen Souvenirst\u00fccken viele Gesteinsmaterialien anbieten.</p><p>Im Weiteren verarbeitet er w\u00e4hrend des Winters verschiedenste edle B\u00fcndner Gesteine zu diversem Schmuck. Im Angebot finden sich Halsketten, Armb\u00e4nder, und teils in Silber gefasste Anh\u00e4nger, z.B. aus Andeerer Granit, Epidotquarz, Edelserpentin, Smaragdit VS, Pyrit, Dolomit, sowohl als auch gr\u00fcner und heller Quarz (Bergkristall), Spl\u00fcgener Marmor, Parsennstein, Rhodonit.</p><p>Auch verschiedene gegenst\u00e4ndliche Objekte werden verschliffen oder k\u00f6nnen auch im Auftrag angefertigt werden. Zum Beispiel diverse geometrische K\u00f6rper wie W\u00fcrfel, Kugeln, B\u00fccherst\u00fctzen, Briefbeschwerer, Handsteine usw.</p><p><span style=\"font-weight: bold;\">Exkursionen</span><br>Wolfgang Josche bietet im Sommer regelm\u00e4ssig Exkursionen zu den Strahlerkluften an. Die Daten finden Sie im <a href=\"https://www.viamala.ch/de/veranstaltungen\" target=\"_blank\">Online-Veranstaltungskalender</a>. F\u00fcr Gruppen auf Anfrage buchbar.&nbsp;Weitere Informationen zu diesem Angebot finden Sie <a href=\"https://www.naturpark-beverin.ch/de/schatzsuche-am-piz-beverin-exkursionen-zur-strahlerkluft\" target=\"_blank\">hier</a>.</p>", "url": "https://www.josche-mineralien.ch", "image": "https://viatpimtsoch.sos-ch-dk-2.exoscale-cdn.com/catalog/c/1/8/e/c18e623f1fca440dfa69f33ea9d644154e928437_kristallsuche_wolfgang_josche_schamserberg.jpg", "openstreetmap_id": "node/12100210124"}, "geometry": {"type": "Point", "coordinates": ["9.407404214143753", "46.626366155484504"]}}, {"type": "Feature", "properties": {"identifier": "a4d4246a-0e56-4d5f-9b8c-2bfe330dbb80", "name": "Ausstellung \u00abmia natira - Wiesen und Weiden am Schamserberg\u00bb", "description": "Die kleine Ausstellung \u00ab<a href=\"https://www.naturpark-beverin.ch/de/mia-natira-wiesen-und-weiden-am-schamserberg\" target=\"_blank\">mia natira</a> - Wiesen und Weiden am Schamserberg\u00bb gibt Einblick in die Kulturlandschaft und Artenvielfalt am oberen Schamserberg. Mit einem Mix aus Informationen und interaktiven Elementen&nbsp;wird das Wechselspiel zwischen der Berglandwirtschaft und den Tier- und Plfanzenarten aufgezeigt. F\u00fcr die Ausstellung wurde ein Bauwagen inszeniert und ausgebaut. Er ist das Herzst\u00fcck des Projektes&nbsp;mia natira. \u00d6ffnungszeiten: T\u00e4glich von 9.00 bis 20.00 Uhr.", "url": "https://www.naturpark-beverin.ch", "image": "https://viatpimtsoch.sos-ch-dk-2.exoscale-cdn.com/catalog/0/4/a/7/04a7c3a72ad2a09331eb84ac109a0f23c1588bb5_ausstellung_mia_natira_wiesen_und_weiden_am_schamserberg_1.jpg", "openstreetmap_id": "node/12100180815"}, "geometry": {"type": "Point", "coordinates": ["9.416303512372906", "46.63894823633746"]}}, {"type": "Feature", "properties": {"identifier": "ab5f875f-a776-4e07-89cc-b4b0f9240b00", "name": "Gef\u00fchrte Wanderung Burgenweg Thusis - Paspels", "description": "<p>Der Weg f\u00fchrt uns von Thusis \u00fcber einfache T1 Wege an verschiedenen Burgen vorbei. Dies l\u00e4sst an vergangene Zeiten erinnern. Welche M\u00f6glichkeiten hatten die Menschen fr\u00fcher, um Nahrungsmittel haltbar zu machen? Wir gelangen am Rhein und an Mohnfeldern vorbei und geniessen einen Kaffee im Casa Caminada in F\u00fcrstenau.  Am Schluss treffen wir in Paspels ein, wo die mutigen unter uns (bei gutem Wetter) einen Abschluss \u2013 und Erfrischungsschwumm im Canovasee machen k\u00f6nnen. Der Bus f\u00fchrt uns zur\u00fcck.</p><p>Anmelden kannst du dich <a href=\"https://happywandern.ch/index.php/2024/10/05/burgenweg-thusis-paspels/\" target=\"_blank\">hier</a>.</p>", "url": "https://happywandern.ch", "image": "https://viatpimtsoch.sos-ch-dk-2.exoscale-cdn.com/catalog/f/e/1/a/fe1a38d719dfe3e69e669c11e147d54294eb7d59_Burg_Canova__Paspels_Copyright_ViamalaTourismus.jpg"}}, {"type": "Feature", "properties": {"identifier": "b9b1c2a2-af3a-4d53-8872-ae3b54ad26ac", "name": "Gef\u00fchrte Wanderung Via Spluga trifft Walserweg", "description": "<p><p>\u00d6V Anreise <br>M\u00f6glich ab Uster 7:39 Uhr \u00fcber Pf\u00e4ffikon-Chur-Thusis 9:58 Uhr</p><p><br></p><span style=\"font-weight: bold;\">Treffpunkt\n</span><br>Thusis Bahnhof oder Parkplatz bei Bahnhof um 10.00 Uhr. Uster ab 7:39 Uhr, Thusis Ankunft 9:58 Uhr </p><p><br><span style=\"font-weight: bold;\">Kondition\n</span><br>Es handelt sich um eine einfache Wanderung T2. Bei Fragen <a href=\"https://happywandern.ch/index.php/kontakt/\" target=\"_blank\">kontaktiere </a>mich!\n</p><p><br><span style=\"font-weight: bold;\">Mitnehmen\n</span><br>Tagesrucksack mit Lunch und ausreichend Getr\u00e4nken. Restaurant bei Viamala Schlucht vorhanden. Eigene Medikamente. Gute Laune und Freude an der Natur und Kultur. Interesse am Wandern in einer Kleingruppe.\n<br></p><p><br><span style=\"font-weight: bold;\">Anmeldung\n</span><br>Bis 1. Juni 2025. <a href=\"https://happywandern.ch/index.php/2024/10/05/via-spluga-trifft-walserweg-von-thusis-ueber-viamala-schlucht-bis-zillis/\" target=\"_blank\">Hier </a>kannst du dich anmelden.<br></p><p><br><span style=\"font-weight: bold;\">Versicherung\n</span><br>Versicherung ist Sache des Teilnehmers.</p>", "url": "https://happywandern.ch", "image": "https://viatpimtsoch.sos-ch-dk-2.exoscale-cdn.com/catalog/3/7/0/4/37044c903a77c13f156abbfbe0b260d5f8a979ea_viaSpluga_Traversinersteg_Copyright_demateo_com.jpg"}}, {"type": "Feature", "properties": {"identifier": "cb44c166-a8e1-4097-a020-8fa447dc6436", "name": "Gef\u00fchrte Wanderung auf den Piz Vizan", "description": "<p><p>Erfahre <a href=\"https://happywandern.ch/index.php/2024/10/14/piz-vizan-den-hausberg-von-wergenstein-besteigen/\" target=\"_blank\">hier </a>mehr \u00fcber die Wanderung.</p><p><br></p><span style=\"font-weight: bold;\">Treffpunkt\n</span><br>ca. 7.30 (wetterabh\u00e4ngig) in Wergenstein vor Hotel Capricorn, gemeinsame Fahrt mit Sammelauto auf Mautstrasse (pro Auto 10.-) nach Dumagns\n</p><p><br><span style=\"font-weight: bold;\">Kondition\n</span><br>Es handelt sich um Bergwanderungen T3, Kondition mittel bis schwer. Trittsicherheit erforderlich. Bei Fragen kontaktieren Sie mich!\n</p><p><br><span style=\"font-weight: bold;\">Mitnehmen </span><br>Tagesrucksack mit Lunch und ausreichend Getr\u00e4nken. Eigene Medikamente/ Notfalldecke. Passende Bergkleidung, es kann trotz Sommer frisch sein. Wanderschuhe (\u00fcber den Kn\u00f6chel) mit gutem Profil (max 6 j\u00e4hrig empfohlen). Gute Laune und Freude an der Natur. Interesse am Wandern in einer Kleingruppe.</p><p><br><span style=\"font-weight: bold;\">Anmeldung\n</span><br>Bis Anfang Juni 2025. <a href=\"https://happywandern.ch/index.php/2024/10/14/piz-vizan-den-hausberg-von-wergenstein-besteigen/\" target=\"_blank\">Hier </a>kannst du dich anmelden.</p><p><br><span style=\"font-weight: bold;\">Versicherung\n</span><br>Versicherung ist Sache des Teilnehmers.</p>", "url": "https://happywandern.ch", "image": "https://viatpimtsoch.sos-ch-dk-2.exoscale-cdn.com/catalog/b/c/2/a/bc2aa11799b8ef3cd08d5e3b1856e470a5c46b1c_IMG_0053.JPG"}}, {"type": "Feature", "properties": {"identifier": "d9b76fc5-62bb-4dd3-b042-fbcb08206626", "name": "Ausstellung s-cultura.ch", "description": "Der Kreis Schams erwarb die \u00abSusta vis-\u00e0-vis der Pension Conrad in Zillis\u00bb 1918 f\u00fcr die Einrichtung einer M\u00fchle.<br>Die elektrische Ammann-M\u00fchle (Langenthal) mit dazugeh\u00f6riger Gersten-Sch\u00e4lm\u00fchle an der Hauptstrasse 10 in Zillis war von 1919 bis 1968 in Betrieb. Im Maschinenraum befinden sich heute zudem eine Gerstenquetschmaschine der Firma Bucher von Niederweningen vom Jahr&nbsp;1940 und eine Stahl-Neusaatmaschine der Firma F. Neuhaus, Eberswalde (ehem. DDR) aus den 1930er Jahren. Die Maschinen sind nicht mehr betriebsf\u00e4hig. Sie sind aber Kulturzeugnisse in faszinierendem Industriedesign. Die letzte Schamser Landsgemeinde verkaufte 2014 das Geb\u00e4ude.", "url": "https://notbott.ch/verkaufsausstellung", "image": "https://viatpimtsoch.sos-ch-dk-2.exoscale-cdn.com/catalog/7/4/0/9/7409d963c024bccf2d41b0ce9675e544c5ea32bc_ausstelung_s_cultura_zillis_reischen.jpg", "openstreetmap_id": "node/12100235310"}, "geometry": {"type": "Point", "coordinates": ["9.44522738456726", "46.635499938738924"]}}, {"type": "Feature", "properties": {"identifier": "def39fdf-1d10-4715-ae26-a17c3c45ae88", "name": "Kunsthalle an der Albula", "description": "Auf fast 500 m2 k\u00f6nnen Sie im Galeriebereich Skulpturen und Bilder von Priska Schwab und Claudio Caprez sehen.<br>Der Besucher kann sich auch direkt im offenen Atelier der K\u00fcnstler \u00fcber die Entstehung ihrer neusten Werke informieren und mit den K\u00fcnstlern pers\u00f6nlich sprechen. Ein einmaliger Einblick in den Kunstbereich mit zwei vielseitigen und humorvollen K\u00fcnstlern.<br>Sie sind zu finden in der Halle einer ehemaligen Schafwollwaren-Fabrik an der sch\u00e4umenden Albula.", "url": "https://www.claudiocaprez.com", "image": "https://viatpimtsoch.sos-ch-dk-2.exoscale-cdn.com/catalog/4/1/4/d/414dfde8a8ec5628a73f6c01bba6d3aeb3066dcd_kunsthalle_an_der_albula.jpg", "openstreetmap_id": "node/12100051780"}, "geometry": {"type": "Point", "coordinates": ["9.460540115833282", "46.70723828467447"]}}]}