{"type": "FeatureCollection", "features": [{"type": "Feature", "properties": {"identifier": "03b8e471-a237-4ed0-a9d4-697a71c59dfe", "name": "DrivingGraub\u00fcnden", "description": "<p>Wer besser f\u00e4hrt, f\u00e4hrt auch sicherer. DrivingGraub\u00fcnden bietet dir 34'000 m\u00b2 Hightech-Pisten, auf denen jede erdenkliche Fahrsituation auf der Strasse realit\u00e4tsnah simuliert werden kann. Professionelle Fahrinstruktor:innen zeigen dir, wie du k\u00fcnftig sicherer, sparsamer und besser f\u00e4hrst.</p><p>Im modernst ausger\u00fcsteten Fahrsicherheitszentrum gibt es nicht nur die obligatorischen Kurse der 2-Phasen-Fahrerausbildung. Egal ob PKW, LKW, Kleinbus \u2013 mit oder ohne Anh\u00e4nger \u2013 Motorrad oder was auch immer du im Alltag \u00fcber die Strassen chauffierst: Du kannst vom passenden Fahrtrainings-Angebot profitieren.</p>", "url": "http://www.drivinggraubuenden.ch", "image": "https://viatpimtsoch.sos-ch-dk-2.exoscale-cdn.com/catalog/e/4/6/3/e463eebb2314bdcef2109c417310cd9da2245b44_drivinggraubuenden_cazis_fahrsicherheitszentrum.jpg", "openstreetmap_id": "way/36351675"}, "geometry": {"type": "Point", "coordinates": ["9.42066", "46.76162"]}}, {"type": "Feature", "properties": {"identifier": "05a587e0-4efa-4725-a71a-59aaa9a4c8c6", "name": "E-Bike-Ladestation Hinterrhein", "description": "<p><strong>Unsere Tipps f\u00fcr Sie w\u00e4hrend der Wartezeit</strong></p>\n<ul>\n<li>Erholen Sie sich mit einer Mahlzeit oder einem k\u00fchlen Getr\u00e4nk im Restaurant&nbsp;<a href=\"https://bachhuus.ch/\" target=\"_blank\">Bachhuus</a></li>\n<li>Entdecken&nbsp;Sie den&nbsp;<a href=\"https://www.maps.viamala.ch/s/GZhhK\" data-type=\"tour\" data-id=\"23420028\" target=\"_blank\">Rheinquellweg</a></li>\n<li>Unterk\u00fcnfte finden Sie unter&nbsp;<a href=\"https://www.viamala.ch/de/buchen/unterkuenfte\" target=\"_blank\">www.viamala.ch</a></li>\n</ul>", "url": "http://www.bachhuus.ch", "image": "https://viatpimtsoch.sos-ch-dk-2.exoscale-cdn.com/catalog/f/a/6/a/fa6a4c5f18553d4c23c6ba52d2e0ea26d6c36774_e_bike_ladestation_hinterrhein.jpg", "openstreetmap_id": "node/12318925970"}, "geometry": {"type": "Point", "coordinates": ["9.1987743", "46.5309559"]}}, {"type": "Feature", "properties": {"identifier": "0a78a72c-58e4-4964-8625-692222c617b5", "name": "Kino R\u00e4tia", "description": "<p>Das Kino R\u00e4tia bietet ein aktuelles, hochstehendes Filmprogramm, das nicht nur die grossen Kassenschlager beinhaltet, sondern immer wieder auch den Blick \u00fcber den Tellerrand hinaus wagt. Die allj\u00e4hrlich Anfang November stattfindenden \u00abWeltfilmtage\u00bb sind ein Fenster zum Filmschaffen aus Afrika, Asien und Lateinamerika und haben Thusis zu nationaler Bekanntheit verholfen.</p>\n<p>Mit der Veranstaltungsreihe \u00abB\u00fchne\u00bb ist das Kino auch eine Plattform f\u00fcr Konzerte und Theater der Kleinkunstszene. Ebenso hat sich das Programm \u00abKintop\u00bb etabliert, das monatlich stattfindende Nachmittagskino f\u00fcr Seniorinnen und Senioren, sowie die \u00abZauberlaterne\u00bb, ein Filmprogramm f\u00fcr Kinder im Primarschulalter, \u00dcbertragungen von Opern auf die Leinwand und dreimal pro Jahr \u00abKinoDisco\u00bb mit Film, Tanz und Barbetrieb.</p>\n<h4>KinoBar</h4>\n<p>Zu einem Drink, einem Snack oder einfach zum Plaudern. Meistens gibt es in der KinoBar Foccaccia und unseren Lieblingsdrink \u00abGiselle\u00bb, mit oder ohne Alkohol. Das KinoBar Team legt Wert auf regionale Produkte. Lust auf einen Ap\u00e9ro? Die KinoBar ist ein Ort, wo nicht nur Cin\u00e9phile sich wohl f\u00fchlen. Jeden Samstag ab 19.00 Uhr. Aktuelle Infos finden Sie auf dem Instagram-Account der KinoBar.</p>", "url": "https://kinoraetia.ch", "image": "https://viatpimtsoch.sos-ch-dk-2.exoscale-cdn.com/catalog/3/8/8/3/38831f7efccb224818053566e5f574ae466be1ad_kino_raetia.jpg", "openstreetmap_id": "node/3676232684"}, "geometry": {"type": "Point", "coordinates": ["9.438977", "46.695667"]}}, {"type": "Feature", "properties": {"identifier": "0be0c40a-11b4-4e13-85c6-49bf1c3a3858", "name": "Mineralbad Andeer", "description": "<p>Das Verw&ouml;hnprogramm beginnt im Innen- und Aussenbecken mit Sprudelliegen, Nackendusche und Whirlpool. Nach Wunsch f&uuml;hrt man die Erholung in der Saunalandschaft mit Biosauna, Finnischer Sauna und Dampfbad fort. Das Mineralbad Andeer bietet auch diverse Massagen sowie Physiotherapiebehandlungen in der Therapieabteilung.</p><p><strong>Massagen</strong><br>Die Klassiker:</p><ul><li>Teil- und Ganzk&ouml;rpermassage</li><li>Wohlf&uuml;hl R&uuml;ckenbehandlung</li><li>Fussreflexzonenmassage</li></ul><p>Die Highlights:</p><ul><li>Edelweiss Massage</li><li>Arven Massage</li><li>Naturpark Beverin Massage</li><li>Schamser Relax Massage</li></ul><p>Massagen sind t&auml;glich auf Voranmeldung m&ouml;glich. Detail siehe <a href=\"https://mineralbad-andeer.ch/wp-content/uploads/2024/01/RehaAndeer_Wellness-Flyer_2023_WEB-1.pdf\" target=\"_blank\" rel=\"noopener\">Flyer</a>. Informationen und Buchung an der Kasse vom Mineralbad, Tel. <a href=\"tel:+41816611878\">+41 81 661 18 78</a>.</p>", "url": "https://mineralbad-andeer.ch", "image": "https://viatpimtsoch.sos-ch-dk-2.exoscale-cdn.com/catalog/b/a/3/8/ba3856d97948fcbef7a2ab8d48ae7719bf4cd49b_mineralbad_andeer_innenbecken_sommer_andrea_badrutt.jpg", "openstreetmap_id": "node/2238796065"}, "geometry": {"type": "Point", "coordinates": ["9.426626", "46.605252"]}}, {"type": "Feature", "properties": {"identifier": "0c9838fd-181c-4780-888d-d17f842e8b18", "name": "Strimer Sport", "description": "Verkauf und Dienstleistungen im Bereich Sportartikel mit Schwerpunkten: Snowboard &amp; Skiartikel, Bergsport, Freizeitbekleidung, Ski- und Snowboardservice. Strimer Sport vemietet auch Ausr\u00fcstung.", "url": "https://sport.strimer-sport.ch", "image": "https://viatpimtsoch.sos-ch-dk-2.exoscale-cdn.com/catalog/7/0/c/9/70c9850065dde78e48e24b91ea2b6170afc9fd9f_strimer_sport_thusis_viamala_tourismus.jpg", "openstreetmap_id": "node/4485700881"}, "geometry": {"type": "Point", "coordinates": ["9.43939357995987", "46.69610040714491"]}}, {"type": "Feature", "properties": {"identifier": "0eca3778-c5d7-4da1-89b0-b5147b9126e3", "name": "Minigolf  Beverin", "description": "<p>Die homologierte Anlage wird t\u00e4glich gepflegt und l\u00e4dt zum Spielen und Verweilen ein. Im Anschluss an das Minigolfspielen l\u00e4sst sich der Ausflug im angrenzenden Restaurant La Plazza bei einem feinen Glace-Coupe oder einem St\u00fcck Kuchen ausklingen. Ob Einheimisch, Feriengast oder B\u00fcndner - die Minigolfanlage steht Jung und Junggebliebenen f\u00fcr erholsame Stunden von April bis Oktober t\u00e4glich offen. Ambitionierte Sportlerinnen und Sportler k\u00f6nnen auf der Profi-Minigolfanlage trainieren oder sich im Wettbewerb messen. Der Minigolfsport vermag jedoch einiges mehr: Kinder, Eltern und Grosseltern k\u00f6nnen gemeinsam oder einzeln unvergessliche Spielmomente und ein Freizeitvergn\u00fcgen der besonderen Art erleben. F\u00fcr Gruppen, Vereine, Schulklassen oder Firmen stellen wir ein individuelles Programm zusammen, das aus Spiel, Spass und kulinarischen Leckereien besteht. Wir beraten Sie gerne. <a href=\"tel:+41582253535\">Rufen</a>&nbsp;Sie uns an oder schreiben Sie eine <a href=\"mailto:info@pdgr.ch\">E-Mail</a>.</p>", "url": "https://www.pdgr.ch/freizeitangebote", "image": "https://viatpimtsoch.sos-ch-dk-2.exoscale-cdn.com/catalog/a/a/b/b/aabb14bb7ede3e4467af344c08393374b178d2e2_minigolf_anlage_klinik_beverin.jpg", "openstreetmap_id": "way/1152682869"}, "geometry": {"type": "Point", "coordinates": ["9.428099", "46.731633"]}}, {"type": "Feature", "properties": {"identifier": "10d0d2af-e14f-45b1-b8e4-de7c285aa97b", "name": "Parc da Moviment", "description": "Jeder Parc da moviment besteht aus einem abgerundeten und immer ersichtlichen Gesamtkonzept mit jeweils mindestens 3 bis 5 Stationen pro motorische Basisf\u00e4higkeit (Kraft, Schnelligkeit, Koordination, Ausdauer), die \u2013 abh\u00e4ngig von den Gel\u00e4ndevorgaben und den jeweiligen Zielstellungen \u2013 von der Reihenfolge und Anordnung sportwissenschaftlich abgestimmt sind. Die Stationsnamen machen neugierig, haben einen hohen Aufforderungscharakter und weisen auf die Trainingszielsetzung hin. Der Kanton Graub\u00fcnden hat im Jahre 2018 das Projekt \u00abParc da moviment Graub\u00fcnden\u00bb lanciert.", "url": "https://www.viamala.ch", "image": "https://viatpimtsoch.sos-ch-dk-2.exoscale-cdn.com/catalog/5/a/5/d/5a5dcab75b14e2707631eaa3e49d538d5d698f75_parc_da_movment_obergmeind_heinzenberg_sommer_demateo.jpg", "openstreetmap_id": "node/12114133917"}, "geometry": {"type": "Point", "coordinates": ["9.359529165796516", "46.69211585639632"]}}, {"type": "Feature", "properties": {"identifier": "10fb9d85-5085-4310-8775-711896e62ca3", "name": "Mittner 2-Rad Technik", "description": "<p>Im Jahre 1985 gr\u00fcndeten Hennie und Christophe Mittner-Muilerman in einem ehemaligen B\u00e4ckers- und Schnappsbrennerei-H\u00e4uschen auf 36 m2 eine Reparaturwerkstatt. Die Auswahl an Fahrzeugen und die Kundschaft wuchs und somit wurde im Jahre 1992 das heutige Gesch\u00e4ftsgeb\u00e4ude - mit grosser Werkstatt erbaut.</p>\n<p>Am 1. Januar 2016 \u00fcbernahmen Tobias &amp; Anita Simeon-Mittner das Gesch\u00e4ft.</p>", "url": "https://www.mittner2rad.ch", "image": "https://viatpimtsoch.sos-ch-dk-2.exoscale-cdn.com/catalog/5/8/9/b/589b483835dfc54b34cfd7f008ab2f2fdcf44425_mittner_2_rad_technik_pratval.jpg", "openstreetmap_id": "node/9497185669"}, "geometry": {"type": "Point", "coordinates": ["9.445903301239014", "46.7322593149716"]}}, {"type": "Feature", "properties": {"identifier": "139edb63-bddc-4906-ade8-9fbd0af9842a", "name": "E-Bike-Ladestation Sufers", "description": "<p><span style=\"font-weight: bold;\">Vorhandene Anschl\u00fcsse </span></p><ul><li>Bosch </li><li>Yamaha </li><li>Impulse-Brose </li><li>Shimano 1 &amp; 2 </li><li>Panasonic-Flyer 1 &amp; 2 </li><li>Schweizer Steckdose&nbsp;T13 </li></ul><p><br></p><p><span style=\"font-weight: bold;\">Unsere Tipps f\u00fcr Sie w\u00e4hrend der Wartezeit </span></p><ul><li>St\u00e4rken Sie sich im <a href=\"https://www.seeblick-sufers.ch/\">Hotel Restaurant Seeblick</a>. </li><li>M\u00f6chten Sie in Sufers \u00fcbernachten, stehen Ihnen verschiedene Unterk\u00fcnfte zur Wahl. So z.B. im Hotel Seeblick, in B&amp;B's und Ferienwohnungen. <a href=\"https://tportal.tomas.travel/Viamala/ukv/?date_unknown=1&amp;%3FdoSearch=1&amp;ukv_result_order=1&amp;serviceProviderTypes%5B0%5D&amp;locationIDs%5B0%5D=TDS00020010527381592&amp;reset=1\">Hier </a>geht's zum Online-Shop. </li><li>F\u00fcr den Einkauf des Proviants besuchen Sie den <a href=\"https://sufers.ch/gewerbe-landwirtschaft/\">Dorfladen Sufers</a>.&nbsp;</li></ul>", "url": "https://sufers.ch", "image": "https://viatpimtsoch.sos-ch-dk-2.exoscale-cdn.com/catalog/4/e/d/b/4edbe27b3aab0939dbe48a0fdc896d6767ee4372_e_bike_ladestation_sufers_rheinwald_naturpark_beverin.jpg", "openstreetmap_id": "node/6315767451"}, "geometry": {"type": "Point", "coordinates": ["9.368687868118286", "46.56987709924822"]}}, {"type": "Feature", "properties": {"identifier": "190a6ea0-878e-4a40-b271-9981a157a1fc", "name": "Curling-Natureisfeld H\u00fcschera Spl\u00fcgen", "description": "<p><span style=\"font-weight: bold;\">Miete pro Bahn:&nbsp;</span>CHF 150 </p><ul><li>Einf\u00fchrung und Erkl\u00e4rung durch ein Mitglied des Curling Clubs Spl\u00fcgen</li><li>Match \u00fcber 6 Ends mit st\u00e4ndiger Betreuung (Spielzeit ca. 1.5 Stunden)</li><li> Personenzahl pro Bahn 6-10 Personen </li></ul><p><br></p><p>Nach dem beendeten Match ist es m\u00f6glich, sich in der H\u00fcschera Bar mit einem warmen Getr\u00e4nk aufzuw\u00e4rmen und ein Fondue oder Raclette zu geniessen.</p>", "url": "https://www.hueschera.ch/curling/", "image": "https://viatpimtsoch.sos-ch-dk-2.exoscale-cdn.com/catalog/2/9/7/1/2971767394c1aaf5ffe4dc4db8a1ce45cde16ca2_curling_natureisfeld_hueschera_spluegen_rheinwald_winter_viamala_tourismus.jpg", "openstreetmap_id": "node/12112375089"}, "geometry": {"type": "Point", "coordinates": ["9.322001", "46.547779"]}}, {"type": "Feature", "properties": {"identifier": "1dd80371-96e2-4dc4-98e6-efcd48024cd3", "name": "G\u00e4steinformation Viamala, Infostelle Andeer", "url": "https://www.viamala.ch", "image": "https://viatpimtsoch.sos-ch-dk-2.exoscale-cdn.com/catalog/5/0/0/9/50093e1c4a83e800bd9b00dae862e136ffe690d8_andeer_dorf_reformierte_kirche_mineralbad_schams_herbst_markus_mueller.jpg", "openstreetmap_id": "node/2238796065"}, "geometry": {"type": "Point", "coordinates": ["9.426666", "46.605278"]}}, {"type": "Feature", "properties": {"identifier": "1eb4d612-b30b-4f62-b58d-efc317a37c80", "name": "Pumptrack Val Schons", "description": "<p>Im Herbst 2021 hatten drei F\u00fcnftkl\u00e4ssler die vision\u00e4re Idee, in Andeer einen Pumptrack zu realisieren. Ihre Begeisterung f\u00fcr diesen Trendsport war der Anstoss f\u00fcr ein Gemeinschaftsprojekt, das zur Gr\u00fcndung eines Vereins f\u00fchrte. Die Gemeinde Andeer zeigte sich von Anfang an offen gegen\u00fcber diesem Vorhaben und unterst\u00fctzte es tatkr\u00e4ftig.</p><p>Nach intensiver Planung und Zusammenarbeit mit der renommierten Firma Velosolutions konnte das Projekt im Sommer 2024 erfolgreich umgesetzt werden. Der Pumptrack Val Schons befindet sich zentral auf dem Schulplatz Andeer und ist durch seine N\u00e4he zu den \u00f6ffentlichen Verkehrsmitteln leicht erreichbar.</p><p>Der Pumptrack ist so gestaltet, dass er Menschen fast jeden Alters anspricht, von Kindern \u00fcber Jugendliche bis hin zu Erwachsenen. Ob mit dem Fahrrad, Skateboard oder Scooter \u2013 der Track bietet Spass und sportliche Herausforderung f\u00fcr Anf\u00e4nger*innen wie auch Fortgeschrittene. Zudem ist die Anlage frei zug\u00e4nglich, sodass jeder die M\u00f6glichkeit hat, sich hier auszutoben und seine F\u00e4higkeiten zu verbessern.</p><p>Der Pumptrack Val Schons ist somit nicht nur ein sportlicher Treffpunkt, sondern auch ein Symbol f\u00fcr das Engagement und den Gemeinschaftssinn der jungen Generation in Andeer.</p>", "url": "https://www.gemeinde-andeer.ch/", "image": "https://viatpimtsoch.sos-ch-dk-2.exoscale-cdn.com/catalog/a/2/3/6/a23653bd7f88778b28f5def567053eab95b96ff5_profis_bei_der_eroeffnung_des_pumptracks_val_schons_im_september_2024.jpg", "openstreetmap_id": "way/214121847"}, "geometry": {"type": "Point", "coordinates": ["9.4253082", "46.602327"]}}, {"type": "Feature", "properties": {"identifier": "2117c299-724a-4c2f-a3e6-33216cbb9904", "name": "Laada am Berg", "description": "<p>Es werden lokale Produkte sowie zahlreiche Spezialit&auml;ten aus der unmittelbaren Umgebung verkauft. Du findest auch Geschenkartikel und Arbeiten der gesch&uuml;tzten Werkst&auml;tte ARBES.</p>", "image": "https://viatpimtsoch.sos-ch-dk-2.exoscale-cdn.com/catalog/1/8/1/7/1817ada62fae6d470d2a7115be0d1f74b937d2ce_das_breite_angebot_vom_laada_am_berg_in_oberurmein.jpg", "openstreetmap_id": "node/2899764093"}, "geometry": {"type": "Point", "coordinates": ["9.385873", "46.697728"]}}, {"type": "Feature", "properties": {"identifier": "2181ee00-9a9b-4c9b-a372-1f6bded3c50c", "name": "Boulderparadies Magic Wood", "description": "<p>Das Klettergebiet liegt mitten im Gebiet \u00abPar\u00e9 da Miezgi\u00bb am \u00abRagn da Ferrera\u00bb, vollst\u00e4ndig im Wald. </p><p>Das Bouldergebiet erstreckt sich auf ca. 250 m Breite und 500 m L\u00e4nge. Mittlerweile hat die Gemeinde Ferrera den Zugang zum \u00abMagic Wood\u00bb mit einer Br\u00fccke erschlossen. Boulderer, welche nicht auf dem \u00dcbernachtungsplatz campieren m\u00f6chten, haben die M\u00f6glichkeit, im Gasthaus Edelweiss in&nbsp;Ausserferrera&nbsp;mit dazugeh\u00f6rigen Touristenhaus GENEROSO oder im Gasthaus Alpenrose in Innerferrera&nbsp;zu n\u00e4chtigen. </p><p>Beim Bodhi Camping ist es m\u00f6glich, Crash Pads (Bouldermatten) und Kletterschuhe zu mieten. </p><ul><li><a href=\"https://www.thecrag.com/climbing/switzerland/alpen/graubunden/magic-wood-averstal\" target=\"_blank\">Boulderf\u00fchrer Magic Wood</a> </li><li><a href=\"https://www.valferrera.com/magic-wood\">Mehr Informationen Magic Wood</a> </li></ul><p><br></p><p><span style=\"font-weight: bold;\">Gemeinsam f\u00fcr Magic Wood: Unterst\u00fctze die Rettung! </span></p><p>Gemeinsam k\u00f6nnen wir \u00abMagic Wood\u00bb vor der drohenden Schliessung bewahren und daf\u00fcr sorgen, dass dieser magische Ort weiterhin f\u00fcr uns alle zug\u00e4nglich bleibt. Wir rufen die gesamte Kletter-Community dazu auf, sich diesem Aufruf anzuschliessen und Magic Wood zu retten. Deine Unterst\u00fctzung ist jetzt entscheidend, um diesen einzigartigen Ort f\u00fcr kommende Generationen zu bewahren. Lass uns gemeinsam sicherstellen, dass \u00abMagic Wood\u00bb weiterhin ein Ort der Magie, Freude und Herausforderung bleibt.&nbsp;</p><ul><li> <a href=\"https://www.magicwood.app\" target=\"_blank\">Weitere Informationen&nbsp;</a></li></ul>", "url": "https://www.valferrera.com/magic-wood", "image": "https://viatpimtsoch.sos-ch-dk-2.exoscale-cdn.com/catalog/7/4/0/8/7408cd41857520fffdc910ca8469b33b84133b94_boulderer_magic_wood_am_ragn_da_ferrera_markus_mueller.jpg", "openstreetmap_id": "way/211937237"}, "geometry": {"type": "Point", "coordinates": ["9.438502", "46.568506"]}}, {"type": "Feature", "properties": {"identifier": "2b560a5f-0819-4fb3-8b83-41afc050b176", "name": "G\u00e4steinformation Viamala, Infostelle Thusis", "url": "https://www.viamala.ch", "image": "https://viatpimtsoch.sos-ch-dk-2.exoscale-cdn.com/catalog/c/0/4/b/c04b3be5120d6b294693a8474aa44cad87234bab_gaestezentrum_gaesteinformation_thusis_im_sommer_viamala_tourismus_1.jpg", "openstreetmap_id": "node/9807491949"}, "geometry": {"type": "Point", "coordinates": ["9.43963", "46.695795"]}}, {"type": "Feature", "properties": {"identifier": "3377ab69-88a4-431b-8d7a-37bd8fe94e37", "name": "B\u00fcndner Bauernverband BBV", "description": "<p><span style=\"font-weight: bold;\">Vision</span><br>B\u00e4uerinnen und Bauern erzielen mit der Produktion von gesunden Nahrungsmitteln ein gerechtes Einkommen. Dieses bietet den Bauernfamilien soziale Sicherheit und Lebensqualit\u00e4t. So wird das langfristige \u00dcberleben einer vielf\u00e4ltigen Landwirtschaft in Graub\u00fcnden gesichert.</p><p><span style=\"font-weight: bold;\">Ziele</span><br>Das Ziel vom Bauernverband&nbsp;ist es, mit einem selbstbewussten und positiven Auftritt den Stellenwert und die Leistungen der B\u00fcndner Landwirtschaft aufzuzeigen. Der Verband will&nbsp;in der Gesellschaft und bei seinen Kunden das Bild einer modernen und produzierenden Landwirtschaft verankern und als Partner in der Gesellschaft anerkannt sein. Die nachhaltige Bewirtschaftung des Bodens, eine artgerechte Haltung der Tiere und faire Preise f\u00fcr die Produkte sind ein grosses Anliegen.</p><p><span style=\"font-weight: bold;\">Leistungen</span><br>Die B\u00fcndner Landwirtschaft produziert Nahrungsmittel von hervorragender Qualit\u00e4t; naturbedingt - der Kanton Graub\u00fcnden ist ein Graskanton - vor allem Milch und Fleisch.<br></p><p>Durch die nachhaltige Fl\u00e4chennutzung sichert die Landwirtschaft die Erhaltung der Kulturlandschaft und stellt so Einheimischen und G\u00e4sten einen vielf\u00e4ltigen und gepflegten Erholungsraum zur Verf\u00fcgung.</p><p>B\u00e4uerinnen und Bauern tragen viel zur Besiedlung und zur Stabilit\u00e4t der Gesellschaft im l\u00e4ndlichen Raum bei. Die Bewirtschaftung der Wiesen, Weiden und Alpen sch\u00fctzt die T\u00e4ler vor Naturgefahren und macht diese dadurch bewohnbar<br></p><p>Durch Investitionen in Geb\u00e4ude, Melorationen, Erschliessungen usw. tr\u00e4gt die Landwirtschaft zur regionalen Wirtschaft und damit zur Wirtschaftsf\u00f6rderung bei. Vor- und nachgelagerte Gewerbe- und Dienstleistungsbetriebe sowie der Tourismus profitieren von einer gesunden B\u00fcndner Landwirtschaft.</p><p><span style=\"font-weight: bold;\">Kommunikation</span><br>Der B\u00fcndner Bauerverein will&nbsp;gegen\u00fcber all den Ansprechpartnern eine offene und verst\u00e4ndliche Kommunikation pflegen.<br><br>Mit der Vollintegration zur Marke \"graub\u00fcnden\" bekennt sich die B\u00fcndner Landwirtschaft dazu, \"ein St\u00fcck Graub\u00fcnden\" zu sein und nutzt die M\u00f6glichkeit, im Markenkleid aktive \u00d6ffentlichkeitsarbeit zu leisten.<br><br>Die verbandseigene Wochenzeitschrift \"B\u00fcndner Bauer\" und die Webseite bieten dem Verband die M\u00f6glichkeit, seine Anliegen laufend zu kommunizieren und Mitgliedern, Interessierten und nicht zuletzt auch den Medien Hintergrundinformationen und Grundlagenmaterial zur B\u00fcndner Landwirtschaft zur Verf\u00fcgung zu stellen.<br><br>Mit einer kontinuierlichen Berichterstattung, einem professionellen Auftritt und aktiver Medienarbeit (Presseartikel, Medienkonferenzen, usw.) m\u00f6chten sie das Image einer modernen, nat\u00fcrlichen, aber auch innovativen und zukunftsgerichteten B\u00fcndner Landwirtschaft aufbauen und pflegen.</p>", "url": "https://www.landwirtschaft-gr.ch", "image": "https://viatpimtsoch.sos-ch-dk-2.exoscale-cdn.com/catalog/d/2/b/1/d2b12c0c1866d8ae86f8620f629a5be8f9a62564_buendner_arena_in_cazis.jpg", "openstreetmap_id": "way/363475065"}, "geometry": {"type": "Point", "coordinates": ["9.424107670783997", "46.75344017310798"]}}, {"type": "Feature", "properties": {"identifier": "41e29896-59d8-4630-9e65-15279811ef5e", "name": "Natureisfeld Spl\u00fcgen Dorf", "description": "<p><span style=\"font-weight: bold;\">Schlittschuhmiete</span><span style=\"font-weight: 700;\"><br></span>Spl\u00fcgen Sport, Tel. <a href=\"tel:+41816641919\">+41 81 664 19 19</a>, <a href=\"http://spluegensport.ch/\" target=\"_blank\">www.spluegensport.ch</a></p><p>Eintritt frei.</p>", "url": "https://www.rheinwald.ch", "image": "https://viatpimtsoch.sos-ch-dk-2.exoscale-cdn.com/catalog/f/5/5/c/f55c8ec6763a007bb4ae92e011846a8bfb751ec2_spluegen_dorf_sonnenuntergang_im_winter_silvan_widler.jpg", "openstreetmap_id": "node/12112484235"}, "geometry": {"type": "Point", "coordinates": ["9.320212", "46.552113"]}}, {"type": "Feature", "properties": {"identifier": "423adefc-44f9-4df9-8e98-245f9704f88f", "name": "Elektroauto-Verleih Andeer und Wergenstein", "description": "<p>Die einfachste Variante f&uuml;r einen Kurztrip, Tagesausflug oder eine l&auml;ngere Mietdauer &ndash; engiro machts m&ouml;glich. Unverbindliche Beratung und Offerte nach Ihren W&uuml;nschen.</p>\n<p><strong>Welche Autos stehen zur Verf&uuml;gung?<br /></strong>In Andeer steht das eher sportliche Elektroauto Hyundai IONIQ und in Wergenstein das kompakte Elektroauto Renault ZOE zur Verf&uuml;gung. Beide haben eine Vollelektroantrieb und fahren sich sogar einfacher wie mit herk&ouml;mmlichen Automatikgetriebe.</p>", "url": "https://www.engiro.ch", "image": "https://viatpimtsoch.sos-ch-dk-2.exoscale-cdn.com/catalog/3/0/2/7/3027944c3110064bcf699a62a917784f0594f6e0_engiro_elektroauto.jpg", "openstreetmap_id": "way/1091362991"}, "geometry": {"type": "Point", "coordinates": ["9.427138566970827", "46.605195375246176"]}}, {"type": "Feature", "properties": {"identifier": "42f8292c-3544-4795-94f5-de2a34ebbb39", "name": "Bergsportschule Grischa", "description": "<p>Die Bergsportschule Grischa wird von einheimischen Berg- und Skif\u00fchrern mit anerkannter Zertifizierung betrieben. Jenseits der markierten Pisten sind sie in ihrem Element und kennen als Einheimische die verborgenen Winkel und malerischsten Abfahrten in der Destination Viamala. Die Bergsportschule bietet als Experte in den Bereichen Freeride, Skitouren, Schneeschuhwanderungen und Eisklettern eine Vielzahl von Angeboten, von Kursen \u00fcber Gruppenausfl\u00fcge und Firmenevents bis hin zu individuellem Guiding, um alle W\u00fcnsche zu erf\u00fcllen. </p><p>Die Destination Viamala bietet&nbsp;zahlreiche M\u00f6glichkeiten f\u00fcr unvergessliche Erlebnisse in der faszinierenden Berglandschaft. Die Bergsportakademie plant nach den Vorstellungen der Teilnehmer und begleitet Sie durch ein unvergessliches Abenteuer.</p>", "url": "https://bergsportschulegrischa.ch", "image": "https://viatpimtsoch.sos-ch-dk-2.exoscale-cdn.com/catalog/a/b/b/2/abb2c989f3687a235bfdb725eb963e0f1d8a8243_die_bergfuehrerinnen_der_bergsportschule_grischa_sommer.jpg", "openstreetmap_id": "node/12114459352"}, "geometry": {"type": "Point", "coordinates": ["9.537029", "46.45871"]}}, {"type": "Feature", "properties": {"identifier": "4992b4a6-bb1b-4552-bfba-fa7f7277183a", "name": "Natureisfeld Camping Spl\u00fcgen", "description": "<p>Jeden Donnerstagabend ab 19.00 Uhr ist das ganze Spielfeld frei f\u00fcr Eishockey und es stehen Original-Tore zur Verf\u00fcgung. Geheizte Garderobe, Getr\u00e4nke und Verpflegung beim Campingkiosk. </p><p><span style=\"font-weight: bold;\">Schlittschuhmiete</span></p><p>Spl\u00fcgen Sport </p><p>Talstation Bergbahnen Spl\u00fcgen-Tambo </p><p>Tel. <a href=\"tel:+41 81 664 19 19\">+41 81 664 19 19</a></p><p>E-Mail <a href=\"mailto:spluegen@spluegensport.ch\">spluegen@spluegensport.ch</a></p><p>Web&nbsp;<a href=\"http://spluegensport.ch/\">www.spluegensport.ch</a></p><p><br></p><p>Eintritt frei.</p>", "url": "https://www.spluegen.ch/campingplatz/allgemein", "image": "https://viatpimtsoch.sos-ch-dk-2.exoscale-cdn.com/catalog/e/f/8/5/ef851a3ee763614fec9cb2ed10e7d04c97794f4d_natureisfeld_spluegen_camping_winter_viamala_tourismus.jpg", "openstreetmap_id": "node/12112520317"}, "geometry": {"type": "Point", "coordinates": ["9.314517", "46.549192"]}}, {"type": "Feature", "properties": {"identifier": "5485e6fe-db2d-48bd-ba04-db3903e3a1e5", "name": "G\u00e4steinformation Viamala, Infostelle Avers", "url": "https://www.viamala.ch", "image": "https://viatpimtsoch.sos-ch-dk-2.exoscale-cdn.com/catalog/4/4/4/7/4447c01eca1b92e0ab07c83c4d698dedc01aa223_blick_in_das_averstal_mit_cresta_im_sommer_demateo.jpg", "openstreetmap_id": "node/12114218990"}, "geometry": {"type": "Point", "coordinates": ["9.512743949890138", "46.47268114499922"]}}, {"type": "Feature", "properties": {"identifier": "55ef7d36-0646-4341-bc4b-0e327a63208e", "name": "Nina Massage & Wellness Spl\u00fcgen", "description": "<p><strong>\u00dcber Nina</strong><br>Nina Tajariol, geboren in Niederuzwil/SG. Im 2010 machte sie parallel zu ihrer T\u00e4tigkeit als Masseurin beim EC Wil die Ausbildung zur Berufsmasseurin und Sporttherapeutin. Nach bestandener Pr\u00fcfung habe&nbsp;sie sich entschlossen, sich als Masseurin selbstst\u00e4ndig zu machen. Aufgrund des hohen Pensums, welcher die Betreuung der Eishockeymannschaft sowie der Schweizer Inlinehockey-Nationalmannschaft mitsichbrachte, entschloss sich Nina in der Selbstst\u00e4ndigkeit k\u00fcrzerzutreten. Im 2015 zog es sie nach Spl\u00fcgen, wo sie bis jetzt wohnhaft ist. Seither war sie bei der Ochsner Hockey Academy und der finnischen Frauen Inlinenationalmannschaft engagiert. Immer wieder versp\u00fcrte Nina, dass sie zur\u00fcck zur Selbstst\u00e4ndigkeit gehen m\u00f6chte. Deshalb&nbsp;hat sie im Jahr 2021 das Massagestudio in Spl\u00fcgen wieder er\u00f6ffnet.</p>\n<p>Nina ist&nbsp;beim&nbsp;<strong><a href=\"https://emr.ch/\">EMR</a>&nbsp;</strong>registriert und somit bei den Krankenkassen anerkannt. Erkundigen Sie sich bei Ihrer Krankenkasse \u00fcber eine m\u00f6gliche Kostenbeteiligung.</p>\n<p>S\u00e4mtliche Preise finden Sie<strong> <a href=\"https://nina-massage.ch/\">HIER</a></strong>.</p>", "url": "https://nina-massage.ch", "image": "https://viatpimtsoch.sos-ch-dk-2.exoscale-cdn.com/catalog/9/d/c/4/9dc41ba2fcde3a9f63fa99e4d4330f156dd85e2d_massagepraxis_nina_spluegen_rheinwald.jpg", "openstreetmap_id": "node/12114166811"}, "geometry": {"type": "Point", "coordinates": ["9.316278845071793", "46.55073576372241"]}}, {"type": "Feature", "properties": {"identifier": "5a874ffe-91d8-4d97-bbfe-b9d14cfbfd9f", "name": "Natureisfeld Alp Raguta", "description": "<p>F\u00fcnf Fussminuten von der Bergstation der Sesselbahn Feldis-Mutta entfernt, vor gewaltigem Alpen-Panorama, besteht im Winter bereits seit dem Jahr 2002 eine&nbsp;Natureisbahn&nbsp;(20x44 m) zum Schlittschuhlaufen, Eisstockschiessen und Curling spielen.</p><p> </p><p><span style=\"font-weight: bold;\">Schlittschuhmiete</span><span style=\"font-weight: 700;\"><br></span>Vor Ort m\u00f6glich.</p><p><span style=\"font-weight: bold;\">Curling</span><span style=\"font-weight: 700;\"><br></span>Fortgeschrittene k\u00f6nnen die Ausr\u00fcstung vor Ort mieten. Anf\u00e4ngerInnen empfehlen wir einen Kurs (ab 8 Personen), mit Spassgarantie, zu buchen.&nbsp; <span style=\"font-weight: bold;\">Eisstockschiessen</span></p><p>Dies ist vor allem im Alpenraum verbreitet und hat eine gewisse \u00c4hnlichkeit mit Curling, ist aber nicht ganz so anspruchsvoll. Die Eisfl\u00e4che kann reserviert werden oder ein Kurs kann gebucht werden. </p><p>Bitte beachten Sie, dass das Eisfeld f\u00fcr alle zur Verf\u00fcgung steht und es auch kurzfristig vorkommen kann, dass den Schlittschuhfahrer/innen nur ein Teil des Eisfelds geg\u00f6nnt werden kann.</p><p><span style=\"font-weight: bold;\">Preise</span><span style=\"font-weight: 700;\"><br></span>F\u00fcr Curling und Eisstockschiessen werden spezielle Kurse angeboten. Anmeldungen bei Evi Attinger, Tel. <a href=\"tel:+41794804056\">+41 79 480 40 56</a>.</p><p style=\"margin: 6px 0px;\">Alle Preise finden Sie <a href=\"https://www.alpraguta.ch/angebot/preise\">hier</a>.</p>", "url": "https://www.alpraguta.ch", "image": "https://viatpimtsoch.sos-ch-dk-2.exoscale-cdn.com/catalog/1/d/b/b/1dbb4b6bee18e8e67939a012c4b73433ffb8f41e_alp_raguta_natureisfeld_feldiser_hochland_drohnenaufnahme_switzerland_tourism.jpg", "openstreetmap_id": "node/7496968630"}, "geometry": {"type": "Point", "coordinates": ["9.460121", "46.796312"]}}, {"type": "Feature", "properties": {"identifier": "5b5f8a3b-a2c3-41b8-82d6-0b67920e9641", "name": "Outdoor-Kartbahn Cazis", "description": "<p>Kommt vorbei in Cazis und geniesst echtes Rennsport-Feeling auf der wundersch\u00f6nen Anlage von Driving Graub\u00fcnden.&nbsp;Dort betreiben wir unsere&nbsp;vollelektrischen Karts mit denen ihr mit ein bisschen fahrerischem Geschick 60 km/h erreichen k\u00f6nnt. Egal ob ein spontanes 8-Minuten-Ticket, ein organisiertes Rennen gegen andere Kartfahrer oder euer ganz exklusiven und individuellen Event. Wir haben f\u00fcr alle&nbsp;ein passendes Angebot. </p><p>Weitere Infos finden Sie auf unserer <a href=\"https://outdoorkart.ch/\">Webseite</a>.</p>", "url": "https://outdoorkart.ch/", "image": "https://viatpimtsoch.sos-ch-dk-2.exoscale-cdn.com/catalog/4/6/c/5/46c5bbf9295bf81f78314736e95bacc2b7751962_outdoor_kartbahn_cazis.jpg", "openstreetmap_id": "way/996303265"}, "geometry": {"type": "Point", "coordinates": ["9.420583248138428", "46.761730144050105"]}}, {"type": "Feature", "properties": {"identifier": "5d4c2cc9-b4c5-4495-b57c-82380b6bd13a", "name": "G\u00e4steinformation Viamala, Infostelle Spl\u00fcgen", "url": "https://www.viamala.ch", "image": "https://viatpimtsoch.sos-ch-dk-2.exoscale-cdn.com/catalog/d/2/f/5/d2f58235b515e25b37c7d33dbccd5c46f2d916c0_spluegen_dorf_rheinwald_sommer_marco_hartmann.jpg", "openstreetmap_id": "node/1888132797"}, "geometry": {"type": "Point", "coordinates": ["9.320054054260256", "46.552570834338816"]}}, {"type": "Feature", "properties": {"identifier": "5d68bea8-1125-47ec-9136-9fb255df2619", "name": "Kunsteisbahn Viamala Sils i.D.", "description": "<p>Willkommen in Sils i.D. &ndash; dort, wo Wintertr&auml;ume aufs Eis kommen. Die neue Kunsteisbahn bringt Bewegung, Spass und Abwechslung in die kalte Jahreszeit. Der Eisverein Viamala sorgt mit viel Herzblut daf&uuml;r, dass Schlittschuhlaufen, Pirouetten, Hockeymatches und Wintervergn&uuml;gen einen festen Platz in unserer Region haben.</p>", "url": "https://www.eisbahnviamala.ch", "image": "https://viatpimtsoch.sos-ch-dk-2.exoscale-cdn.com/catalog/0/5/f/2/05f299ef8fee2f982ecfc0dca889dedb47ceebc7_DSC_0196.jpg", "openstreetmap_id": "node/12112527454"}, "geometry": {"type": "Point", "coordinates": ["9.45103168487549", "46.70018975354878"]}}, {"type": "Feature", "properties": {"identifier": "6a5dce4d-99e3-4cd5-8ebd-5f84ee455279", "name": "E-Bike Ladestation Nufenen", "description": "<p><strong>Unsere Tipps f\u00fcr Sie w\u00e4hrend der Wartezeit</strong></p>\n<ul>\n<li>Werfen Sie einen Blick in den&nbsp;<a href=\"https://www.ferienimschloss.ch/hofladen/\" target=\"_blank\">Hofladen</a>&nbsp;des G\u00e4stehauses&nbsp;<a href=\"https://www.ferienimschloss.ch\" target=\"_blank\">Ferien im Schloss</a>.&nbsp;Oder besuchen Sie ab 10.00 Uhr den&nbsp;<a href=\"https://www.ferienimschloss.ch/schlosskeller/\" target=\"_blank\">Schlosskeller</a>&nbsp;f\u00fcr eine&nbsp;gem\u00fctliche Kaffeepause.</li>\n<li>\n<p>&nbsp;Unterk\u00fcnfte finden Sie unter&nbsp;<a href=\"https://www.viamala.ch/de/buchen/unterkuenfte\" target=\"_blank\">www.viamala.ch</a></p>\n</li>\n</ul>", "url": "https://www.ferienimschloss.ch", "image": "https://viatpimtsoch.sos-ch-dk-2.exoscale-cdn.com/catalog/4/4/d/1/44d16a000516253fd3633b2be199d3bd10d3871b_e_bike_ladestation_nufenen__1_.jpg", "openstreetmap_id": "way/445477821"}, "geometry": {"type": "Point", "coordinates": ["9.2462173", "46.5393209"]}}, {"type": "Feature", "properties": {"identifier": "6ae72794-f85f-4e57-b6a8-7f14b218167d", "name": "Natureisfeld Oberurmein", "description": "<p>Auf dem Natureisfeld in Oberurmein k&ouml;nnen sich Kinder und Erwachsene beim Schlittschuhlaufen austoben. Das gem&uuml;tliche Eisstockschiessen bereitet Jung und Alt viel Spass.</p><h4><strong>Gruppen</strong></h4><p>Der Eisstockclub Patrutg f&uuml;hrt auf Anmeldung f&uuml;r Gruppen ab 15 Personen ein begleitetes Nachteisstockschiessen durch mit anschliessendem Raclette-Plausch in der Clubh&uuml;tte. Eine Anmeldung ist erforderlich an Eisstockclub Patrutg, Philipp Brumm, Tel. <a href=\"tel:+41 79 406 44 33\">+41 79 406 44 33</a>. Das Eisfeld ist nicht beaufsichtigt und es wird jede Haftung abgelehnt.</p><h4><span style=\"font-weight: bold;\">Material </span></h4><p>Eisst&ouml;cke k&ouml;nnen vor Ort gemietet werden.</p><p><strong>Eintritt frei!</strong></p>", "url": "http://www.eisstockclub-urmein.ch", "image": "https://viatpimtsoch.sos-ch-dk-2.exoscale-cdn.com/catalog/4/c/8/3/4c838e1a1280509158cf0a7b384d6633be5a8835_eisstockschiessen_auf_dem_natureisfeld_patrutgsee_oberurmein_heinzenberg_winter.jpg", "openstreetmap_id": "node/12112567118"}, "geometry": {"type": "Point", "coordinates": ["9.384716", "46.70214"]}}, {"type": "Feature", "properties": {"identifier": "6b30814e-93a1-4423-be0e-adeb17ec188b", "name": "E-Bike-Ladestation Zillis", "description": "<p><strong>Unsere Tipps f\u00fcr Sie w\u00e4hrend der Wartezeit</strong></p>\n<ul>\n<li>St\u00e4rken Sie sich im&nbsp;<a href=\"https://alte-post.ch/\">Hotel Alte Post</a>&nbsp;in Zillis</li>\n<li>Besuchen Sie die&nbsp;<a href=\"https://zillis-st-martin.ch/\">Kirche St. Martin</a>&nbsp;und bewundern Sie die \u00fcber 900 Jahre alte Deckenmalerei oder schauen Sie in der Ausstellung zur Kirchendecke vorbei.</li>\n<li>Unterk\u00fcnfte finden Sie unter&nbsp;<a href=\"https://www.viamala.ch/de/buchen/unterkuenfte\">www.viamala.ch</a></li>\n</ul>", "url": "http://www.viamala.ch", "image": "https://viatpimtsoch.sos-ch-dk-2.exoscale-cdn.com/catalog/6/4/d/1/64d1d1100594da0bfbda787742e45927f45f13bc_e_bike_ladestation_zillis.jpg", "openstreetmap_id": "way/329754915"}, "geometry": {"type": "Point", "coordinates": ["9.445018172264101", "46.635072678689156"]}}, {"type": "Feature", "properties": {"identifier": "7282c443-b171-46b1-b723-61b142254322", "name": "Viamala Markt", "description": "<p>Naturgewalten und die sanfte Bergidylle sind von Gegens\u00e4tzen gepr\u00e4gt. Dasselbe gilt f\u00fcr unsere Lieferanten der feinen Spezialit\u00e4ten aus unserer Region: So unterschiedlich die Hersteller, so speziell und einzigartig sind die geschmacksorientierten Spezialit\u00e4ten, die sich durch Einfachheit, Geschmack und Kraft auszeichnen. Der angenehme Gedanke dabei ist der willkommene Nebenverdienst f\u00fcr alle lokalen Hersteller der unz\u00e4hligen K\u00f6stlichkeiten. Alle diese Hersteller wissen \u2013 ein Versprechen, das verpflichtet.<br></p>", "url": "https://viamalamarkt.ch", "image": "https://viatpimtsoch.sos-ch-dk-2.exoscale-cdn.com/catalog/1/5/9/e/159ecbf0780cc7698167fa3e81215df460bf0089_der_viamala_markt_in_der_rastst__tte_thusi_ladens.jpg", "openstreetmap_id": "node/12120315067"}, "geometry": {"type": "Point", "coordinates": ["9.445359", "46.712627"]}}, {"type": "Feature", "properties": {"identifier": "770fc714-80e2-4a09-be57-f678ffb92516", "name": "INTERSPORT Banzer Thusis", "description": "Neben einer breiten Auswahl an Sportausr\u00fcstung bietet Intersport Banzer einen professionellen Ski- und Board-Service sowie Skimiete an.", "url": "https://www.banzer-sport.ch", "image": "https://viatpimtsoch.sos-ch-dk-2.exoscale-cdn.com/catalog/1/c/2/3/1c23ff840f4540d7cd564a242e36c8a6aa70990c_intersport_banzer_thusis_sportgeschaeft_sommer.jpg", "openstreetmap_id": "node/8532107766"}, "geometry": {"type": "Point", "coordinates": ["9.43961888551712", "46.69558714486065"]}}, {"type": "Feature", "properties": {"identifier": "776a0ec3-5f4a-41cd-bab2-f37ac3188640", "name": "Trail-Center Thusis", "description": "<p>Das Trail-Center Thusis hat Pioniercharakter: Es ist das erste Trail-Center in Graub\u00fcnden, im&nbsp;Home of Trails. Auf einer kleinen Fl\u00e4che neben der Waldbadi in Thusis sind verschiedene Strecken mit Spr\u00fcngen, einem Steingarten, einer Pumpline und mehr entstanden. Die einzelnen Wege sind signalisiert, so kann sich jeder Mountainbiker den passenden Trail aussuchen.</p><p>Und nach dem fleissigen \u00dcben im Trail-Center ist man bereit f\u00fcr die grossen Touren im Home of Trails.</p><p><span style=\"font-weight: bold;\">Anmeldung f\u00fcr Gruppen</span><br>M\u00f6chtest du als Lehrer*in, Vereinsvorstand, Teamleiter oder als Anbieter von Bike-Kursen einen Event im Trailcenter organisieren? Melde deine Gruppe ab 8 Teilnehmer bitte direkt mit dem <a href=\"https://www.trailcenter-thusis.ch/ruleset#kalender\" target=\"_blank\">Buchungstool </a>an. Bei Fragen, nimm&nbsp;Kontakt&nbsp;mit der <a href=\"https://www.trailcenter-thusis.ch/kontakt\" target=\"_blank\">IG&nbsp;Trailcenter Thusis</a> auf!</p>", "url": "https://www.trailcenter-thusis.ch", "image": "https://viatpimtsoch.sos-ch-dk-2.exoscale-cdn.com/catalog/6/6/5/2/665202a0a59a3d016fd016e3bc6d777434974411_trailcenter_thusis_bikepark_trainingsgelaende_viamala_tourismus.jpg", "openstreetmap_id": "way/1203105363"}, "geometry": {"type": "Point", "coordinates": ["9.44593", "46.702805"]}}, {"type": "Feature", "properties": {"identifier": "7781d346-448d-432c-b746-b223b381dc5e", "name": "Natureisfeld Cazis", "description": "<p>Es steht w\u00e4hrend der Wintersaison bei entsprechenden Temperaturen zur Verf\u00fcgung und l\u00e4dt zum Schlittschuhlaufen und Eishockey spielen ein.</p><p><br></p><p>Eintritt frei.</p>", "url": "https://www.viamala.ch", "image": "https://viatpimtsoch.sos-ch-dk-2.exoscale-cdn.com/catalog/d/a/f/e/dafe9988b63c047351d6c0a7a18afb9b36485299_schlittschuhe_winter_keyvisual_beispielbild.jpg", "openstreetmap_id": "node/12112580547"}, "geometry": {"type": "Point", "coordinates": ["9.436904", "46.720091"]}}, {"type": "Feature", "properties": {"identifier": "78a7fb12-1d8d-4f1d-8aa7-47dea1e45c44", "name": "E-Tuk-Tuk mieten Thusis", "description": "<p>Die Elektro Tuk-Tuks sind eine erlebnisorientierte und \u00f6kologische Alternative f\u00fcr den Personentransport im Nahverkehr. Die Auto-Rikscha hat eine H\u00f6chstgeschwindigkeit von 45 km/h. Die Dreir\u00e4der sind leise, haben Power und sehen umwerfend aus.</p>\n<p>In einem Tuk-Tuk haben drei Personen Platz. Ein Fahrer vorne und zwei G\u00e4ste hinten. Jeder Sitzplatz verf\u00fcgt \u00fcber eine eigene Sitzgurte. Kindersitze k\u00f6nnen auch befestigt werden.</p>\n<p><strong>Reichweite</strong><br>Die Subeez Tuk-Tuks sind f\u00fcr den Mikrotransport gedacht, somit wird empfohlen in&nbsp;einem Kreis von 50 km zu fahren. Die maximale Reichweite betr\u00e4gt bei voller Ladung im flachen etwa 80 km. Bergaufw\u00e4rts kann sich die Reichweite verringern, da die Fahrzeuge bergabw\u00e4rts (d.h. beim Bremsen) aber rekuperieren (Energie wiedergewinnen) gleicht sich das wieder aus.</p>\n<p><strong>Anforderungen</strong><br>Die E-Tuk-Tuks k\u00f6nnen mit einem g\u00fcltigen F\u00fchrerausweis ab 18 Jahren&nbsp;gemietet werden.</p>\n<p><strong>Preise</strong><br><strong>30 Minuten:</strong> CHF 5.00<br><strong>1 Stunde:</strong> CHF 10.00<br><strong>1/2 Tag:</strong> CHF 50.00<br><strong>1 Tag:</strong> CHF 75.00</p>\n<p>Das E-Tuk-Tuk kann \u00fcber Subeez gebucht und mit TWINT, PayPal oder Kreditkarte bezahlt werden: <a href=\"tel:+41793761108\">+41 79 376 11 08</a>.</p>", "url": "https://subeez.ch", "image": "https://viatpimtsoch.sos-ch-dk-2.exoscale-cdn.com/catalog/4/7/7/c/477c65cf7d36d6681769453a811d3c627d4f7dd8_e_tuk_tukvon_subeez.jpg", "openstreetmap_id": "way/438886348"}, "geometry": {"type": "Point", "coordinates": ["9.445405", "46.699691"]}}, {"type": "Feature", "properties": {"identifier": "7eb86677-4615-4d31-84ba-b3ece63634eb", "name": "E-Bike-Ladestation Andeer", "description": "<p><span style=\"font-weight: bold;\">Vorhandene Anschl\u00fcsse </span></p><ul><li>Bosch </li><li>Yamaha </li><li>Impulse-Brose </li><li>Shimano 1 &amp; 2 </li><li>Panasonic-Flyer 1 &amp; 2 </li><li>Schweizer Steckdose T13 </li></ul><p><br></p><p><span style=\"font-weight: bold;\">Unsere Tipps f\u00fcr Sie w\u00e4hrend der Wartezeit </span></p><ul><li>G\u00f6nnen Sie sich eine Auszeit im <a href=\"https://mineralbad-andeer.ch/\">Mineralbad Andeer </a>und tanken Sie Kraft f\u00fcr die Weiterfahrt. </li><li>Machen Sie einen Spaziergang durchs Dorf. Speziell ins Auge stechen die historischen H\u00e4user entlang der Veia Granda, der Hauptstrasse von Andeer. St\u00e4rken Sie sich in einem der Restaurants oder kaufen Sie Ihren Proviant in der Sennerei, der Metzgerei und der B\u00e4ckerei/Konditorei und/oder im Volg-Laden. </li><li>M\u00f6chten Sie \u00fcber Nacht in Andeer bleiben, stehen Ihnen verschiedene Unterk\u00fcnfte (Hotels, B&amp;B, Ferienwohnungen, Camping) zur Wahl.</li></ul>", "url": "https://mineralbad-andeer.ch/", "image": "https://viatpimtsoch.sos-ch-dk-2.exoscale-cdn.com/catalog/a/d/8/4/ad84d70cb4c5cc1b5bd3fbcf096514ddea832808_e_bike_ladestation_andeer_schams_naturpark_beverin.jpg", "openstreetmap_id": "node/6315749057"}, "geometry": {"type": "Point", "coordinates": ["9.426814993517155", "46.605203049228464"]}}, {"type": "Feature", "properties": {"identifier": "7f56a276-d1ee-4897-ad3e-8a475f3e879a", "name": "Tennis Thusis", "description": "<p>Die gepflegten Pl\u00e4tze bieten eine ideale Umgebung, um sich sportlich zu bet\u00e4tigen und die malerische Landschaft von Thusis zu erleben.</p>\n<p><strong>Tenniskurse / Privatstunden / Juniorentraining / Training f\u00fcr Erwachsene</strong><br>Egal, ob Ihr Anf\u00e4nger seid oder Euren Schwung perfektionieren m\u00f6chtet, bei Michaela seid Ihr genau richtig. Sie hilft Euch, Euer Spiel auf das n\u00e4chste Level zu bringen!</p>\n<p>F\u00fcr Buchungen und weitere Informationen \u00fcber Trainings und Kurse k\u00f6nnt Ihr Euch direkt bei Michaela melden:</p>\n<p><strong>Michaela Tennis Academy</strong><br><a href=\"tel:+41762867264\">+41 76 286 72 64</a><br><a href=\"mailto:michaelatennisacademy@gmail.com\">michaelatennisacademy@gmail.com</a><br><a href=\"https://www.michaela-tennisacademy.ch/\">www.michaela-tennisacademy.ch</a></p>\n<p><strong>Kosten</strong></p>\n<p>CHF 30.00 pro Platz und Stunde. G\u00e4ste k\u00f6nnen die Pl\u00e4tze an der Rezeption&nbsp;vom&nbsp;TCS Camping Thusis Viamala reservieren und bezahlen.</p>\n<p><strong>TCS Camping Thusis Viamala</strong><br>Pantunweg 3<br>7430 Thusis<br><a href=\"tel:+41816512472\">+41 81 651 24 72</a><br><a href=\"mailto:camping.thusis@tcs.ch\">camping.thusis@tcs.ch</a><br><a href=\"http://tcs-camping.ch/thusis\">www.tcs-camping.ch/thusis</a></p>", "url": "http://www.tcthusis.ch", "image": "https://viatpimtsoch.sos-ch-dk-2.exoscale-cdn.com/catalog/8/1/0/5/8105ce713005348c7bcf2a6232b4c555adc06123_tennisanlage_thusis.jpg", "openstreetmap_id": "way/1202729951"}, "geometry": {"type": "Point", "coordinates": ["9.444358348846437", "46.701064343472204"]}}, {"type": "Feature", "properties": {"identifier": "7fc0a353-742a-4536-91a5-607c2cd82f92", "name": "Spl\u00fcgen Sport", "description": "<p>Spl\u00fcgen Sport ist Ihr Anlaufpunkt f\u00fcr hochwertige Sportausr\u00fcstung und Bekleidung. Direkt am Fusse der Bergbahnen Spl\u00fcgen Tambo gelegen, bieten das Gesch\u00e4ft eine breite Auswahl an Sommer- und Winterausr\u00fcstung von renommierten Marken. Das engagierte Team steht bereit, um Ihnen bei der Auswahl der richtigen Ausr\u00fcstung zu helfen und Ihnen einen schnellen und zuvorkommenden Service zu bieten. Eine unkomplizierte Abwicklung und faire Preise sind garantiert.</p>", "url": "http://www.spluegensport.ch", "image": "https://viatpimtsoch.sos-ch-dk-2.exoscale-cdn.com/catalog/a/3/d/9/a3d9235a4ec12fce0f37dce5f658bb299734d708_spluegen_sport_rheinwald_sommer_viamala_tourismus.jpg", "openstreetmap_id": "node/7755821590"}, "geometry": {"type": "Point", "coordinates": ["9.321226725509973", "46.55001426590578"]}}, {"type": "Feature", "properties": {"identifier": "91b6dd82-1cce-425a-827c-8d8b87d3bc3c", "name": "G\u00e4steinformation Viamala, Infostelle Zillis", "url": "https://www.viamala.ch", "image": "https://viatpimtsoch.sos-ch-dk-2.exoscale-cdn.com/catalog/a/5/3/3/a5332f8fd75ad27e8a58ee8a7f375d2676a495c4_zillis_dorf.jpg", "openstreetmap_id": "node/4620754933"}, "geometry": {"type": "Point", "coordinates": ["9.445457", "46.634904"]}}, {"type": "Feature", "properties": {"identifier": "923327ac-ba1f-49d8-9fe9-61b352a1aa5e", "name": "Klettergarten Lai Grand", "description": "<h4>Einrichtung</h4>\n<p>Die Einrichtung des Klettergartens erfolgte im Sommer/Herbst 2024 durch Roman Dolf und seine Kinder Lea und Jann.</p>\n<ul>\n<li><strong>Anzahl Routen:</strong> 9</li>\n<li><strong>Routenl\u00e4nge:</strong> 10 m, eine Route 15 m.</li>\n<li><strong>Schwierigkeit:</strong> 4b-6a</li>\n<li><strong>Gestein:</strong> sehr rauer und griffiger Kalkstein</li>\n</ul>\n<p>&nbsp;</p>\n<h4>Beste Jahreszeit / Ausrichtung</h4>\n<p>Juni bis Oktober, sobald und solange die Strasse zur Tguma offen ist. Fast rundherum alle Expositionen.&nbsp;</p>\n<ul>\n<li><a href=\"https://sacpizplatta.ch/uploads/files/klettergarten-lai-grand-beschrieb.pdf\" target=\"_blank\">Weitere Informationen</a></li>\n<li><a href=\"https://sacpizplatta.ch/uploads/files/topo-klettergarten-lai-grand.pdf\" target=\"_blank\">Informationen Topo</a></li>\n</ul>\n<p>&nbsp;</p>\n<h4>Gastronomie / Unterkunft in der N\u00e4he</h4>\n<ul>\n<li><a href=\"https://viamala.ch/de/buchen/unterkuenfte/agrotourismus/alp-nurdagn.html\" target=\"_blank\">Alp Nurdagn </a></li>\n<li><a href=\"https://viamala.ch/de/map/poi/cufercalhutte-sac-8236de76-f2d8-4aa5-9c26-7e7da15c70c7.html\" target=\"_blank\">Cufercalh\u00fctte SAC</a></li>\n</ul>", "url": "https://sacpizplatta.ch/DE/home.html", "image": "https://viatpimtsoch.sos-ch-dk-2.exoscale-cdn.com/catalog/9/7/7/9/9779f3b9a0975f52ff85dd7efb6107682a2202f5_lai_grand_klettergarten_felsen.jpg", "openstreetmap_id": "way/319356458"}, "geometry": {"type": "Point", "coordinates": ["9.3295555", "46.6073002"]}}, {"type": "Feature", "properties": {"identifier": "92f5c543-cfa3-4d59-915a-e6b6ef62ecd4", "name": "Center da Capricorns", "description": "Ebenfalls im Center da Capricorns einquartiert hat sich die Gesch\u00e4ftsstelle des <a href=\"https://www.naturpark-beverin.ch/\" target=\"_blank\">Naturparks Beverin</a>, eines regionalen Parks von nationaler Bedeutung. Der 412 km2 grosse Naturpark rund um den Piz Beverin umfasst vier T\u00e4ler \u2013 eine raue Landschaft, gepr\u00e4gt von Abgeschiedenheit und Ruhe \u2013 und ist die Heimat einer der gr\u00f6ssten Steinbockkolonien der Alpen. Eine Ausstellung in der Gesch\u00e4ftsstelle bietet Informationen zum Naturpark und zum Steinbock. Das Center da Capricorns beheimatet zudem die Forschungsgruppe Tourismus und Nachhaltige Entwicklung der ZHAW (Z\u00fcrcher Hochschule f\u00fcr Angewandte Wissenschaften). Die B\u00fcndner Aussenstelle des Bildungsinstituts aus W\u00e4denswil konzipiert und leitet schweizweit Dienstleistungs- und Forschungsprojekte, deren Ziel es ist, den l\u00e4ndlichen Raum zu beleben, Plattformen f\u00fcr Austausch, Kooperation und Innovation zu schaffen und Impulse f\u00fcr eine nachhaltige Entwicklung zu setzen. Zudem befindet sich die Gesch\u00e4ftsstelle von&nbsp;dem Trailrunning-Kompetenz-Zenrum&nbsp;<a href=\"https://zenit.run/\" target=\"_blank\">zenit.run</a>&nbsp;im Geb\u00e4ude. F\u00fcr Naturliebhaber ist das <a href=\"https://capricorns.ch/de/\" target=\"_blank\">Center da Capricorns</a> ausserdem Ausgangspunkt verschiedenster Wanderungen und unterh\u00e4lt Angebote wie Wildbeobachtungen oder Kristallsuchen.&nbsp;", "url": "https://www.viamala.ch", "image": "https://viatpimtsoch.sos-ch-dk-2.exoscale-cdn.com/catalog/e/e/c/2/eec2e526b91a607d911094016e882cc88df5762e_center_da_capricorn_wergenstein_sommer_frank_bruederli.jpg", "openstreetmap_id": "way/329763056"}, "geometry": {"type": "Point", "coordinates": ["9.40741628408432", "46.62635694540715"]}}, {"type": "Feature", "properties": {"identifier": "9695a547-d1b2-4e60-8d07-6b6d0e07be62", "name": "Biohof Taratsch \u2013 Lise Louise Laden", "description": "<p>Zwei einladende Sitzgelegenheiten stehen zur Verf&uuml;gung, um das traditionelle Konzept der \"Marenda\" zu erleben - eine genussvolle Mahlzeit, die man sich im Freien g&ouml;nnt. Der Hofladen legt grossen Wert auf Authentizit&auml;t und Regionalit&auml;t, und das spiegelt sich nicht nur in der Lage, sondern auch im Angebot wider.</p>\n<p>Tauche ein in die Welt von Rebecca Clopath's K&uuml;che, die f&uuml;r ihre handgemachten K&ouml;stlichkeiten bekannt ist. Hier finden Sie eine Vielfalt an hausgemachten Produkten wie Konfit&uuml;ren, Senf, Chutneys und mehr. Die Liebe zum Detail und die sorgf&auml;ltige Zubereitung verleihen diesen Spezialit&auml;ten einen unverwechselbaren Geschmack.</p>\n<p>F&uuml;r Liebhaber von hochwertigen Fleischprodukten gibt es eine Auswahl an Bio-Frischfleisch, herzhaften W&uuml;rsten und k&ouml;stlichem K&auml;se. Die Produkte stammen direkt vom Hof und sind von bester Qualit&auml;t. Beim Einkauf stehen Ihnen verschiedene Zahlungsm&ouml;glichkeiten zur Verf&uuml;gung &ndash; sei es klassisch in bar oder modern und bequem mit Twint.</p>\n<p>Dieser Hofladen ist nicht nur ein Ort des Einkaufens, sondern auch des Verweilens und Geniessens. Entdecken Sie Frische der l&auml;ndlichen K&uuml;che und erleben Sie die herzliche Gastfreundschaft dieses einzigartigen Hofladens, der rund um die Uhr f&uuml;r Sie ge&ouml;ffnet ist.</p>", "url": "https://rebecca-clopath.ch/", "image": "https://viatpimtsoch.sos-ch-dk-2.exoscale-cdn.com/catalog/5/8/b/a/58ba02b12086e92ab0f84959ffb92901c984b62e_lise_louise_laden_biohof_taratsch.jpg", "openstreetmap_id": "node/9196457586"}, "geometry": {"type": "Point", "coordinates": ["9.4271969", "46.6515237"]}}, {"type": "Feature", "properties": {"identifier": "9d5d2101-ca76-40f3-a1ab-c8a405d77f56", "name": "Bruder Sport", "description": "Mehr als 19 Jahre Erfahrung in der Sportartikelbranche bilden bei Bruder Sport das Fundament um der Kundschaft f\u00fchrende Marken und Qualit\u00e4t zu fairen Preisen anbieten zu k\u00f6nnen.", "url": "https://brudersport.ch", "image": "https://viatpimtsoch.sos-ch-dk-2.exoscale-cdn.com/catalog/2/d/7/9/2d7905e5c3654a439a2afdabcde0931832c39d0c_bruder_sport_thusis_viamala_tourismus.jpg", "openstreetmap_id": "node/9807491942"}, "geometry": {"type": "Point", "coordinates": ["9.43964034318924", "46.69606177466963"]}}, {"type": "Feature", "properties": {"identifier": "9e664c68-207b-482e-bb50-9e6c3d5e16e6", "name": "Hofladen girs+ Oberurmein", "description": "<p>Das Herz unseres Sortiments sind die von einheimischen Produzent:innen mit Liebe hergestellten Spezialit\u00e4ten. Die feinen Capuns (auch vegetarisch/vegan), diverse K\u00e4sesorten von mild bis rezent, s\u00fcsse K\u00f6stlichkeiten aus der Backstube, Rindfleisch und W\u00fcrste aus besonders tiergerechter Haltung und noch vieles mehr k\u00f6nnen wir Ihnen w\u00e4rmstens empfehlen.\n</p><p>\nUm Ihnen eine noch vielf\u00e4ltigere Gestaltung Ihres Speiseplans zu erm\u00f6glichen, haben wir unser Sortiment mit einigen nicht-regionalen Produkten erg\u00e4nzt. So finden Sie bei uns z.B. auch diverse Gew\u00fcrze und Saucen, Spaghetti, Reis, Pommes, kalte Getr\u00e4nke, Glac\u00e9, usw. Ebenfalls erh\u00e4ltlich ist eine kleine Auswahl an Hygieneprodukten wie Zahnpasta, Zahnb\u00fcrste, Seife, Deo oder Toilettenpapier.\n</p><p>\nBei uns gibt es auch: B\u00fccher- und Spielverleih, Verkaufsstelle f\u00fcr Abfallgeb\u00fchrenmarken und diverse Geschenkartikel.</p><p><br></p><p><span style=\"font-weight: bold;\">Aufbackservice</span></p><p>\n</p>Unser <a href=\"https://cdn1.site-media.eu/images/document/9097265/Aufbackservice_III.pdf\" target=\"_blank\">Aufbackservice </a>mit Backwaren aus Romers Hausb\u00e4ckerei sorgt daf\u00fcr, dass Sie am Morgen ein ofenfrisches Gipfeli oder ein feines St\u00fcck Butterzopf, unterwegs ein Semmeli oder Br\u00f6tli aus dem Rucksack und zum Znacht Ihr Lieblingsbrot geniessen k\u00f6nnen.", "url": "https://www.hofladen-girs.ch/", "image": "https://viatpimtsoch.sos-ch-dk-2.exoscale-cdn.com/catalog/2/0/f/e/20fe66f7f677611ac4dcab1bce5fb057f2014dbc_girs02.jpg", "openstreetmap_id": "node/12304079511"}, "geometry": {"type": "Point", "coordinates": ["9.3858862", "46.6977187"]}}, {"type": "Feature", "properties": {"identifier": "a0babf3a-e654-47e1-aa21-76ebbffa76a3", "name": "Natureisfeld Obermutten", "description": "<p>Es steht w\u00e4hrend der Wintersaison bei entsprechenden Temperaturen zur Verf\u00fcgung und l\u00e4dt zum Schlittschuhlaufen und Eishockey spielen ein.&nbsp;</p><p><span style=\"font-weight: bold;\"> Material</span></p><p>Schlittschuhe und Eisst\u00f6cke (2 St\u00fcck) k\u00f6nnen f\u00fcr CHF 5.00 im Berggasthaus Post gemietet werden. Als Depot wird ein amtlicher Ausweis oder CHF 50.00 pro Benutzung/Tag/Abend verlangt.</p>", "url": "https://www.gasthauspost.ch", "image": "https://viatpimtsoch.sos-ch-dk-2.exoscale-cdn.com/catalog/4/1/5/d/415df4b7c7feec06e886be05076ee79cc56b15ce_natureisfeld_obermutten_winter.jpg", "openstreetmap_id": "node/12112572190"}, "geometry": {"type": "Point", "coordinates": ["9.484054", "46.672361"]}}, {"type": "Feature", "properties": {"identifier": "a440985f-06f3-4a70-bf78-12d76ba0c71b", "name": "Buachlada Kunfermann", "description": "<p>Seit 40 Jahren im Gesch\u00e4ft und immer noch mit Leidenschaft dabei: damit h\u00e4tten Agnes Tscharner und Lorenz Kunfermann nicht gerechnet, als sie am 13. November 1981 ohne grosse Pl\u00e4ne und vor allem ohne Businesskonzept ihr \u201eBuach- und Plattal\u00e4dali Kunfermann\u201c er\u00f6ffneten. Denn eigentlich suchten die beiden nur ein Kochbuch mit dem Rezept fu\u0308r ein Filet im Teig in Thusis - ohne Erfolg. Auch die Schallplatte von John Lennon konnten sie nicht finden. Also entschlossen sie kurzerhand, diese Marktlu\u0308cke mit Bu\u0308chern und Schallplatten zu fu\u0308llen. </p><p>Mittlerweile wurde aus dem \u00abBuach- und Plattal\u00e4dali\u00bb die \u00abBuachlada Kunfermann AG\u00bb, die Schallplatten machten mehr Bu\u0308chern Platz und Lorenz Kunfermann und Agnes Tscharner essen kein Fleisch mehr. Und nach 40 Jahren im Gesch\u00e4ft wurde es Zeit fu\u0308r das n\u00e4chste Kapitel. Ab November 2021 u\u0308bernahmen Flurina und Lucas Kunfermann die Gesch\u00e4ftsfu\u0308hrung - ein Buachlada Kunfermann 2.0 quasi. </p><p>Dank des Vertrauens der \u00e4lteren und der Risikobereitschaft der ju\u0308ngeren Generation k\u00f6nnen sie also weiterhin fu\u0308r die langj\u00e4hrige Kundschaft da sein.</p><ul><li><a href=\"https://www.buachlada.ch/veranstaltungen\" target=\"_blank\">Termine Lesungen und weitere Veranstaltungen</a></li></ul>", "url": "https://www.buachlada.ch", "image": "https://viatpimtsoch.sos-ch-dk-2.exoscale-cdn.com/catalog/6/8/f/4/68f4a8037968d7a7a1cd7a883a2004a1e20e338b_buachlada_kunfermann_thusis_buchhandlung_viamala_tourismus.jpg", "openstreetmap_id": "node/5765887247"}, "geometry": {"type": "Point", "coordinates": ["9.439383", "46.695935"]}}, {"type": "Feature", "properties": {"identifier": "acd022ff-a84b-4f6f-9bdc-e55241580dbb", "name": "Viamala Besucherzentrum", "description": "<p>Sie wird seit dem Fr\u00fchjahr 2014 durch ein vom einheimischen Architektenteam Ivano Iseppi und Stefan Kurath entworfenes neues Besucherzentrum erg\u00e4nzt. Das fr\u00fchere Kioskgeb\u00e4ude und die WC-Anlage stammten aus den 1970er Jahren. Das moderne Besucherzentrum hat wegen den Steinschlagvorschriften gegen die Kantonsstrasse&nbsp;nur ein schmales Langfenster. </p><p>Ein leicht asymmetrisches Gibeldach aus Sichtbeton \u00fcberspannt die rund 40m2 Verkaufsfl\u00e4che. W\u00e4hrend der Bau zur Strasse und zur Schlucht hin geschlossen wirkt, ist die S\u00fcd- und Nordseite des mit einheimischem Holz ausgebauten Innenraums mit grossfl\u00e4chigen Fenstern versehen. Die Besucher gelangen neu durch den Shop hindurch an der Kassa vorbei \u00fcber die ausgesetzte Treppe n\u00f6rdlich des Geb\u00e4udes in die Schlucht. Der Weg f\u00fchrt im Untergeschoss durch einen Ausstellungsraum. Von dort wird man auf die im Jahre 1903 erbaute Treppenanlage gef\u00fchrt, \u00fcber welche die Schluchtbesucher nach dem Rundgang wieder zum Shop und zur neuen Besucherterrasse gelangen. Die Viamala-Schlucht ist mit j\u00e4hrlich rund 60'000 zahlenden Besuchern Aush\u00e4ngeschild und tragende wirtschaftliche S\u00e4ule im regionalen Tourismus. Entsprechend waren bei der Planung und der Umsetzung des Bauprojektes die Verbesserung der Orientierung und der Aufenthaltsqualit\u00e4t f\u00fcr den Gast massgebende Maximen. So entwickelte eine Fachgruppe unter Beizug von Dr. Roland Scheurer, einem ausgewiesenen Fachmann im Bereich touristischer Angebotsentwicklung, parallel zum Bauprozess ein modulares Konzept, das sich auf die archaische Natur als Kernwert der Viamala fokussiert. Die Schluchtbesucher werden bewusst nicht mit Informationen \u00fcberh\u00e4uft, sondern subtil aufgefordert, das Szenario vor Ort mit all ihren Sinnen wahrzunehmen.</p>", "url": "http://www.viamala.ch", "image": "https://viatpimtsoch.sos-ch-dk-2.exoscale-cdn.com/catalog/a/4/c/9/a4c90c5620b5b036b9a851653c021881e5e79f21_besucherzentrum_von_unten.jpg", "openstreetmap_id": "way/696320310"}, "geometry": {"type": "Point", "coordinates": ["9.447439000000031", "46.663263"]}}, {"type": "Feature", "properties": {"identifier": "af2507ba-0a3b-42cd-9c4c-35edc3a97ddf", "name": "Klettergarten B\u00e4renburg Andeer", "description": "<p>Einseill\u00e4ngen ab 5c </p><p><br></p><p><span style=\"font-weight: bold;\">Informationen und Topo </span></p><p>Bergsportschule Grischa </p><p>Veia Prinzipala 47 </p><p>7443 Pignia</p><p> </p><p><a href=\"mailto:info@bergsportschulegrischa.ch\" target=\"_blank\">info@bergsportschulegrischa.ch</a></p><p><a href=\"https://bergsportschulegrischa.ch\">www.bergsportschulegrischa.ch</a></p>", "url": "https://bergsportschulegrischa.ch", "image": "https://viatpimtsoch.sos-ch-dk-2.exoscale-cdn.com/catalog/a/d/0/4/ad041a35ad96aad06595ee8925a6f42b77e3edd9_13668129.jpg", "openstreetmap_id": "node/12114459352"}, "geometry": {"type": "Point", "coordinates": ["9.5369788", "46.4586884"]}}, {"type": "Feature", "properties": {"identifier": "b399a958-e70d-4951-a989-b28895b53855", "name": "Dettli-Sport", "description": "Dettli Sport wurde im Jahr 1982 von Christian Dettli gegr\u00fcndet. Zuerst befand er sich in einem Bauwagen beim Ponylift. Nach ein paar Jahren wechselte Dettli Sport in das Hirtenh\u00fcttchen. Christian Dettli gr\u00fcndete dann auch die Skischule Avers, welche er&nbsp;35&nbsp;Jahre, bis im Fr\u00fchjahr&nbsp;2020, betrieb. Die Skischule Avers wird nun von seiner treuen Mitarbeiterin Claudia Buchli weiter gef\u00fchrt. Im Jahr 1993 zog das Gesch\u00e4ft aus dem kleinen Hirtenh\u00fcttchen in den Neubau, wie Sie es heute vorfinden.&nbsp;Seit der Saison 20/21 ist Christina Dettli, Tochter von Christian und Elsi, nun Gesch\u00e4ftsf\u00fchrerin und freut sich, Sie begr\u00fcssen zu d\u00fcrfen.", "url": "https://www.dettli-sport.com", "image": "https://viatpimtsoch.sos-ch-dk-2.exoscale-cdn.com/catalog/6/5/3/e/653e1287f2712848f0044c474729b740e59a0536_dettli_sport_im_avers.jpg", "openstreetmap_id": "node/3028837059"}, "geometry": {"type": "Point", "coordinates": ["9.54961895942688", "46.45044872505472"]}}, {"type": "Feature", "properties": {"identifier": "b8f9ad56-4cc0-463c-a0e0-473f0326dda5", "name": "Tennis Andeer", "description": "<p>Bei voller Auslastung k\u00f6nnen Einzelspieler den Platz f\u00fcr max. 1 Stunde und Doppelspieler f\u00fcr max. 2 Stunden reservieren. Die Nutzung der Ballwurfmaschine ist kostenlos.</p>\n<p><strong>Platzordnung</strong></p>\n<ul>\n<li>Kinder unter 16 Jahren ist die Ben\u00fctzung der Tennisanlage nur unter Aufsicht von Erwachsenen erlaubt.</li>\n<li>Personen ohne Spielberechtigung ist das Betreten der Anlage nicht erlaubt. Sind die Pl\u00e4tze gesperrt, ist der Zutritt untersagt.</li>\n<li>Die Tennispl\u00e4tze d\u00fcrfen nur mit Tennisschuhen betreten werden. Nach jeder Spielzeit ist der Platz mit der Abziehmatte abzuziehen (gem\u00e4ss Instruktion am Platzeingang). Die Abziehmatten sind nach der Ben\u00fctzung wieder an die vorgesehenen Haken zu h\u00e4ngen.</li>\n<li>Die Ballwurfmaschine ist nach Gebrauch zuzudecken und die B\u00e4lle sowie die Kabelrolle sind zu versorgen.</li>\n<li>Nach dem Spiel sind s\u00e4mtliche T\u00fcren abzuschliessen und die Beleuchtung auszuschalten.</li>\n<li>Bitte Pl\u00e4tze und Clubhaus sauber und aufger\u00e4umt zur\u00fccklassen. Anfallender M\u00fcll etc. soll in den entsprechenden Abfalleimern entsorgt werden.</li>\n<li>Der Tennisclub \u00fcbernimmt f\u00fcr Unf\u00e4lle keinerlei Haftung. Spieler, die den Platz bzw. das Eigentum des Vereins besch\u00e4digen, haften f\u00fcr diese Sch\u00e4den. Eltern haften f\u00fcr ihre Kinder. Auf beiden Tennispl\u00e4tzen und im Clubhaus herrscht striktes Rauchverbot.</li>\n<li>Bei Anfahrt mit dem Auto bitte die \u00f6ffentlichen Parkpl\u00e4tze beim Mineralbad ben\u00fctzen.</li>\n<li>Wir bitten Spieler und Zuschauer auf das Ruhebed\u00fcrfnis der Anwohner R\u00fccksicht zu nehmen.</li>\n</ul><p><br></p><p><span style=\"font-weight: bold;\">Kosten</span><br></p><p>CHF 20.00 pro Platz und Stunde.&nbsp;Reservation bei der G\u00e4steinformation c/o Mineralbad Andeer, Tel. <a href=\"tel:+41816611878\">+41 81 661 18 78</a>.&nbsp;Bezahlung der Platzmiete und Schl\u00fcsseldepot erfolgt im Mineralbad Andeer.</p>", "url": "https://mineralbad-andeer.ch/", "image": "https://viatpimtsoch.sos-ch-dk-2.exoscale-cdn.com/catalog/7/2/6/d/726d3b69091c422ddfc124397fd0bac6181764fc_tennisplatz_keyvisual.jpg", "openstreetmap_id": "way/214148677"}, "geometry": {"type": "Point", "coordinates": ["9.425110816955568", "46.60653281858061"]}}, {"type": "Feature", "properties": {"identifier": "bdddf8a4-d93c-4eb0-a913-9172033b6ebb", "name": "Natureisfeld Avers-Juppa", "description": "<p>Schlittschuhmiete Dettli-Sport, Tel. <a href=\"tel:+41 81 667 11 66\">+41 81 667 11 66</a>, beim Loretschhus in Juppa.</p><p>Eintritt frei.</p>", "url": "https://www.viamala.ch", "image": "https://viatpimtsoch.sos-ch-dk-2.exoscale-cdn.com/catalog/2/2/a/9/22a9daefc7364398430d159d313302e825feccc1_natureisfeld_avers_juppa_winter_markus_mueller.jpg", "openstreetmap_id": "node/12112598831"}, "geometry": {"type": "Point", "coordinates": ["9.549854993820192", "46.44928619719344"]}}, {"type": "Feature", "properties": {"identifier": "bf4397e4-3b8a-43fd-bb2c-34c72f1dfc15", "name": "Regionalbibliothek Thusis", "description": "Im kuscheligen Fauteuil ein H\u00f6rbuch geniessen. Mit dem Enkelkind dank guten Sachb\u00fcchern einen spannenden Vortrag erarbeiten. In sch\u00f6nen Bilderb\u00fcchern bl\u00e4ttern oder einen spannenden Krimi lesen. / Belletristik, Sachb\u00fccher, Zeitschriften, H\u00f6rb\u00fccher f\u00fcr Jung und Alt, DVD\u2019s, Tonies und sogar noch Kassetten \u2013 all das finden Sie in der Regionalbibliothek Thusis. / Werden Sie Mitglied und profitieren Sie! Ihnen steht damit eine umfangreiche, aktuelle Auswahl an B\u00fcchern und neuen Medien zur Verf\u00fcgung. Alle Interessierten sollen sich bei uns ein Abo leisten k\u00f6nnen. Mit weniger als 8 Franken pro Monat, kann zum Beispiel eine Familie, so oft sie m\u00f6chten aus ca. 9\u2018000 Medien ausw\u00e4hlen. / Lesen Sie lieber auf einem Tolino oder Tablett? Mit einem Familienabo erhalten Sie zus\u00e4tzlich einen Code zur digitalen Ausleihe bei \u201edibiost\u201c. / Besuchen Sie uns und \u00fcberzeugen Sie sich von unserem Angebot. Sie erhalten damit Zugang zu viel Wissen und Unterhaltung und helfen uns gleichzeitig, den Fortbestand einer zeitgem\u00e4ssen Bibliothek f\u00fcr alle zu sichern. / Wir freuen uns auf Sie!", "url": "https://www.bibliothek-thusis.ch", "image": "https://viatpimtsoch.sos-ch-dk-2.exoscale-cdn.com/catalog/4/e/3/d/4e3d931b81b275d6b1a464464a7240a0f368d463_bibliothek_thusis.jpg", "openstreetmap_id": "node/3676232670"}, "geometry": {"type": "Point", "coordinates": ["9.439668", "46.696387"]}}, {"type": "Feature", "properties": {"identifier": "c48bde64-5e6b-46f4-a100-d6671cb1cc01", "name": "Pumptrack Sils i.D.", "description": "Die rund 1\u2019000 m2 grosse Asphaltpiste besteht aus H\u00fcgeln, Wellen und Steilwandkurven und ist mit Bike, Skate- und Kickboard befahrbar. Die Anlage kann per Mountainbike, Skate- oder Kickboard einzig durch das aktive Be- und Entlasten von Vorder- und Hinterrad (pumpen; englisch \u00abpump\u00bb) befahren werden. Speziell an der Silser Anlage ist, dass die Fahrlinie nicht wie beim klassischen Pumptrack fix vorgegeben ist, sondern \u00fcber die ganze Fl\u00e4che frei gew\u00e4hlt werden kann.", "url": "https://www.sils-id.ch", "image": "https://viatpimtsoch.sos-ch-dk-2.exoscale-cdn.com/catalog/8/2/2/1/82218f51c4bf9bbaf9d6bdb0c724ff2c2e1f3953_pump_park_pumptrack_sils_im_domleschg_sommer_hansueli_spitznagel.jpg", "openstreetmap_id": "way/809321092"}, "geometry": {"type": "Point", "coordinates": ["9.450667", "46.700458"]}}, {"type": "Feature", "properties": {"identifier": "c70b1c8b-ac3b-42a1-95de-04d12353bc1e", "name": "Badi Thusis", "description": "<p>Die Bassinanlage umfasst ein 50 m-Becken f&uuml;r Schwimmer, ein Kinderbecken, ein 1 m- und ein 3 m-Sprungbrett sowie ein separates Kleinkinder-Planschbecken.</p><p>Auf der Liegewiese gibt es zudem einen kleinen Kinder-Spielplatz mit einem sonnengesch&uuml;tzten Sandkasten. F&uuml;r die Gr&ouml;sseren stehen ein Beachvolleyballfeld und Tischtennis zur freien Ben&uuml;tzung bereit. Im Self-Service-Restaurant sind nebst verschiedenen Snacks und Erfrischungen auch warme Mahlzeiten erh&auml;ltlich.</p><p>In unmittelbarer N&auml;he vom&nbsp;<a href=\"https://viamala.ch/de/erleben/ausflugsziele/badi-thusis.html\" target=\"_blank\" rel=\"noopener\">Waldschwimmbad Thusis</a> befinden sich der Camping-, Sport- und Tennisplatz.</p>", "url": "http://www.badi-thusis.ch", "image": "https://viatpimtsoch.sos-ch-dk-2.exoscale-cdn.com/catalog/c/2/f/4/c2f486cab3bdd8825e2eb666720f2dd480d75c73_badi_thusis_schwimmbecken.jpg", "openstreetmap_id": "way/1091866774"}, "geometry": {"type": "Point", "coordinates": ["9.445184", "46.703153"]}}, {"type": "Feature", "properties": {"identifier": "c8cf5ae0-0a77-4cb9-b97e-19a2911595a2", "name": "Sportwerkstatt STORY Thusis", "description": "<p>Die Vision der Sportwerkstatt Story Thusis ist es, die besten Mountainbike-Erlebnisse in Graub&uuml;nden zu bieten. Die Guides f&uuml;hren ihre G&auml;ste &uuml;ber die sch&ouml;nsten Trails des Kantons und sorgen f&uuml;r unvergessliche Erlebnisse. Das Rundum-Paket umfasst Transport, &Uuml;bernachtungen in ausgew&auml;hlten Mountainbike-Hotels sowie einen pers&ouml;nlichen Guide.</p><p>Im Winter wird das Angebot durch Ski-Service und Vermietung inkl. zweitem Standort im Skigebiet Tschappina in Oberurmein erweitert. Mit innovativen Produkten, wie dem flexiblen Ski- &amp; Bike-Mietmodell f&uuml;r Kinder, das mitw&auml;chst, bietet die Viamala Sportwerkstatt zus&auml;tzlichen Mehrwert</p>", "url": "https://story-thusis.ch/sportwerkstatt", "image": "https://viatpimtsoch.sos-ch-dk-2.exoscale-cdn.com/catalog/9/5/2/9/9529f31f72018c0c0b6f9c404e349404e4e1bfe7_der_shop_der_sportwerkstatt_story_thusis.jpg", "openstreetmap_id": "node/6898130239"}, "geometry": {"type": "Point", "coordinates": ["9.440326", "46.692676"]}}, {"type": "Feature", "properties": {"identifier": "d3594abd-fd38-4ef2-b525-c4ac62a32325", "name": "GOFAST Schnellladestation Rastst\u00e4tte Viamala", "description": "<p>Die Rastst&auml;tte Viamala in Thusis beherbergt den gr&ouml;ssten Schnellladehub im Kanton Graub&uuml;nden, mit 16 Ladepl&auml;tzen und einer Ladeleistung von bis zu 300 Kilowatt. Hier wird ausschliesslich 100% &Ouml;ko-Strom verwendet, was das Aufladen sowohl schnell als auch umweltfreundlich macht.</p>\n<p>W&auml;hrend das Elektroauto l&auml;dt, k&ouml;nnen Reisende im Restaurant der Rastst&auml;tte frische Speisen und Getr&auml;nke in modernem Ambiente geniessen. Wer die Ladezeit aktiv nutzen m&ouml;chte, kann einen malerischen Spaziergang in die umliegende Natur unternehmen. So wird die Ladepause zu einer erholsamen Unterbrechung, die neue Energie f&uuml;r die Weiterfahrt liefert.</p>", "url": "https://www.gofast.swiss/", "image": "https://viatpimtsoch.sos-ch-dk-2.exoscale-cdn.com/catalog/f/3/1/d/f31d4b22ecb461b68cb767d5387901883458fcdd_die_raststaette_viamala_im_fruehling.jpg", "openstreetmap_id": "node/5284912625"}, "geometry": {"type": "Point", "coordinates": ["9.445999860763552", "46.71265243883166"]}}, {"type": "Feature", "properties": {"identifier": "d4dec314-70c1-44f6-8c7b-cde0ba96d6ae", "name": "E-Bike-Ladestation Innerferrera", "description": "<p><span style=\"font-weight: bold;\">Vorhandene Anschl\u00fcsse </span></p><ul><li>Bosch </li><li>Yamaha </li><li>Impulse-Brose </li><li>Shimano 1 &amp; 2 </li><li>Panasonic-Flyer 1 &amp; 2 </li><li>Schweizer Steckdose T13</li></ul><p><br></p><p><span style=\"font-weight: bold;\">Unsere Tipps f\u00fcr Sie w\u00e4hrend der Ladezeit </span></p><p>St\u00e4rken Sie sich im <a href=\"https://alpenroseferrera.ch/\">Gasthaus Alpenrose</a>.&nbsp;besuchen Sie gleich gegen\u00fcber des Gasthauses das <a href=\"https://www.erzminen-hinterrhein.ch/f%C3%BChrungen/bergbau-museum-innerferrera/\">Bergbaumuseum Innerferrera</a> und/oder entdecken Sie den neuen <a href=\"https://www.maps.viamala.ch/s/BfMnt\">Waldweg Innerferrera</a> - wird im Sommer 2019 er\u00f6ffnet - mit der spektakul\u00e4ren 70 m langen H\u00e4ngebr\u00fccke \u00fcber den Ragn da Ferrera. L\u00e4nge 2 km, Wanderzeit 45 Min, Mini-Guides sind kostenlos vor Ort erh\u00e4ltlich. </p><p>Falls Sie in Innerferrera \u00fcbernachten m\u00f6chten: Im <a href=\"https://alpenroseferrera.ch/\">Gasthaus Alpenrose</a> gibt es auch G\u00e4stezimmer.</p>", "url": "https://alpenroseferrera.ch/", "image": "https://viatpimtsoch.sos-ch-dk-2.exoscale-cdn.com/catalog/d/c/0/e/dc0e4a4a7746af73ca219686b8926f87598dbfd3_e_bike_ladestation_innerferrera_nataurpark_beverin.jpg", "openstreetmap_id": "node/6315746957"}, "geometry": {"type": "Point", "coordinates": ["9.443116485560267", "46.52113656844544"]}}, {"type": "Feature", "properties": {"identifier": "db40cb50-33cb-4573-a15e-17a37d69a97e", "name": "Stizunetta Feldis", "description": "<p>Entdecken Sie&nbsp;im charmanten Dorfladen eine Welt sowohl traditioneller, wie auch wilder Delikatessen, geerntet bei Mutter Natur, kunstvolle Handwerksarbeit und alles, was Sie f\u00fcr ein authentisches Erlebnis in den B\u00fcndner Alpen ben\u00f6tigen.</p><p><br>Die Stizunetta, liebevoll von Einheimischen gef\u00fchrt, steht f\u00fcr die Verbindung von Tradition und Gemeinschaft. Hier finden Sie eine Auswahl an hochwertigen regionalen Produkten sowie etwas verdichtete D\u00f6rflichkeit. Von lokal produziertem K\u00e4se \u00fcber hausgemachte K\u00f6stlichkeiten bis hin zu einzigartigen Souvenirs \u2013 jedes St\u00fcck erz\u00e4hlt die Geschichte von Feldis.</p><p><br>Aber die Stizunetta ist mehr als nur ein Laden. Es ist ein Treffpunkt f\u00fcr Einheimische und Besucher, ein Ort des Austauschs und der Begegnung. Hier k\u00f6nnen Sie sich \u00fcber die besten Wanderwege informieren, Geheimtipps f\u00fcr Ausfl\u00fcge in der Umgebung erhalten, Fl\u00fcssiges und Bissiges degustieren oder einfach nur einen Moment der Ruhe geniessen, w\u00e4hrend Sie die Gastfreundschaft und das gem\u00fctliche Ambiente auf sich wirken lassen.</p><p><br>Das Team vom Stizunetta freut sich darauf, Sie willkommen zu heissen und mit Ihnen die verborgenen Sch\u00e4tze von Feldis zu teilen.</p>", "image": "https://viatpimtsoch.sos-ch-dk-2.exoscale-cdn.com/catalog/4/8/2/4/4824aa9b4d5c8bed644cc61577f721df2de08642_stizunetta_in_feldis_domleschg_sommer_balz_marti.jpg", "openstreetmap_id": "node/12114619018"}, "geometry": {"type": "Point", "coordinates": ["9.432469", "46.794151"]}}, {"type": "Feature", "properties": {"identifier": "e4e5c931-954f-4155-b6b9-ed88aee3ad8b", "name": "Freibad Andeer", "description": "<p>Die romantische Anlage in einer wundersch&ouml;nen Waldlichtung lockt an sch&ouml;nen Sommertagen Gross und Klein zum Schwimmen, Erholen und Auftanken an.</p><p>25m-Schwimmbecken mit eingegliedertem 12m-Nichtschwimmerbecken, Kinderplanschbecken, 1m Sprungbrett, 3m Breitrutschbahn, Spielwiese, Tischtennistische, Beachvolleyballfeld und Kiosk mit Snacks und Erfrischungen.</p><p>Hunde sind im Freibad nicht erlaubt.</p>", "url": "https://mineralbad-andeer.ch", "image": "https://viatpimtsoch.sos-ch-dk-2.exoscale-cdn.com/catalog/3/e/0/4/3e04c8917f38505a9375f9d29d28d83123a23387_freibad_andeer_viamala_tourismus_2.jpg", "openstreetmap_id": "way/1304793874"}, "geometry": {"type": "Point", "coordinates": ["9.425009", "46.605316"]}}, {"type": "Feature", "properties": {"identifier": "e4fd03e4-484e-4df3-8a42-5abdf4466bc7", "name": "Canyoning Viamala", "description": "<p>Viamala Canyoning ist nicht das typische Canyoning-Abenteuer. Es ist ein echtes Naturerlebnis der Extraklasse. Beim Viamala Canyoning gibt es keine atemberaubenden Wasserf\u00e4lle, welche man runterspringt. Vielmehr \u00f6ffnet sich hier die Viamala-Schlucht dem Besucher von einer v\u00f6llig unbekannten Seite. W\u00e4hrend Millionen von Jahren wurde das beeindruckende Naturmonument der Viamala-Schlucht in den massiven Fels geschliffen. Bis zu 300 Meter hohe Felsw\u00e4nde ragen in den Himmel und ganz unten fliesst der junge Rhein. Und genau hier schwimmen Sie durch die Felsenenge und entdecken, was dem Besucher der Schlucht normalerweise verborgen bleibt.</p><p><span style=\"font-weight: bold;\">Anbieter und Sicherheit</span><br>Sicherheit wird grossgeschrieben:&nbsp;Das Naturerlebnis Canyoning Viamala wird durch speziell ausgebildete Fachleute von Swissraft&nbsp;und&nbsp;Swiss River Adventures&nbsp;durchgef\u00fchrt. Die Unternehmen&nbsp;sind gem\u00e4ss den Richtlinien&nbsp;der Beratungsstelle f\u00fcr Unfallverh\u00fctung BFU&nbsp;sicherheitszertifiziert und b\u00fcrgen f\u00fcr Sicherheit und Qualit\u00e4t.</p><ul><li><a href=\"https://www.swissraft.ch/canyoning/graubunden/viamala-schlucht-43\" target=\"_blank\">Zum Angebot von Swissraft</a></li><li><a href=\"https://swissriveradventures.ch/canyoning-tour/canyoning-viamala-halbtagestour/\" target=\"_blank\">Zum Angebot von Swiss River Adventure</a><br><br></li></ul><p><span style=\"font-weight: bold;\">Was es braucht<br></span>Canyoning in der Viamala ist keine wilde Action, daf\u00fcr umso mehr pures Naturerlebnis f\u00fcr alle, welche keine Angst vor Wasser haben. Das Mindestalter ist 14 Jahre in Begleitung Erwachsener. Das Viamala-Canyoning dauert rund 3-4 Stunden. Treffpunkt ist beim <a href=\"https://maps.app.goo.gl/Jv9b5yhK5sseZYXLA\" target=\"_blank\">ehemaligen Restaurant zur alten Post in Rongellen</a>. Die Canyoning-Ausr\u00fcstung wird zur Verf\u00fcgung gestellt.</p><p><span style=\"font-weight: bold;\">Durchf\u00fchrung<br></span>Ca. Mitte Mai (je nach Wasserlevel) bis September. F\u00fcr Gruppen ab vier Personen t\u00e4glich auf Anfrage. F\u00fcr Einzelpersonen und Kleingruppen Donnerstag und Sonntag sowie an einzelnen weiteren Tagen.</p>", "url": "https://viamala.ch", "image": "https://viatpimtsoch.sos-ch-dk-2.exoscale-cdn.com/catalog/6/5/4/0/654050d69437873799ef4d23c88fd094fcbc18bd_canyoning_viamala_schlucht_switzerland_tourism_ivo_scholz.jpg", "openstreetmap_id": "node/12131365364"}, "geometry": {"type": "Point", "coordinates": ["9.447504", "46.663276"]}}, {"type": "Feature", "properties": {"identifier": "eb67fd51-e0ee-4b6b-8538-080d1674f3d9", "name": "Tennis Spl\u00fcgen", "description": "<p>Die Geb\u00fchr kann unkompliziert am Campingkiosk oder in der G\u00e4steinformation von Viamala Tourismus auf dem Bodaplatz beglichen werden. Sie erhalten dort den Eingangsschl\u00fcssel und einen Quittungskleber, der vor dem Nutzen des Platzes auf dem Reservationstableau anzubringen ist.</p>\n<p>Die Sandpl\u00e4tze d\u00fcrfen nur mit Tennisschuhen betreten werden. Nach dem Spiel den Platz bitte mit dem Netz abziehen. Die Linien m\u00fcssen nicht gewischt werden.</p><p><span style=\"font-weight: bold;\">Kosten</span></p><p>CHF 25.00 pro Platz und Stunde.&nbsp;Bezahlung in der G\u00e4steinformation Viamala in Spl\u00fcgen (<a href=\"tel:+41816509030\">+41 81 650 90 30</a>)&nbsp;oder im Campingkiosk (<a href=\"tel:+41816641476\">+41 81 664 14 76</a>).</p>", "url": "https://www.spluegen.ch/campingplatz/tennisplatz", "image": "https://viatpimtsoch.sos-ch-dk-2.exoscale-cdn.com/catalog/8/2/d/7/82d74a9dd6167977c7c78f51e667a985b2a01dbc_tennisplaetze_beim_camping_spluegen_markus_mueller.jpg", "openstreetmap_id": "way/132374013"}, "geometry": {"type": "Point", "coordinates": ["9.3154759", "46.5499991"]}}, {"type": "Feature", "properties": {"identifier": "ecddfd13-3991-4758-a454-58f7f9b4159e", "name": "E-Tuk-Tuk mieten Spl\u00fcgen", "description": "<p>Die Elektro Tuk-Tuks sind eine erlebnisorientierte und \u00f6kologische Alternative f\u00fcr den Personentransport im Nahverkehr. Die Auto-Rikscha hat eine H\u00f6chstgeschwindigkeit von 45 km/h. Die Dreir\u00e4der sind leise, haben Power und sehen umwerfend aus.</p>\n<p>In einem Tuk-Tuk haben drei Personen Platz. Ein Fahrer vorne und zwei G\u00e4ste hinten. Jeder Sitzplatz verf\u00fcgt \u00fcber eine eigene Sitzgurte. Kindersitze k\u00f6nnen auch befestigt werden.</p>\n<p><strong>Reichweite</strong><br>Die Subeez Tuk-Tuks sind f\u00fcr den Mikrotransport gedacht, somit wird empfohlen in einem Kreis von 50 km zu fahren. Die maximale Reichweite betr\u00e4gt bei voller Ladung im flachen etwa 80 km. Bergaufw\u00e4rts kann sich die Reichweite verringern, da die Fahrzeuge bergabw\u00e4rts (d.h. beim Bremsen) aber rekuperieren (Energie wiedergewinnen) gleicht sich das wieder aus.</p>\n<p><strong>Anforderungen</strong><br>Die E-Tuk-Tuks k\u00f6nnen mit einem g\u00fcltigen F\u00fchrerausweis ab 18 Jahren gemietet werden.</p>\n<p><strong>Preise</strong><br><strong>30 Minuten:</strong> CHF 5.00<br><strong>1 Stunde:</strong> CHF 10.00<br><strong>1/2 Tag:</strong> CHF 50.00<br><strong>1 Tag:</strong> CHF 75.00</p>\n<p>Das E-Tuk-Tuk kann direkt beim <a href=\"https://www.spluegen.ch/campingplatz/allgemein\">Camping Spl\u00fcgen</a> gebucht und bezahlt werden.</p>", "url": "https://www.spluegen.ch/campingplatz/allgemein", "image": "https://viatpimtsoch.sos-ch-dk-2.exoscale-cdn.com/catalog/0/3/6/e/036e06f113e657bde1e578661cf51a6eb9e892e7_subeez_e_tuk_tuk__1_.jpg", "openstreetmap_id": "way/132374006"}, "geometry": {"type": "Point", "coordinates": ["9.314288", "46.549485"]}}, {"type": "Feature", "properties": {"identifier": "ed3d3978-3bc7-4cbd-ab6d-3c1b441f1605", "name": "Bergbau-Erlebnisse im Schams", "description": "<p>Es kann jedoch davon ausgegangen werden, dass die Menschen schon viel fr\u00fcher die Erzvorkommen nutzten. Damals suchte man vor allem nach sogenannten Buntmetallen (Blei, Silber und Kupfererz) aber auch nach Eisenerzvorkommen. Einige Stollen, Abbauhalden und \u00dcberreste der Verarbeitungsanlagen und Schmelz\u00f6fen sind als stumme Zeugen dieser l\u00e4ngst vergangenen Zeiten bis heute erhalten geblieben. Der Verein Erzminen Hinterrhein sorgt daf\u00fcr, dass diese im Bergbaumuseum in Innerferrera und auf gef\u00fchrten Exkursionen wieder entdeckt werden k\u00f6nnen.</p>\n<p>Wer bereit ist f\u00fcr ein abenteuerliches Eintauchen in l\u00e4ngst vergangene Zeiten, ist hier richtig.</p>\n<p><strong>Gef\u00fchrte Besichtigungen</strong></p>\n<p><strong>Exkursion zu den Silberminen Alp Taspegn<br></strong>Jeden Mittwoch von&nbsp;Juli bis&nbsp;Mitte September&nbsp;gibt es eine gef\u00fchrte Besichtigung zu den und in die ehemaligen Erz- und Silberminen. Fahrt mit dem Jeep zur Alp Taspegn, anschliessend kurze Wanderung bis zum Zugang der Mine. Weitere Informationen finden Sie im&nbsp;<a href=\"https://www.viamala.ch/de/veranstaltungen\">Viamala-Veranstaltungskalender</a>.</p>\n<p><strong>Bergbau-Geschichte im Val Ferrera - Besichtigung Museum und Zeitzeugen<br></strong>Auf Anfrage f\u00fchren gef\u00fchrte Bergbau-Exkursionen statt. Es gibt eine gef\u00fchrte Tour durch das Bergbaumuseum in Innerferrera und zu den Zeitzeugen in der Schmelzi bei Ausserferrera.</p>\n<p><strong>Bergbau-Wanderung zu den Erzstollen auf Ursera<br></strong>Auf Anfrage geht es zu Fuss von der Schmelzi bei Ausserferrera steil hinauf zu den stillgelegten Erzstollen auf Ursera. Gutes Schuhwerk und Trittsicherheit sind f\u00fcr diese anspruchsvolle Tour erforderlich.</p>\n<p>Detaillierte Informationen zu den gef\u00fchrten Besichtigungen finden Sie im&nbsp;<a href=\"https://www.viamala.ch/de/veranstaltungen\">Viamala-Veranstaltungskalender</a>! F\u00fcr s\u00e4mtliche gef\u00fchrte Besichtigungen ist eine Anmeldung erforderlich (begrenzte Anzahl Pl\u00e4tze). F\u00fcr Gruppen sind individuelle F\u00fchrungen an allen Wochentagen auf Anfrage m\u00f6glich, zu den Silberminen auch Ganztagestouren.</p>", "url": "https://www.erzminen-hinterrhein.ch", "image": "https://viatpimtsoch.sos-ch-dk-2.exoscale-cdn.com/catalog/6/1/0/6/610638313ee6415c1629dd94a38c3ee57173ddc5_verein_erzminen_hinterrhein_alp_taspegn_erz_und_silberminen_fuehrung.jpg", "openstreetmap_id": "node/9980229909"}, "geometry": {"type": "Point", "coordinates": ["9.439752", "46.556727"]}}, {"type": "Feature", "properties": {"identifier": "f01fcf98-e020-4ac7-b4cb-da1f4bd3115b", "name": "E-Bike-Ladestation Lohn", "description": "<p><span style=\"font-weight: bold;\">Vorhandene Anschl\u00fcsse </span></p><ul><li>Bosch</li><li>Yamaha</li><li>Impulse-Brose </li><li>Shimano 1 &amp; 2 </li><li>Panasonic-Flyer 1 &amp; 2 </li><li>Schweizer Steckdose T13</li></ul><p><br></p><p><span style=\"font-weight: bold;\">Unsere Tipps f\u00fcr Sie w\u00e4hrend der Wartezeit </span></p><ul><li>St\u00e4rken Sie sich in der&nbsp;<a href=\"https://www.ustreia-orta.ch/\">Ustreia Orta</a> oder auf dem <a href=\"https://rebecca-clopath.ch/biohoftaratsch/\">Biohof Taratsch</a></li><li> Entdecken Sie den <a href=\"https://mybusiness.outdooractive.com/de/r/23419473/\">Klangwald t\u00f9n-res\u00f9n</a>. Der Weg startet gleich hinter dem Bergrestaurant Orta. L\u00e4nge: 2 km, Wanderzeit ca. 50 Minuten.&nbsp;</li><li> Unterk\u00fcnfte finden Sie unter <a href=\"https://www.viamala.ch/de/buchen/unterkuenfte\">www.viamala.ch</a></li></ul>", "url": "https://www.ustreia-orta.ch/", "image": "https://viatpimtsoch.sos-ch-dk-2.exoscale-cdn.com/catalog/f/e/4/9/fe49507e647bd022cae4579f9a813de44b1ab3da_e_bike_ladestation_lohn_schams_naturpark_beverin.jpg", "openstreetmap_id": "node/9953528674"}, "geometry": {"type": "Point", "coordinates": ["9.425014255381711", "46.65040464173163"]}}, {"type": "Feature", "properties": {"identifier": "f4b5f7a2-d3ef-4c6c-bf0b-399fe874524d", "name": "Story Mietcenter Oberurmein", "description": "<p>Du willst ein paar Stunden auf die Skier oder eine ganze Saison auf das Snowboard? Du findest&nbsp;im Mietcenter f\u00fcr jedes Niveau und jeden Einsatzbereich das passende Material. Die Kids wachsen so schnell, ein Kauf lohnt sich nicht. Da kommt das Mietmaterial wie gerufen.</p>\n<p>Um dich perfekt auszur\u00fcsten,&nbsp;hat die Sportwerkstatt ein kundenfreundliches Mietsystem entwickelt: Skimiete, Snowboardmiete, Skitourenmiete und noch viel mehr. Reserviere dein Sportger\u00e4t direkt \u00fcber den <a href=\"https://story-thusis.ch/mietmaterial-winter/\">Online-Shop</a>. Da kannst du auch ausw\u00e4hlen, ob du dieses in Oberurmein oder in Thusis abholen wirst. Die Bezahlung erfolgt dann vor Ort anhand des effektiven Mietpreises.</p>\n<p>Und f\u00fcr deine Kids hat die Sportwerkstatt die \"3-Jahre-Sorglos-Miete\" entwickelt. So bist auch du jede Saison mit dem passenden Material unterwegs.</p>", "url": "https://story-thusis.ch/mietmaterial-winter/", "image": "https://viatpimtsoch.sos-ch-dk-2.exoscale-cdn.com/catalog/3/4/2/3/34234f77b4706150f4150b04a3b2d7cb2e776d75_mietcenter_oberurmein_story_thusis_winter_heinzenberg.jpg", "openstreetmap_id": "node/12112302228"}, "geometry": {"type": "Point", "coordinates": ["9.385854005813599", "46.697754219097824"]}}, {"type": "Feature", "properties": {"identifier": "fdaa7771-deeb-491c-9024-e8e33d0453bc", "name": "E-Bike-Ladestation Wergenstein", "description": "<p><span style=\"font-weight: bold;\">Vorhandene Anschl\u00fcsse </span></p><ul><li>Bosch</li><li>Yamaha</li><li>Impulse-Brose</li><li>Shimano 1 &amp; 2</li><li>Panasonic-Flyer 1 &amp; 2</li><li>Schweizer Steckdose&nbsp;T13</li></ul><p><br></p><p><span style=\"font-weight: bold;\">Unsere Tipps f\u00fcr Sie w\u00e4hrend der Wartezeit </span></p><p>St\u00e4rken Sie sich im Restaurant Capricorns. Besuchen Sie die Capricorn-Ausstellung (Capricorn = Steinbock) im selben Geb\u00e4ude.</p><p>M\u00f6chten Sie in Wergenstein \u00fcbernachten, stehen Ihnen verschiedene Unterk\u00fcnfte zur Wahl:</p><ul><li><a href=\"http://capricorns.ch/de/\">Hotel Restaurant Capricorns</a> </li><li><a href=\"http://www.pension-muntanella.ch/\">Pension Muntanella</a></li><li> <a href=\"https://tportal.tomas.travel/Viamala/ukv/?date_unknown=1&amp;%3FdoSearch=1&amp;ukv_result_order=1&amp;serviceProviderTypes%5B0%5D=WBX00020010000100218&amp;locationIDs%5B0%5D=TDS00020010527381593&amp;reset=1\">Ferienwohnungen</a></li></ul>", "url": "https://www.capricorns.ch", "image": "https://viatpimtsoch.sos-ch-dk-2.exoscale-cdn.com/catalog/d/3/d/5/d3d5be8d6b78fb1357b1d6d84abef7d891233f98_e_bike_ladestation_wergenstein_naturpark_beverin.jpg", "openstreetmap_id": "node/6315754729"}, "geometry": {"type": "Point", "coordinates": ["9.407830739753535", "46.62644193709288"]}}]}