{"type": "FeatureCollection", "features": [{"type": "Feature", "properties": {"identifier": "0e0250f8-cca9-46c4-8fd1-ff50046a26c0", "name": "Bodhi Camping", "description": "<p>Im Sommer internationaler Treffpunkt der Kletterszene, welche dem Sport im nahe gelegenen Waldst\u00fcck Magic Wood nachgehen. Im Winter als Ausgangspunkt f\u00fcr Skitouren oder Eisklettern im Tal.</p><p><span style=\"font-weight: bold;\">Infrastruktur:</span></p><ul><li>Kleiner Shop in der Reception</li><li>Toiletten/Duschen (CHF 1.-/4min)</li><li>Unterstand mit Sp\u00fchlbecken und Recycling-Station</li><li>Feuerstelle</li></ul>", "url": "https://www.valferrera.com/bodhi-camping", "image": "https://viatpimtsoch.sos-ch-dk-2.exoscale-cdn.com/catalog/4/5/6/9/4569d53ef78bbeca7ff242f92f7a6f696822b833_bodhi_camping.jpg", "openstreetmap_id": "way/695087838"}, "geometry": {"type": "Point", "coordinates": ["9.438318014144897", "46.56841483777947"]}}, {"type": "Feature", "properties": {"identifier": "294764f7-8511-497f-8e64-7b2fb3821445", "name": "TCS Camping Thusis Viamala", "description": "Die Stellpl\u00e4tze unter grossen, schattenspendenden Nadelb\u00e4umen lassen Sie die Anlage als versonnene Waldidylle erleben. Auf dem Weg in den S\u00fcden, bevor Sie den San Bernardino passieren, bietet sich der Camping geradezu an, um eine Pause einzulegen und die atemberaubende B\u00fcndner Natur richtig zu geniessen. Erleben Sie die faszinierende und spektakul\u00e4re Reise mit dem Bernina Express auf der h\u00f6chstgelegenen Bahnstrecke der Alpen. Am nahe gelegenen Bahnhof k\u00f6nnen Sie zusteigen und sich von dort bis ins sonnige Italien bringen lassen.", "url": "https://www.tcs-camping.ch/thusis", "image": "https://viatpimtsoch.sos-ch-dk-2.exoscale-cdn.com/catalog/b/7/8/0/b780ed04361408e82b539aaf8e2621b6c631fc52_tcs_camping_thusis_viamala_mietunterkunft_tipis_camper.jpg", "openstreetmap_id": "way/438886348"}, "geometry": {"type": "Point", "coordinates": ["9.445141553878784", "46.699619525744154"]}}, {"type": "Feature", "properties": {"identifier": "2a40dafb-b8d5-4b68-b0ed-f5c2df60ebd3", "name": "Camping Andeer", "description": "<p>Im Sommer befinden sich die Tennispl&auml;tze sowie das Freibad gleich nebenan und der Camping Andeer ist auch idealer Ausgangsort zum Wandern oder Biken im Naturpark Beverin. Auch im Winter gibt es einiges zu entdecken. Die umliegenden Wintersportgebiete und die Schlittel- und Winterwanderwege am Schamserberg bieten abwechslungsreiche Ferientage f&uuml;r grosse und kleine Schneefans.</p><p><strong>Im Campinghaus finden Sie folgende Einrichtungen vor:</strong></p><ul><li>Ap&eacute;ro-/Caf&eacute;bar und Snacks</li><li>Gartenterrasse mit Sonnenschirmen</li><li>Aufenthaltsraum</li><li>Toiletten- und Duschr&auml;ume</li><li>Waschk&uuml;che (Waschmaschine, Trockner)</li><li>Informationswand mit Ausflugstipps</li><li>Geschirrsp&uuml;lraum</li></ul><p><strong>Weitere Infrastrukturen:</strong></p><ul><li>Ein Mehrbettzimmer &agrave; 4 Betten</li><li>S&auml;mtliche Pl&auml;tze mit Stromanschluss</li><li>Verkauf von Gasflaschen</li><li>Ausguss f&uuml;r Chemietoiletten</li><li>Entsorgungsstation f&uuml;r Wohnmobile</li><li>WLAN</li></ul><p><a href=\"https://www.viamala.ch/sites/viamala/files/2021-05/Flyer_Camping_Andeer_21.pdf\" target=\"_blank\" rel=\"noopener noreferrer\">Camping-Flyer</a></p><p><strong>Sommerfest f&uuml;r Camper:&nbsp;</strong>Samstag, 28, Juni 2025</p>", "url": "http://www.campingandeer.ch", "image": "https://viatpimtsoch.sos-ch-dk-2.exoscale-cdn.com/catalog/f/2/f/d/f2fd45a0c5307377d8ef4a1f0b83fdb81b3c31b4_camping_andeer_im_winter_mit_kirche_viamala_tourismus.jpg", "openstreetmap_id": "node/2928874309"}, "geometry": {"type": "Point", "coordinates": ["9.426301717758179", "46.6064226671558"]}}, {"type": "Feature", "properties": {"identifier": "354a00b7-9a0f-45ae-a1c4-03f31e73ec80", "name": "Camping Spl\u00fcgen", "description": "<p>Im Winter ist der Camping idealer Ausgangspunkt zum Skifahren (Skigebiet Spl\u00fcgen-Tambo), zum Langlaufen (direkter Loipenanschluss) und zum Winterwandern. Im Sommer bietet die Region eine grosse Vielfalt an Wanderwegen (viaSpluga, Walserweg) und Freizeitaktivit\u00e4ten. Das direkt beim Campingplatz gelegene Ferienlager bietet zus\u00e4tzlich Bed&amp;Breakfast-\u00dcbernachtungen (Zimmer mit Etagenduschen/WC). F\u00fcr Gruppen (bis 38 Personen) steht das gesamte Haus inkl. Selbstversorger-K\u00fcche zur Verf\u00fcgung.</p><p>Im Campinghaus finden Sie folgende Einrichtungen vor:</p><ul><li>Ap\u00e9ro- und Caf\u00e9bar</li><li>Camping-Shop mit diversen Lebensmitteln und Alltags-Artikeln</li><li>Fr\u00fchst\u00fccksservice:<ul><li>T\u00e4glich frische Backwaren auch f\u00fcr Nicht-Campingg\u00e4ste</li><li>Das Angebot variiert, es gibt immer eine glutenfreie</li><li>Bestellungen bis 18.00 Uhr am Vortag per <a href=\"mailto:camping@spluegen.ch\" target=\"_blank\" rel=\"noopener\">E-Mail</a>,&nbsp;<a href=\"tel:+41816641476\" target=\"_blank\" rel=\"noopener\">Telefon</a>&nbsp;oder direkt im Camping-Shop</li></ul></li></ul><ul><li>Aufenthaltsraum mit B\u00fccherauswahl und Spielen</li><li>Geschirrsp\u00fclraum</li><li>Toiletten- und Duschr\u00e4ume</li><li>Waschk\u00fcche (Waschmaschinen, Trockner)</li></ul><p><strong><br>Weitere Infrastrukturen:</strong></p><ul><li>S\u00e4mtliche Pl\u00e4tze mit Stromanschluss</li><li>Parkplatz f\u00fcr Autos vor dem Campingplatz</li><li>Verkauf Gasflaschen</li><li>Grill-Ecke (\u00fcberdacht), Kochraum</li><li>Spielplatz mit Sandkasten</li><li>Tennispl\u00e4tze (Sommer), Natureisfeld und Loipenanschluss (Winter)</li><li>Ferienlager mit 38 Betten davon 1 Doppelzimmer und 1 Einzelzimmer</li><li>Ausguss f\u00fcr Chemietoilette</li><li>WLAN</li></ul>", "url": "http://www.campingsplugen.ch", "image": "https://viatpimtsoch.sos-ch-dk-2.exoscale-cdn.com/catalog/7/2/3/5/723543740d61c11218789cf650c4e823fb0ca071_camping_spluegen_auf_dem_sand_sommer_markus_mueller.jpg", "openstreetmap_id": "way/132374006"}, "geometry": {"type": "Point", "coordinates": ["9.313785", "46.549092"]}}, {"type": "Feature", "properties": {"identifier": "45de8114-ef1b-421d-a537-c0563f20f9e0", "name": "Zapporth\u00fctte SAC", "description": "<p>Die Zapporth&uuml;tte, 1872 am Gletscherrand erbaut, liegt auf 2'276 m &uuml;.M. Die H&uuml;tte ist ab Ende Februar bis Mitte Mai und ab Ende Juni bis Mitte Oktober bewartet. Die &uuml;brige Zeit ist sie (mit Kochm&ouml;glichkeit) offen. Bitte beachten Sie, dass der Weg von Hinterrhein bis zur H&uuml;tte ein sehr anspruchsvoller Bergwanderweg ist (Dauer ca. 3.5 Stunden). Da der erste Teil der Wanderung &uuml;ber das Gebiet des Panzerschiessplatz der Schweizer Armee f&uuml;hrt, m&uuml;ssen die milit&auml;rischen Schiesspublikationen unbedingt beachtet werden, Tel. +41 58 482 11 11. F&uuml;r weitere Ausk&uuml;nfte und Reservationen steht Ihnen die H&uuml;ttenwartin Daniela Zwyer gerne zur Verf&uuml;gung. Siehe Kontakt Information.</p><p>&nbsp;</p><p><strong><span style=\"color: #ff0000;\">Shuttle - Taxi</span></strong></p><p><span style=\"color: #ff0000;\"><span style=\"color: #000000;\"><span style=\"color: #000000;\">Ab Postautohaltestelle \"San Bernardino Nordportal\" bequem</span> &uuml;ber den vier Kilometer langen Schiessplatz mit einem privaten Taxi-Fahrdienst?&nbsp; pro Fahrt (4-5 Personen) CHF 30.-.</span><br></span></p><p><span style=\"color: #000000;\">Egger: 078 858 49 11&nbsp; &nbsp; &nbsp;Trepp: 078 746 35 74</span></p><p><span style=\"color: #000000;\">M&ouml;glich ist das ausserhalb den Betriebszeiten vom Panzerschiessplatz: Montag bis Freitag <strong>vor</strong> oder <strong>nach</strong> den Schiesszeiten, Samstag und Sonntag <strong>durchgehend</strong>.</span></p>", "url": "https://www.zapporthuette.ch", "image": "https://viatpimtsoch.sos-ch-dk-2.exoscale-cdn.com/catalog/e/b/f/4/ebf45ca31bbaf96ad926f3dc8325b19009e0e420_zapporthuette_sac_im_sommer_demateo.jpg", "openstreetmap_id": "node/502559961"}, "geometry": {"type": "Point", "coordinates": ["9.093888", "46.50007"]}}, {"type": "Feature", "properties": {"identifier": "52270982-22c4-4944-b61b-64b2f817a9ac", "name": "Camping Rania", "description": "<p>Die Lage an der San Bernardino Nord-S\u00fcd Verbindungsroute ist praktisch f\u00fcr Durchreisende und ideal als Ausgangspunkt f\u00fcr viele Aktivit\u00e4ten, Ausfl\u00fcge und Naturerlebnisse. Eine Postautostation befindet sich vor dem Haus.</p><p>Der Campingplatz ist ganzj\u00e4hrig ge\u00f6ffnet und verf\u00fcgt \u00fcber alle \u00fcblichen Annehmlichkeiten. Die \u00d6ffnungszeiten des Restaurants entnehmen Sie bitte der Webseite <a href=\"https://www.campingrania.ch/\" target=\"_blank\">www.campingrania.ch</a>. In Fussdistanz liegt das spannende Viamala Besucherzentrum und die weltbekannte St. Martin Kirche aus dem 12. Jahrhundert. Wenig weiter befinden sich das vielseitig heilende Mineralbad in Andeer, die Rofflaschlucht als Eingang ins idyllische Averstal und vieles mehr. Die einzigartige Region Viamala bietet unz\u00e4hlige Sehensw\u00fcrdigkeiten, eindr\u00fcckliche Naturschaupl\u00e4tze, spannende Outdooraktivit\u00e4ten, Canyoning im Hinterrhein, \u00fcberw\u00e4ltigende Wander- und Bikerwegnetze, H\u00e4ngebr\u00fccken, Burgen etc.</p><p><span style=\"font-weight: bold;\">\u00d6ffnungsmonate:</span><br>Januar - Dezember</p>", "url": "http://www.campingrania.ch", "image": "https://viatpimtsoch.sos-ch-dk-2.exoscale-cdn.com/catalog/0/b/7/8/0b788b54d94f09d747ef1e9ba6ae5c2337c7606d_camping_rania_zillis_schams_viamala_tourismus_1.jpg", "openstreetmap_id": "way/438886349"}, "geometry": {"type": "Point", "coordinates": ["9.44802761077881", "46.65012087040107"]}}, {"type": "Feature", "properties": {"identifier": "8236de76-f2d8-4aa5-9c26-7e7da15c70c7", "name": "Cufercalh\u00fctte SAC", "description": "<p>Die H\u00fctte wurde 1937 erstellt. Heimeliger Aufenthaltsraum aus massivem Arvent\u00e4fer. 23 Betten mit Duvet in zwei Schlafr\u00e4umen. Im Sommer erwartet den Wanderer ein wunderbares Wandergebiet mit reicher Flora, Fauna, Steinb\u00f6cken und G\u00e4msen. Die H\u00fcttenwege sind einfach zu begehen, daher auch f\u00fcr Familien mit Kindern empfehlenswert. Von der H\u00fctte geniesst man einen herrlichen Ausblick zum Spl\u00fcgenpass und zum Piz Tambo.</p><p>Die Cufercalh\u00fctte ist ab Ende Juni - Mitte Oktober t\u00e4glich bewirtschaftet. Weitere Infos erhalten Sie bei der H\u00fcttenwartin Margrith Monigatti. Siehe Kontakt-Information! Benutzung Winterraum nur auf Reservation.</p>", "url": "https://www.cufercal.ch", "image": "https://viatpimtsoch.sos-ch-dk-2.exoscale-cdn.com/catalog/8/9/d/3/89d3f9e061ac9e74d31edc67b820d2a8dbddf266_cufercalhuette_sac_mit_tambo_im_sommer_demateo.jpg", "openstreetmap_id": "way/319354286"}, "geometry": {"type": "Point", "coordinates": ["9.358972", "46.593372"]}}]}