{"type": "FeatureCollection", "features": [{"type": "Feature", "properties": {"identifier": "000c5a56-c6a1-4d56-bbbc-2543d4b91d0e", "name": "Clugin", "description": "<p>Clugin ist seit der Gemeindefusion vom 1. Januar 2009 ein Ortsteil der Gemeinde Andeer. Der Ort liegt auf der linken Talseite auf 1\u2019013 m \u00fc.M. und z\u00e4hlt rund 40 Einwohner.</p>\n<ul>\n<li><a href=\"http://www.gemeinde-andeer.ch/de/\">Website Gemeinde Andeer</a></li>\n<li><a href=\"https://hls-dhs-dss.ch/de/articles/001504/2016-12-01/\">Link zum historischen Lexikon der Schweiz</a></li>\n<li><a href=\"http://shop.graubuenden.ch/Viamala/ukv/?date_unknown=1&amp;doSearch=1&amp;locationIDs[]=TDS00020010527381593&amp;globalReset=1&amp;persistentParameters=1&amp;lang=de\">Unterk\u00fcnfte im Schams</a></li>\n</ul>", "url": "https://www.gemeinde-andeer.ch", "image": "https://viatpimtsoch.sos-ch-dk-2.exoscale-cdn.com/catalog/6/d/f/d/6dfd29b0f01ce2cbee6ce5c99ba7992698624023_clugin_dorf_im_sommer_demateo.jpg", "openstreetmap_id": "node/240080779"}, "geometry": {"type": "Point", "coordinates": ["9.426195", "46.616246"]}}, {"type": "Feature", "properties": {"identifier": "0081ec1f-e198-40b4-ae18-d60776005650", "name": "Casti-Wergenstein", "description": "<p>Casti-Wergenstein am Schamserberg wird von den beiden Ortsteilen Casti (1&rsquo;125 m &uuml;.M.) und Wergenstein (1&rsquo;489 m &uuml;.M.) gebildet. Es z&auml;hlt rund 55 Einwohner.</p>\n<ul>\n<li><a href=\"https://www.mdschons.ch/\">Website Gemeinde Muntogna da Schons</a></li>\n<li><a href=\"http://www.hls-dhs-dss.ch/textes/d/D45871.php\">Link zum historischen Lexikon der Schweiz</a></li>\n<li><a href=\"http://shop.graubuenden.ch/Viamala/ukv/?date_unknown=1&amp;doSearch=1&amp;locationIDs[]=TDS00020010347149409&amp;globalReset=1&amp;persistentParameters=1&amp;lang=de\">Unterk&uuml;nfte in Wergenstein</a></li>\n</ul>", "url": "https://mdschons.ch", "image": "https://viatpimtsoch.sos-ch-dk-2.exoscale-cdn.com/catalog/a/3/1/2/a312588eb6c0c71780141850322b142a6a553143_wergenstein_schamserberg_muntogna_da_schons_sommer_demateo.jpg", "openstreetmap_id": "relation/1684103"}, "geometry": {"type": "Point", "coordinates": ["9.408072", "46.626711"]}}, {"type": "Feature", "properties": {"identifier": "03b8e471-a237-4ed0-a9d4-697a71c59dfe", "name": "DrivingGraub\u00fcnden", "description": "<p>Wer besser f\u00e4hrt, f\u00e4hrt auch sicherer. DrivingGraub\u00fcnden bietet dir 34'000 m\u00b2 Hightech-Pisten, auf denen jede erdenkliche Fahrsituation auf der Strasse realit\u00e4tsnah simuliert werden kann. Professionelle Fahrinstruktor:innen zeigen dir, wie du k\u00fcnftig sicherer, sparsamer und besser f\u00e4hrst.</p><p>Im modernst ausger\u00fcsteten Fahrsicherheitszentrum gibt es nicht nur die obligatorischen Kurse der 2-Phasen-Fahrerausbildung. Egal ob PKW, LKW, Kleinbus \u2013 mit oder ohne Anh\u00e4nger \u2013 Motorrad oder was auch immer du im Alltag \u00fcber die Strassen chauffierst: Du kannst vom passenden Fahrtrainings-Angebot profitieren.</p>", "url": "http://www.drivinggraubuenden.ch", "image": "https://viatpimtsoch.sos-ch-dk-2.exoscale-cdn.com/catalog/e/4/6/3/e463eebb2314bdcef2109c417310cd9da2245b44_drivinggraubuenden_cazis_fahrsicherheitszentrum.jpg", "openstreetmap_id": "way/36351675"}, "geometry": {"type": "Point", "coordinates": ["9.42066", "46.76162"]}}, {"type": "Feature", "properties": {"identifier": "03be879e-0e4d-49fc-913e-79c0379db163", "name": "Quelle des Hinterrheins", "description": "<p>Das Wasser hat beim Dorf \"Hinterrhein\" also bereits viele H\u00f6henmeter hinter sich und bis zur Nordsee nochmals 1600 H\u00f6henmeter vor sich. Und dies auf einer Reise von 1200 Kilometern L\u00e4nge.</p>\n<p>Die Quellregion des Hinterrheins ist nur zu Fuss erreichbar. Die Wanderung erfordert Schwindelfreiheit, Trittsicherheit und gutes festes Schuhwerk. Da der Weg von Hinterrhein \u00fcber den Schiessplatz f\u00fchrt, ist es notwendig, sich am Vortag \u00fcber den Schiessbetrieb und m\u00f6gliche Begehungszeiten zu informieren. An den Wochenenden ist meist kein Schiessbetrieb. Je nach Betrieb ist auch ein kostenpflichtiger Transport bis zum Ende des Schiessplatzes m\u00f6glich. Am besten direkt mit dem H\u00fcttenwart der Zapporth\u00fctte organisieren. Von der Zapporth\u00fctte gelangt man in ca. 1 Wanderstunde ins Quellgebiet des Hinterrheins. In der <a href=\"https://www.zapporthuette.ch/\">Zapporth\u00fctte</a> kann auch \u00fcbernachtet werden.</p>\n<p>Die <a href=\"https://bergsportschulegrischa.ch/\">Bergsportschule Grischa</a> bietet gef\u00fchrte Touren ins Quellgebiet und aufs Rheinquellhorn.</p>", "url": "https://www.viamala.ch", "image": "https://viatpimtsoch.sos-ch-dk-2.exoscale-cdn.com/catalog/c/b/9/b/cb9b6f387b434fd9851f9156c6dc419db3667ef2_ursprung_des_hinterrheins_rheinwald_sommer_demateo.jpg", "openstreetmap_id": "node/7248018846"}, "geometry": {"type": "Point", "coordinates": ["9.069585321148566", "46.50018172644738"]}}, {"type": "Feature", "properties": {"identifier": "065b9556-1875-4189-b4eb-9e8548ba060e", "name": "Viamala-Schlucht", "description": "<p>Vor Jahrtausenden vom Gletschereis und vom Wasser des Hinterrheins in den massiven Fels geschliffen, sind in der Viamala-Schlucht heute noch lebendige Spuren einer faszinierenden Geschichte zu entdecken.</p><p>Vom Besucherzentrum aus f&uuml;hren 359 Stufen hinunter in die Tiefe der Schlucht. Strudelt&ouml;pfe, bis zu 300 m hohe glattgeschliffene Felsw&auml;nde und die Farben des Wassers hinterlassen einen starken Eindruck der nat&uuml;rlichen Sch&ouml;nheit. Spektakul&auml;re Br&uuml;ckenbauten - wie die Wildener-Br&uuml;cke aus dem Jahre 1739 und die neuen Conzett-Br&uuml;cken \"P&ugrave;nts da tgavorgias\" - bieten einen Einblick ins Handwerk einstiger und heutiger Br&uuml;ckenbauer.</p><p>Entdecke die Viamala-Schlucht-Geschichte(n):</p><ul><li><a href=\"https://viamala.ch/de/erleben/ausflugsziele/viamala-schlucht/fuehrungen.html\">&Ouml;ffentliche und private Schluchtf&uuml;hrungen</a></li><li><a href=\"https://viamala.ch/de/erleben/ausflugsziele/viamala-schlucht/schatzsuche.html\">Schatzsuche f&uuml;r Kinder</a></li><li><a href=\"https://viamala.ch/de/erleben/ausflugsziele/viamala-schlucht/viamala-notte.html\">Viamala Notte mit Erwin Dirnberger</a>&nbsp;(abendliche szenische Schluchtf&uuml;hrung)</li><li><a href=\"https://viamala.ch/erleben/ausflugsziele/viamala-schlucht/theater.html\">Viamala Theater &laquo;R(h)ein ins Vergn&uuml;gen&raquo; mit Gian Rupf und Volker Ranisch</a></li></ul><p>oder lerne das Naturmonument Viamala-Schlucht aus einer ganz neuen Perspektive:</p><ul><li><a href=\"https://viamala.ch/de/map/poi/canyoning-viamala-e4fd03e4-484e-4df3-8a42-5abdf4466bc7.html\">Viamala Canyoning</a></li></ul><p>Detailinformationen unter&nbsp;<a href=\"https://www.viamala-schlucht.ch/\">www.viamala-schlucht.ch</a>.</p>", "url": "https://viamala-schlucht.ch", "image": "https://viatpimtsoch.sos-ch-dk-2.exoscale-cdn.com/catalog/2/9/9/d/299d877ba623a74e7fbd765158387122eca61c96_viamala_schlucht_zillis_thusis_schams_sommer_familie_demateo.com.jpg", "openstreetmap_id": "node/482085729"}, "geometry": {"type": "Point", "coordinates": ["9.447314143180849", "46.6629159469284"]}}, {"type": "Feature", "properties": {"identifier": "069b1535-6e99-4938-b226-810cecd21a5a", "name": "Lai da Vons", "description": "<p>Das ganze Bergpanorama spiegelt sich im glasklaren Wasser. Und diese Aussicht. Geniessen Sie den spektakul\u00e4ren Sonnenuntergang bei einem Picknick. Der See ist zu Fuss oder mit dem Bike erreichbar. In den Sommermonaten f\u00e4hrt auch ein Wanderbus die Strecke von Sufers bis fast zum See, von wo es dann eine Vielzahl an Wanderzielen gibt, unter anderem die SAC Cufercalh\u00fctte. Weitere Informationen zum Wanderbus finden Sie <a href=\"https://www.naturpark-beverin.ch/de/wanderbus-lai-da-vons\" target=\"_blank\">hier</a>.</p><p>\u00dcbrigens: Im Sommer 2014 wurden hier die Alpszenen f\u00fcr die neueste Heidi-Verfilmung gedreht.</p>", "url": "https://www.viamala.ch", "image": "https://viatpimtsoch.sos-ch-dk-2.exoscale-cdn.com/catalog/b/2/e/7/b2e72295386c446f30a77f9a329e8d5403abdede_lai_da_vons_gravel_and_road_graubuenden_ferien_tolisart.com.jpg", "openstreetmap_id": "way/68397429"}, "geometry": {"type": "Point", "coordinates": ["9.385467652954617", "46.58539713683545"]}}, {"type": "Feature", "properties": {"identifier": "09d14c77-f853-4679-9924-e19f64c5bad4", "name": "Leseb\u00e4nkli Pr\u00e4z", "description": "<p>Genau das k&ouml;nnen Sie nun in der Gemeinde Cazis tun. Bei vier idyllisch gelegenen B&auml;nkli steht eine Kiste bereit. Diese ist gef&uuml;llt mit B&uuml;chern und Zeitschriften f&uuml;r Jung und Alt. Sie sind herzlich eingeladen, die B&uuml;cher anzuschauen, zu lesen und darin zu schm&ouml;kern. Falls Sie sich einmal so sehr in ein Buch vertieft haben, dass Sie davon nicht mehr loskommen, leihen Sie es sich f&uuml;r ein paar Tage aus oder kommen Sie einfach wieder zur&uuml;ck aufs B&auml;nkli, zum Weiterlesen.</p><p>Beim Leseb&auml;nkli Pr&auml;z befindet sich eine Feuerstelle mit Holz.</p>", "url": "http://www.cazis.ch", "image": "https://viatpimtsoch.sos-ch-dk-2.exoscale-cdn.com/catalog/2/5/f/6/25f64fe6e39b188f8c65653b4341dad461b77f40_lesebaenkli_praez_heinzenberg_aussicht_viamala_tourismus.jpg", "openstreetmap_id": "node/12097061825"}, "geometry": {"type": "Point", "coordinates": ["9.403052346411528", "46.747624384951045"]}}, {"type": "Feature", "properties": {"identifier": "0dd2bd32-4fb6-4715-8723-3211f848259e", "name": "Portein", "description": "<p>Portein geh\u00f6rt seit 1.1.2010 zur Gemeinde Cazis. Es liegt am \u00e4usseren Heinzenberg auf 1'167 m \u00fc.M. und z\u00e4hlt rund 20 Einwohner.</p>\n<ul>\n<li><a href=\"https://www.cazis.ch/\">Website Gemeinde Cazis</a></li>\n<li><a href=\"http://www.hls-dhs-dss.ch/textes/d/D1488.php\">Link zum historischen Lexikon der Schweiz</a></li>\n<li><a href=\"http://shop.graubuenden.ch/Viamala/ukv/?date_unknown=1&amp;doSearch=1&amp;locationIDs[]=TDS00020010527381530&amp;globalReset=1&amp;persistentParameters=1&amp;lang=de\">Unterk\u00fcnfte am Heinzenberg</a></li>\n</ul>", "url": "https://www.cazis.ch", "image": "https://viatpimtsoch.sos-ch-dk-2.exoscale-cdn.com/catalog/e/1/f/c/e1fcab9f7c1c2f3baed6b785870703422d6cd13b_portein_dorf_heinzenberg_sommer_demateo.jpg", "openstreetmap_id": "node/7963636450"}, "geometry": {"type": "Point", "coordinates": ["9.407076", "46.711934"]}}, {"type": "Feature", "properties": {"identifier": "12a7ae7e-f6cb-473b-a3c2-69e1e21f57dd", "name": "Surettaseen", "description": "<p>Am oberen Surettasee auf 2272 m liegt die Seeh\u00fctte, die f\u00fcr eine \u00dcbernachtung gebucht werden kann und ein Ruderboot, welches f\u00fcr eine Seerunde gerne benutzt werden darf. Die stille Atmosph\u00e4re ist wohltuend und wenn sich dann die umliegenden Bergspitzen vom Seehorn bis zum Surettahorn im See spiegeln, wird der Ausflug zu einem unvergesslichen Erlebnis.</p><p><strong>Seeh\u00fctte</strong></p><p>Die Seeh\u00fctte kann im Sommer f\u00fcr eine \u00dcbernachtung gebucht werden (nicht bewirtet):</p><p>Frank Simmen</p><p>Italienische Strasse 19</p><p>7435 Spl\u00fcgen</p><p>Tel. <a href=\"+41 76 506 66 68\" rel=\"noopener noreferrer\" target=\"_blank\">+41 76 506 66 68</a></p><p>E-Mail:<a href=\"mailto:frank.simmen@gmail.com\" rel=\"noopener noreferrer\" target=\"_blank\"> frank.simmen@gmail.com</a></p><p><strong>Fischen</strong></p><p>Die Surettaseen stehen unter Pacht vom Fischereiverein Rheinwald und erfordern eine spezielle Lizenz. Diese kann neu direkt bei den Bergseen an der Infotafel mittels QR Code bezogen werden. Zu beachten sind auch die privaten Fischereibetriebsvorschriften.</p>", "url": "https://www.viamala.ch", "image": "https://viatpimtsoch.sos-ch-dk-2.exoscale-cdn.com/catalog/b/9/8/3/b983160c5a7d5bc0f3ad27a10cddea5dcfe6d630_oberer_surettasee_spluegen_rheinwald_sommer_viamala_tourismus.jpg", "openstreetmap_id": "way/293964348"}, "geometry": {"type": "Point", "coordinates": ["9.35275286231149", "46.539072770704095"]}}, {"type": "Feature", "properties": {"identifier": "15a56a04-3238-41b9-954f-61054cb4fc4e", "name": "Lai la Scotga", "url": "https://www.viamala.ch", "image": "https://viatpimtsoch.sos-ch-dk-2.exoscale-cdn.com/catalog/5/a/7/1/5a712c4d51c2e64214518b5f8490409225f17151_lai_la_scotga_schamserberg_carnusapass_demateo.com__2_.jpg", "openstreetmap_id": "way/322997240"}, "geometry": {"type": "Point", "coordinates": ["9.34179179545447", "46.63753155964071"]}}, {"type": "Feature", "properties": {"identifier": "165a7416-04fe-402b-ad17-b13437a0f011", "name": "Lai da Calandari", "url": "https://www.viamala.ch", "image": "https://viatpimtsoch.sos-ch-dk-2.exoscale-cdn.com/catalog/d/f/9/c/df9c58a7ebd90a2bb7bdf61226dc43cf15c8e010_lai_da_calandari__2_.jpg", "openstreetmap_id": "way/319356459"}, "geometry": {"type": "Point", "coordinates": ["9.356165128249017", "46.59911825459325"]}}, {"type": "Feature", "properties": {"identifier": "1c423d1d-f078-4bb8-88f2-267e09b0ef00", "name": "Flerden", "description": "<p>Flerden liegt am inneren Heinzenberg auf 1'244 m &uuml;.M. und z&auml;hlt rund 250 Einwohner.</p>\n<ul>\n<li><a href=\"https://www.flerden.ch/\">Website Gemeinde Flerden</a></li>\n<li><a href=\"http://www.hls-dhs-dss.ch/textes/d/D1486.php\">Link zum historischen Lexikon der Schweiz</a></li>\n<li><a href=\"http://shop.graubuenden.ch/Viamala/ukv/?date_unknown=1&amp;doSearch=1&amp;locationIDs[]=TDS00020010346588712&amp;globalReset=1&amp;persistentParameters=1&amp;lang=de\">Unterk&uuml;nfte in Flerden</a></li>\n</ul>", "url": "https://www.flerden.ch", "image": "https://viatpimtsoch.sos-ch-dk-2.exoscale-cdn.com/catalog/8/5/4/7/85479fdc8d49ca5893bcb2a131a4112391f305f7_flerden_im_sommer_heinzenberg_demateo.jpg", "openstreetmap_id": "ChIJ-TSiqtHrhEcRvETb0oaRspU"}, "geometry": {"type": "Point", "coordinates": ["9.406579", "46.700479"]}}, {"type": "Feature", "properties": {"identifier": "1da2b8fe-088a-4eee-bd88-bc4e114b8aaf", "name": "Trans", "description": "<p>Trans geh\u00f6rt seit 1.1.2015 zur Gemeinde Domleschg. Es liegt auf 1'470 m \u00fc.M. und z\u00e4hlt rund 60 Einwohner.</p>\n<ul>\n<li><a href=\"http://www.domleschg.ch/\">Website Gemeinde Domleschg</a></li>\n<li><a href=\"http://www.hls-dhs-dss.ch/textes/d/D1481.php\">Link zum historischen Lexikon der Schweiz</a></li>\n<li><a href=\"http://shop.graubuenden.ch/Viamala/ukv/?date_unknown=1&amp;doSearch=1&amp;locationIDs[]=TDS00020010347148131&amp;globalReset=1&amp;persistentParameters=1&amp;lang=de\">Unterk\u00fcnfte in Trans</a></li>\n</ul>", "url": "https://www.domleschg.ch", "image": "https://viatpimtsoch.sos-ch-dk-2.exoscale-cdn.com/catalog/8/b/a/9/8ba971355d274cec10b0fae06f14865d80d5acc3_trans_dorf_domelschg_sommer_demateo.jpg", "openstreetmap_id": "node/2202573835"}, "geometry": {"type": "Point", "coordinates": ["9.46093", "46.764497"]}}, {"type": "Feature", "properties": {"identifier": "21928c1e-85de-48e1-b7a7-0666c7a16838", "name": "Canovasee", "description": "<p>Im Burgen- und Obstland Domleschg liegt der Badesee, romantisch und warm, im Sommer mit weit &uuml;ber 20 Grad. Ein Besuch l&auml;sst sich bestens mit einem Spaziergang nach Almens verbinden, welcher eine einmalige Aussicht auf den Heinzenberg verspricht.</p><p>Die Naturbadi verf&uuml;gt &uuml;ber eine grosse Liegewiese, einen Kiosk, zwei Grillstellen, Umkleidekabinen und Toiletten.</p><p>Die Badesaison beginnt Anfang Mai. Am Kiosk gibt es Glac&eacute; und Getr&auml;nke, Hot Dog und verschiedene S&uuml;ssigkeiten. Es gibt auch eine Feuerstelle, um mitgebrachte W&uuml;rste zu grillieren.</p><p>Der Badesee liegt auf einer H&ouml;he von 777 Metern &uuml;ber Meer und ist knapp 200 Meter lang und 100 Meter breit. Sowohl Zu- als auch Abfluss des Seeleins sind unterirdisch.</p><p>Bestaunen Sie auf dem Weg von der Dorfstrasse hinauf zum lieblichen Weiher auch gleich die &uuml;berlebensgrosse und vielfotografierte Skulptur vor dem Ateliers des bekannten K&uuml;nstlers Robert Indermaur.</p>", "url": "https://www.canovasee.com", "image": "https://viatpimtsoch.sos-ch-dk-2.exoscale-cdn.com/catalog/7/4/0/2/74028478559413cc4a4dd8b3322cea015561cf48_canovasee_paspels_sommer_demateo.com__5_.jpg", "openstreetmap_id": "way/110962522"}, "geometry": {"type": "Point", "coordinates": ["9.45076", "46.746473"]}}, {"type": "Feature", "properties": {"identifier": "32d00b38-cd9d-4450-a02f-2251d69e3b4c", "name": "Lady Patricia", "description": "<p>An dieser eindr&uuml;cklichen Stelle unterhalb des Dreib&uuml;ndensteins st&uuml;rzte 1944 der amerikanische Bomber &laquo;Lady Patricia&raquo; ab. Heute erinnert ein schlichter Gedenkstein mit Metalltafel an das historische Ereignis. Der Ort ist &uuml;ber einen aussichtsreichen Wanderweg erreichbar und bietet nicht nur Geschichtsinteressierten, sondern auch Wanderern und Mountainbikern ein lohnendes Ziel. Vom Gedenkstein geniesst man eine atemberaubende Aussicht auf das m&auml;chtige Calanda-Massiv und tief unten auf das Churer Rheintal &ndash; rund 1&rsquo;400 Meter unterhalb der Panorama-Route.</p><p><strong>R&auml;tselwanderung zur &laquo;Lady Patricia&raquo;</strong></p><p>Die Geschichte der &laquo;Lady Patricia&raquo; l&auml;sst sich neu auch spielerisch entdecken: Auf der R&auml;tselwanderung mit Actionbound f&uuml;hren spannende Aufgaben und Hinweise Schritt f&uuml;r Schritt zum historischen Ort unterhalb des Dreib&uuml;ndensteins. Ideal f&uuml;r alle, die Natur, Aussicht und Geschichte auf unterhaltsame Weise verbinden m&ouml;chten.</p><p><a href=\"https://de.actionbound.com/bound/lady-patricia\" target=\"_blank\" rel=\"noopener\">Hier geht es zur R&auml;tselwanderung</a></p>", "image": "https://viatpimtsoch.sos-ch-dk-2.exoscale-cdn.com/catalog/1/1/1/c/111c817f4ada540cf3280047552948b3115b28fd_lady_patricia_dreibuendenstein_sommer.jpg", "openstreetmap_id": "node/11178679276"}, "geometry": {"type": "Point", "coordinates": ["9.495663642883303", "46.80774074342739"]}}, {"type": "Feature", "properties": {"identifier": "3377ab69-88a4-431b-8d7a-37bd8fe94e37", "name": "B\u00fcndner Bauernverband BBV", "description": "<p><span style=\"font-weight: bold;\">Vision</span><br>B\u00e4uerinnen und Bauern erzielen mit der Produktion von gesunden Nahrungsmitteln ein gerechtes Einkommen. Dieses bietet den Bauernfamilien soziale Sicherheit und Lebensqualit\u00e4t. So wird das langfristige \u00dcberleben einer vielf\u00e4ltigen Landwirtschaft in Graub\u00fcnden gesichert.</p><p><span style=\"font-weight: bold;\">Ziele</span><br>Das Ziel vom Bauernverband&nbsp;ist es, mit einem selbstbewussten und positiven Auftritt den Stellenwert und die Leistungen der B\u00fcndner Landwirtschaft aufzuzeigen. Der Verband will&nbsp;in der Gesellschaft und bei seinen Kunden das Bild einer modernen und produzierenden Landwirtschaft verankern und als Partner in der Gesellschaft anerkannt sein. Die nachhaltige Bewirtschaftung des Bodens, eine artgerechte Haltung der Tiere und faire Preise f\u00fcr die Produkte sind ein grosses Anliegen.</p><p><span style=\"font-weight: bold;\">Leistungen</span><br>Die B\u00fcndner Landwirtschaft produziert Nahrungsmittel von hervorragender Qualit\u00e4t; naturbedingt - der Kanton Graub\u00fcnden ist ein Graskanton - vor allem Milch und Fleisch.<br></p><p>Durch die nachhaltige Fl\u00e4chennutzung sichert die Landwirtschaft die Erhaltung der Kulturlandschaft und stellt so Einheimischen und G\u00e4sten einen vielf\u00e4ltigen und gepflegten Erholungsraum zur Verf\u00fcgung.</p><p>B\u00e4uerinnen und Bauern tragen viel zur Besiedlung und zur Stabilit\u00e4t der Gesellschaft im l\u00e4ndlichen Raum bei. Die Bewirtschaftung der Wiesen, Weiden und Alpen sch\u00fctzt die T\u00e4ler vor Naturgefahren und macht diese dadurch bewohnbar<br></p><p>Durch Investitionen in Geb\u00e4ude, Melorationen, Erschliessungen usw. tr\u00e4gt die Landwirtschaft zur regionalen Wirtschaft und damit zur Wirtschaftsf\u00f6rderung bei. Vor- und nachgelagerte Gewerbe- und Dienstleistungsbetriebe sowie der Tourismus profitieren von einer gesunden B\u00fcndner Landwirtschaft.</p><p><span style=\"font-weight: bold;\">Kommunikation</span><br>Der B\u00fcndner Bauerverein will&nbsp;gegen\u00fcber all den Ansprechpartnern eine offene und verst\u00e4ndliche Kommunikation pflegen.<br><br>Mit der Vollintegration zur Marke \"graub\u00fcnden\" bekennt sich die B\u00fcndner Landwirtschaft dazu, \"ein St\u00fcck Graub\u00fcnden\" zu sein und nutzt die M\u00f6glichkeit, im Markenkleid aktive \u00d6ffentlichkeitsarbeit zu leisten.<br><br>Die verbandseigene Wochenzeitschrift \"B\u00fcndner Bauer\" und die Webseite bieten dem Verband die M\u00f6glichkeit, seine Anliegen laufend zu kommunizieren und Mitgliedern, Interessierten und nicht zuletzt auch den Medien Hintergrundinformationen und Grundlagenmaterial zur B\u00fcndner Landwirtschaft zur Verf\u00fcgung zu stellen.<br><br>Mit einer kontinuierlichen Berichterstattung, einem professionellen Auftritt und aktiver Medienarbeit (Presseartikel, Medienkonferenzen, usw.) m\u00f6chten sie das Image einer modernen, nat\u00fcrlichen, aber auch innovativen und zukunftsgerichteten B\u00fcndner Landwirtschaft aufbauen und pflegen.</p>", "url": "https://www.landwirtschaft-gr.ch", "image": "https://viatpimtsoch.sos-ch-dk-2.exoscale-cdn.com/catalog/d/2/b/1/d2b12c0c1866d8ae86f8620f629a5be8f9a62564_buendner_arena_in_cazis.jpg", "openstreetmap_id": "way/363475065"}, "geometry": {"type": "Point", "coordinates": ["9.424107670783997", "46.75344017310798"]}}, {"type": "Feature", "properties": {"identifier": "34067c0e-ceaf-4b13-a635-3cf22a5aeab3", "name": "Mutten", "description": "<p>Mutten liegt geographisch genau zwischen den beiden Schluchten Schin und Viamala auf 1'395 m \u00fc.M.. Es z\u00e4hlt rund 70 Einwohner und geh\u00f6rt seit 1.1.2018 zur Gemeinde Thusis.</p>\n<ul>\n<li><a href=\"https://thusis.ch/\">Website Gemeinde Thusis</a></li>\n<li><a href=\"http://www.hls-dhs-dss.ch/textes/d/D1411.php\">Link zum historischen Lexikon der Schweiz</a></li>\n<li><a href=\"http://shop.graubuenden.ch/Viamala/ukv/?date_unknown=1&amp;doSearch=1&amp;locationIDs[]=TDS00020010346592110&amp;globalReset=1&amp;persistentParameters=1&amp;lang=de\">Unterk\u00fcnfte in Mutten</a></li>\n</ul>", "url": "https://thusis.ch/portrait/fraktion-mutten", "image": "https://viatpimtsoch.sos-ch-dk-2.exoscale-cdn.com/catalog/b/4/a/6/b4a66509f0647f1b7cba82b5fe67a5fee4646623_obermutten_dorf_holzkirche_sommer_demateo.jpg", "openstreetmap_id": "relation/1684124"}, "geometry": {"type": "Point", "coordinates": ["9.499859", "46.678503"]}}, {"type": "Feature", "properties": {"identifier": "34513f15-4d18-4452-8946-7b3fdf18e3e6", "name": "Leseb\u00e4nkli Lescha", "description": "<p>Genau das k&ouml;nnen Sie nun in der Gemeinde Cazis tun. Bei vier idyllisch gelegenen B&auml;nkli steht eine Kiste bereit. Diese ist gef&uuml;llt mit B&uuml;chern und Zeitschriften f&uuml;r Jung und Alt. Sie sind herzlich eingeladen die B&uuml;cher anzuschauen, zu lesen und darin zu schm&ouml;ckern. Falls Sie sich einmal so sehr in ein Buch vertieft haben, dass Sie davon nicht mehr loskommen, leihen Sie es sich f&uuml;r ein paar Tage aus oder kommen Sie einfach wieder zur&uuml;ck aufs B&auml;nkli, zum Weiterlesen.</p>", "url": "https://cazis.ch", "image": "https://viatpimtsoch.sos-ch-dk-2.exoscale-cdn.com/catalog/b/5/d/c/b5dcf506a59dfb45aa352f3ea58a4794444da4a6_lesebaenkli_lescha_heinzenberg_viamala_tourismus.jpg", "openstreetmap_id": "node/12097066500"}, "geometry": {"type": "Point", "coordinates": ["9.401625396870486", "46.7185044249957"]}}, {"type": "Feature", "properties": {"identifier": "34d62b62-0f42-4751-acc7-6b99ecbdd304", "name": "Lai Lung", "url": "https://www.viamala.ch", "image": "https://viatpimtsoch.sos-ch-dk-2.exoscale-cdn.com/catalog/0/8/4/8/08483c5508fa4cc9f7120a09d658323b7b4ed552_lai_lung_herbst_schams_demateo.com__2_.jpg", "openstreetmap_id": "way/219554998"}, "geometry": {"type": "Point", "coordinates": ["9.398425390593275", "46.578128318511034"]}}, {"type": "Feature", "properties": {"identifier": "39aec06c-55be-46d0-b9ab-d7cba1121e1b", "name": "Pignia", "description": "<p>Pignia ist seit der Gemeindefusion vom 1. Januar 2009 ein Ortsteil der Gemeinde Andeer. Der Ort liegt auf der rechten Talseite auf 1\u2019054 m \u00fc.M. und z\u00e4hlt rund 100 Einwohner.</p>\n<ul>\n<li><a href=\"http://www.gemeinde-andeer.ch/\">Website Gemeinde Andeer</a></li>\n<li><a href=\"http://www.hls-dhs-dss.ch/textes/d/D1510.php\">Link zum historischen Lexikon der Schweiz</a></li>\n<li><a href=\"http://shop.graubuenden.ch/Viamala/ukv/?date_unknown=1&amp;doSearch=1&amp;locationIDs[]=TDS00020010527381593&amp;globalReset=1&amp;persistentParameters=1&amp;lang=de\">Unterk\u00fcnfte im Schams</a></li>\n</ul>", "url": "https://www.gemeinde-andeer.ch", "image": "https://viatpimtsoch.sos-ch-dk-2.exoscale-cdn.com/catalog/d/1/2/5/d12595e15118f2bb79a25dcf77b8a1a3264e0ca5_pignia_dorf_im_sommer_schams_demateo.jpg", "openstreetmap_id": "node/240066709"}, "geometry": {"type": "Point", "coordinates": ["9.43836", "46.612911"]}}, {"type": "Feature", "properties": {"identifier": "3a5f7bb7-b787-4997-a07f-12898bea9098", "name": "7408 Cazis", "description": "<p>Das Klosterdorf Cazis liegt am \u00e4usseren Heinzenberg auf 660 bis 1'200 m \u00fc.M.. Die Gemeinde Cazis besteht aus den Fraktionen Cazis, Tartar, Sarn, Portein und Pr\u00e4z.</p>\n<ul>\n<li><a href=\"https://www.cazis.ch/\">Website Gemeinde Cazis</a></li>\n<li><a href=\"http://www.hls-dhs-dss.ch/textes/d/D1485.php\">Link zum historischen Lexikon der Schweiz</a></li>\n<li><a href=\"http://shop.graubuenden.ch/Viamala/ukv/?date_unknown=1&amp;doSearch=1&amp;locationIDs[]=TDS00020010346586688&amp;globalReset=1&amp;persistentParameters=1&amp;lang=de\">Unterk\u00fcnfte in&nbsp;Cazis</a></li>\n</ul>", "url": "https://fasnacht-cazis.ch/", "image": "https://viatpimtsoch.sos-ch-dk-2.exoscale-cdn.com/catalog/1/a/8/9/1a89dd80ff5ae5f84dd7238cf328a4d69c5740fd_domleschg_heinzenberg.jpg", "openstreetmap_id": "relation/1684061"}, "geometry": {"type": "Point", "coordinates": ["9.4290288", "46.7207667"]}}, {"type": "Feature", "properties": {"identifier": "3dd66219-2a9a-457a-ac9e-a37f169ba1de", "name": "Lai Pintg", "url": "https://www.viamala.ch", "image": "https://viatpimtsoch.sos-ch-dk-2.exoscale-cdn.com/catalog/4/0/d/5/40d5d757004e3299c5b149931eb42b5c6d8a9917_lai_pintg_schamserberg_moorlandschaft_anarosa_sommer_demateo.com.jpg", "openstreetmap_id": "way/326478155"}, "geometry": {"type": "Point", "coordinates": ["9.336111689727886", "46.60455097613025"]}}, {"type": "Feature", "properties": {"identifier": "400ab238-6f84-4231-8303-25fde0add41c", "name": "Paspels", "description": "<p>Paspels geh\u00f6rt seit 1.1.2015 zur Gemeinde Domleschg. Es liegt auf 780 m \u00fc.M. und z\u00e4hlt rund 470 Einwohner.</p>\n<ul>\n<li><a href=\"http://www.domleschg.ch/\">Website Gemeinde Domleschg</a></li>\n<li><a href=\"http://www.hls-dhs-dss.ch/textes/d/D1474.php\">Link zum historischen Lexikon der Schweiz</a></li>\n<li><a href=\"http://shop.graubuenden.ch/Viamala/ukv/?date_unknown=1&amp;doSearch=1&amp;locationIDs[]=TDS00020010346592279&amp;globalReset=1&amp;persistentParameters=1&amp;lang=de\">Unterk\u00fcnfte in Paspels</a></li>\n</ul>", "url": "https://www.domleschg.ch", "image": "https://viatpimtsoch.sos-ch-dk-2.exoscale-cdn.com/catalog/4/9/d/e/49de97c656b3453310d30b887c479a75152deebf_paspels_dorf_domleschg_sommer_demateo.com.jpg", "openstreetmap_id": "node/1351083516"}, "geometry": {"type": "Point", "coordinates": ["9.44463", "46.748749"]}}, {"type": "Feature", "properties": {"identifier": "4198e36a-d1a6-478c-be8c-6cfdde3e595c", "name": "Tartar", "description": "<p>Tartar geh\u00f6rt seit 1.1.2010 zur Gemeinde Cazis. Es liegt am \u00e4usseren Heinzenberg auf 995 m \u00fc.M. und z\u00e4hlt rund 160 Einwohner.</p>\n<ul>\n<li><a href=\"https://www.cazis.ch/\">Website Gemeinde Cazis</a></li>\n<li><a href=\"http://www.hls-dhs-dss.ch/textes/d/D1491.php\">Link zum historischen Lexikon der Schweiz</a></li>\n<li><a href=\"http://shop.graubuenden.ch/Viamala/ukv/?date_unknown=1&amp;doSearch=1&amp;locationIDs[]=TDS00020010346790706&amp;globalReset=1&amp;persistentParameters=1&amp;lang=de\">Unterk\u00fcnfte in Tartar</a></li>\n</ul>", "url": "https://www.cazis.ch", "image": "https://viatpimtsoch.sos-ch-dk-2.exoscale-cdn.com/catalog/a/e/0/d/ae0d0c29429d463f062381a0b907fee71cec1e70_tartar_im_sommer.jpg", "openstreetmap_id": "node/240029452"}, "geometry": {"type": "Point", "coordinates": ["9.418115", "46.718663"]}}, {"type": "Feature", "properties": {"identifier": "41f55619-5a95-45ae-b57e-facc5a6c255b", "name": "Bandseen", "description": "Der untere Bandsee liegt auf 2599 m \u00fc.M., der obere auf 2643 m \u00fc.M.&nbsp;Die Seen sind von Avers-Cresta&nbsp;aus erreichbar. Weitere Informationen zur Wanderung finden Sie <a href=\"https://mybusiness.outdooractive.com/de/r/23419833/\" target=\"_blank\">hier</a>.", "url": "https://www.viamala.ch", "image": "https://viatpimtsoch.sos-ch-dk-2.exoscale-cdn.com/catalog/c/4/b/2/c4b2c0ee4b8357c6c2f5ac7e677bdcfce00e803d_oberer_bandsee_avers.jpg", "openstreetmap_id": "way/246902645"}, "geometry": {"type": "Point", "coordinates": ["9.555884599685669", "46.470246368350764"]}}, {"type": "Feature", "properties": {"identifier": "42f8292c-3544-4795-94f5-de2a34ebbb39", "name": "Bergsportschule Grischa", "description": "<p>Die Bergsportschule Grischa wird von einheimischen Berg- und Skif\u00fchrern mit anerkannter Zertifizierung betrieben. Jenseits der markierten Pisten sind sie in ihrem Element und kennen als Einheimische die verborgenen Winkel und malerischsten Abfahrten in der Destination Viamala. Die Bergsportschule bietet als Experte in den Bereichen Freeride, Skitouren, Schneeschuhwanderungen und Eisklettern eine Vielzahl von Angeboten, von Kursen \u00fcber Gruppenausfl\u00fcge und Firmenevents bis hin zu individuellem Guiding, um alle W\u00fcnsche zu erf\u00fcllen. </p><p>Die Destination Viamala bietet&nbsp;zahlreiche M\u00f6glichkeiten f\u00fcr unvergessliche Erlebnisse in der faszinierenden Berglandschaft. Die Bergsportakademie plant nach den Vorstellungen der Teilnehmer und begleitet Sie durch ein unvergessliches Abenteuer.</p>", "url": "https://bergsportschulegrischa.ch", "image": "https://viatpimtsoch.sos-ch-dk-2.exoscale-cdn.com/catalog/a/b/b/2/abb2c989f3687a235bfdb725eb963e0f1d8a8243_die_bergfuehrerinnen_der_bergsportschule_grischa_sommer.jpg", "openstreetmap_id": "node/12114459352"}, "geometry": {"type": "Point", "coordinates": ["9.537029", "46.45871"]}}, {"type": "Feature", "properties": {"identifier": "44181b9c-e03f-4e96-af72-6c9985d6788d", "name": "Rothenbrunnen", "description": "<p>Rothenbrunnen im Domleschger Talboden liegt auf 630 m \u00fc.M. und z\u00e4hlt rund 300 Einwohner. Seinen Namen verdankt der Ort der warmen jodeisenhaltigen Heil- und Mineralquelle.</p>\n<ul>\n<li><a href=\"https://rothenbrunnen.ch/\">Website der Gemeinde Rothenbrunnen</a></li>\n<li><a href=\"http://www.hls-dhs-dss.ch/textes/d/D1477.php\">Link zum historischen Lexikon der Schweiz</a></li>\n<li><a href=\"http://shop.graubuenden.ch/Viamala/ukv/?date_unknown=1&amp;doSearch=1&amp;locationIDs[]=TDS00020010527381530&amp;globalReset=1&amp;persistentParameters=1&amp;lang=de\">Unterk\u00fcnfte im Domleschg</a></li>\n</ul>", "url": "http://rothenbrunnen.ch", "image": "https://viatpimtsoch.sos-ch-dk-2.exoscale-cdn.com/catalog/b/4/1/a/b41afbd98ddbccb4132add21830c93e1d7a7a296_rothenbrunnen_dorf_domleschg_sommer_demateo.jpg", "openstreetmap_id": "relation/1684141"}, "geometry": {"type": "Point", "coordinates": ["9.426014", "46.768961"]}}, {"type": "Feature", "properties": {"identifier": "44583901-ccf2-40a8-91b7-1a70dcff5c1e", "name": "Alpersch\u00e4lli-Seeli", "description": "<p>Sp\u00e4testens nach dem steilen Aufstieg von der Alp Biggenmad hoch zum Alpersch\u00e4lli geh\u00f6rt der Feldstecher griffbereit. Denn hier lassen sich die Steinb\u00f6cke besonders oft beobachten.</p><p></p><p>Auf dem Weg \u2013 der gr\u00f6sste Teil des Aufstiegs zur Farcletta digl Lai Grand (2659 m \u00fc. M.) ist geschafft \u2013 gleitet der Blick \u00fcbers Alpersch\u00e4lli-Seeli. Man k\u00f6nnte das kleine, klare Seeli unr\u00fchmlich als Pf\u00fctze abtun, pr\u00e4sentierte es sich nicht als zauberhafter Farbtupfer inmitten der kargen, steinigen Landschaft. Und es liegt an einem willkommenen Ort, denn hier m\u00f6chte man pausieren. Auf einem Stein sitzend \u2013 nein, f\u00fcr ein Bad ist das von Schmelzwasser gespiesene Seeli zu frostig \u2013 holt man nun genussvoll Leckereien aus dem Rucksack. Ja, auch diese geh\u00f6ren zur Standartausr\u00fcstung. Beim Picknicken schliesslich geniesst man das aufkommende Bewusstsein, dass man sich hier vollkommen alleine inmitten der Bergwelt befindet. Alleine? Vielleicht ja. Oder doch nicht? Denn gut m\u00f6glich, dass es hier zu einer Begegnung mit dem Capricorn, dem K\u00f6nig der Alpen, kommt.</p>", "url": "https://www.viamala.ch", "image": "https://viatpimtsoch.sos-ch-dk-2.exoscale-cdn.com/catalog/7/a/6/9/7a693602d6cfdc4206fe9208002d43d4342e4e57_alperschaelli_seeli_sommer_schamserberg_nico_schaerer.jpg", "openstreetmap_id": "way/1243307563"}, "geometry": {"type": "Point", "coordinates": ["9.317709803581238", "46.606894394726645"]}}, {"type": "Feature", "properties": {"identifier": "4788e9a7-2647-498f-94e9-a2c5fd0e9bc2", "name": "Ferrera", "description": "<p>Die Gemeinde Ferrera wird von den beiden Fraktionen Ausser- und Innerferrera gebildet. Sie liegt zwischen 1\u2019316 m \u00fc.M. und 1\u2019486 m \u00fc.M. und z\u00e4hlt rund 90 Einwohner.</p>\n<ul>\n<li><a href=\"https://ferrera.ch/\">Website Gemeinde Ferrera</a></li>\n<li><a href=\"http://www.hls-dhs-dss.ch/textes/d/D49443.php\">Link zum historischen Lexikon der Schweiz</a></li>\n<li><a href=\"http://shop.graubuenden.ch/Viamala/ukv/?date_unknown=1&amp;doSearch=1&amp;locationIDs[]=TDS00020010527381509&amp;globalReset=1&amp;persistentParameters=1&amp;lang=de\">Unterk\u00fcnfte in&nbsp;Avers/Ferrera</a></li>\n</ul>", "url": "https://ferrera.ch", "image": "https://viatpimtsoch.sos-ch-dk-2.exoscale-cdn.com/catalog/2/4/b/3/24b3b0115ca5a315f59434aa0dfaebbe6bed48bf_ausserferrera_dorf_luftaufnahme_markus_mueller.jpg", "openstreetmap_id": "relation/1684076"}, "geometry": {"type": "Point", "coordinates": ["9.442853", "46.521065"]}}, {"type": "Feature", "properties": {"identifier": "48d8be90-fd49-49ee-a846-c76cc26a65f9", "name": "Schwarzseen", "description": "Der See ist ein beliebtes Ziel bei Wanderern und Bergseefischern. Der Aufstieg vom Parkplatz beim Hohenhaus im Val Madrisch dauert ca. 2.5 Stunden.", "url": "https://www.viamala.ch", "image": "https://viatpimtsoch.sos-ch-dk-2.exoscale-cdn.com/catalog/4/2/e/d/42eda848418b8930eb51a273daed54ba0ca3b6b2_schwarzseen_avers_madrisatal_sommer_demateo.com.jpg", "openstreetmap_id": "way/319180455"}, "geometry": {"type": "Point", "coordinates": ["9.465022087097168", "46.42070085775866"]}}, {"type": "Feature", "properties": {"identifier": "4c33b8fe-9876-4ad3-b68e-f04690b003d2", "name": "Hinterrhein", "description": "<p>Das Passdorf Hinterrhein liegt auf 1\u2019624 m \u00fc.M. Meer und z\u00e4hlt rund 60 Einwohner. Per 1. Januar 2019 bildet Hinterrhein mit Nufenen, Medels und Spl\u00fcgen die Gemeinde Rheinwald.</p>\n<ul>\n<li><a href=\"https://www.rheinwald.ch/\">Website Gemeinde Rheinwald</a></li>\n<li><a href=\"http://www.hls-dhs-dss.ch/textes/d/D1496.php\">Link zum historischen Lexikon der Schweiz</a></li>\n<li><a href=\"http://shop.graubuenden.ch/Viamala/ukv/?date_unknown=1&amp;doSearch=1&amp;locationIDs[]=TDS00020010346589183&amp;globalReset=1&amp;persistentParameters=1&amp;lang=de\">Unterk\u00fcnfte in Hinterrhein</a></li>\n</ul>", "url": "https://www.rheinwald.ch", "image": "https://viatpimtsoch.sos-ch-dk-2.exoscale-cdn.com/catalog/5/e/c/9/5ec95c8e21010fdff68e2d0e873c3bf8a2406017_hinterrhein_dorf_rheinwald_luftaufnahme_markus_mueller.jpg", "openstreetmap_id": "node/4429021370"}, "geometry": {"type": "Point", "coordinates": ["9.199432", "46.530792"]}}, {"type": "Feature", "properties": {"identifier": "4dfebff1-c85a-454d-bef2-01dbea654498", "name": "Pratval", "description": "<p>Pratval geh\u00f6rt seit 1.1.2015 zur Gemeinde Domleschg. Es liegt auf 690 m \u00fc.M. und z\u00e4hlt rund 240 Einwohner.</p>\n<ul>\n<li><a href=\"http://www.domleschg.ch/\">Website Gemeinde Domleschg</a></li>\n<li><a href=\"http://www.hls-dhs-dss.ch/textes/d/D1475.php\">Link zum historischen Lexikon der Schweiz</a></li>\n<li><a href=\"http://shop.graubuenden.ch/Viamala/ukv/?date_unknown=1&amp;doSearch=1&amp;locationIDs[]=TDS00020010346592926&amp;globalReset=1&amp;persistentParameters=1&amp;lang=de\">Unterk\u00fcnfte in Pratval</a></li>\n</ul>", "url": "https://www.domleschg.ch", "image": "https://viatpimtsoch.sos-ch-dk-2.exoscale-cdn.com/catalog/2/9/9/5/299507a40058fa3187ec5f39812318a083e68176_pratval_dorf_fruehling_demateo.jpg", "openstreetmap_id": "node/240055690"}, "geometry": {"type": "Point", "coordinates": ["9.445403", "46.732934"]}}, {"type": "Feature", "properties": {"identifier": "4e6e523e-1df8-4af4-b204-15071dd5a7b0", "name": "Kraftwerke Zervreila AG", "description": "<p>Die Kraftwerke Zervreila AG nutzt die Wasserkr\u00e4fte eines 200 km2 grossen Einzugsgebietes im oberen Valsertal und des Safientals. Kern der Anlagen ist der Speichersee Zervreila mit seiner 151 m hohen Bogenstaumauer von 504 m Kronenl\u00e4nge und 100 Mio. m3 Fassungsverm\u00f6gen. Dieser Stausee erlaubt die Sommerzufl\u00fcsse des Valserrheins oberhalb der Sperrstelle sowie der rechtsufrigen Seitenb\u00e4che bis zum Peilerbach zu speichern. Erstmals genutzt wird das Speicherwasser in der am Fusse der Staumauer gelegenen Zentrale Zervreila. Durch den \u00dcberleitstollen mit einer Schluckf\u00e4higkeit von 20 m3/s gelangt es zur weiteren Nutzung ins Ausgleichsbecken Wanna im hinteren Safiental. Durch einen weiteren Druckstollen wird das Nutzwasser aus dem Ausgleichsbecken Safien Platz talausw\u00e4rts und schliesslich durch den Heinzenberg ins Domleschg geleitet, wo es in der Zentrale Rothenbrunnen mit rund 673 m Gef\u00e4lle verarbeitet wird. Drei horizontale Maschinens\u00e4tze mit Zwillings-Peltonturbinen erbringen je 44 MW Leistung. Die Energie aller Werkstufen wird nach der Transformation auf 220 kV in der Freiluftschaltanlage Rothenbrunnen dem schweizerischen Hochspannungsnetz \u00fcbergeben.</p>\n<h4>Gef\u00fchrte Besichtigungen</h4><p>Montag - Freitag. Anmeldung online unter:&nbsp;<a href=\"http://www.kwz.ch/besichtigung/anfrage-besichtigung/\">www.kwz.ch</a></p>", "url": "https://www.kwz.ch", "image": "https://viatpimtsoch.sos-ch-dk-2.exoscale-cdn.com/catalog/0/a/3/6/0a3694df36abe882ebfd533a1ea517b30dcc1c95_stauanlage_zervreila.jpg", "openstreetmap_id": "node/1672430474"}, "geometry": {"type": "Point", "coordinates": ["9.41824", "46.76596"]}}, {"type": "Feature", "properties": {"identifier": "50d0be1b-994f-4bd5-ae2c-65a3f87f26df", "name": "Leseb\u00e4nkli Cazis", "description": "Genau das k\u00f6nnen Sie nun\u00a0in der Gemeinde Cazis tun. Bei\u00a0vier idyllisch gelegenen B\u00e4nkli steht eine Kiste bereit. Diese ist gef\u00fcllt mit B\u00fcchern und Zeitschriften f\u00fcr Jung und Alt. Sie sind herzlich eingeladen die B\u00fccher anzuschauen, zu lesen und darin zu schm\u00f6ckern. Falls Sie sich einmal so sehr in ein Buch vertieft haben, dass Sie davon nicht mehr loskommen, leihen Sie es sich f\u00fcr ein paar Tage aus oder kommen Sie einfach wieder zur\u00fcck aufs B\u00e4nkli, zum Weiterlesen.", "url": "https://cazis.ch", "image": "https://viatpimtsoch.sos-ch-dk-2.exoscale-cdn.com/catalog/b/8/e/8/b8e8b5fa8f95e9d8d0c7f8bc9e7a6ff15dfe0d5d_lesebaenkli_cazis_viamala_tourismus.jpg", "openstreetmap_id": "node/12097048214"}, "geometry": {"type": "Point", "coordinates": ["9.433779724688861", "46.723785423110435"]}}, {"type": "Feature", "properties": {"identifier": "51c57dd0-b1f8-49af-8896-e40a128db0d9", "name": "Urmein", "description": "<p>Urmein liegt am Heinzenberg auf 1'264 m \u00fc.M. und z\u00e4hlt rund 150 Einwohner.</p>\n<ul>\n<li><a href=\"https://www.urmein.ch/\">Website Gemeinde Urmein</a></li>\n<li><a href=\"http://www.hls-dhs-dss.ch/textes/d/D1494.php\">Link zum historischen Lexikon der Schweiz</a></li>\n<li><a href=\"http://shop.graubuenden.ch/Viamala/ukv/?date_unknown=1&amp;doSearch=1&amp;locationIDs[]=TDS00020010141062637&amp;globalReset=1&amp;persistentParameters=1&amp;lang=de\">Unterk\u00fcnfte in Urmein</a></li>\n</ul>", "url": "https://www.urmein.ch", "image": "https://viatpimtsoch.sos-ch-dk-2.exoscale-cdn.com/catalog/2/9/a/7/29a722e63ff4285daab15ebdf7d27336c550b5a6_oberurmein_dorf_heinzenberg_sommer_aclas_demateo.jpg", "openstreetmap_id": "relation/1684199"}, "geometry": {"type": "Point", "coordinates": ["9.401428", "46.691542"]}}, {"type": "Feature", "properties": {"identifier": "5272d248-70b4-4644-9c77-7949364d49fa", "name": "Zillis-Reischen", "description": "<p>Die Gemeinde am s\u00fcdlichen Eingang zur Viamala-Schlucht wird von den beiden Ortsteilen Zillis (945 m \u00fc.M.) und Reischen (1\u2019024 m \u00fc.M.) gebildet. Es z\u00e4hlt rund 390 Einwohner.</p>\n<ul>\n<li><a href=\"https://www.zillis-reischen.ch/\">Website Gemeinde Zillis-Reischen</a></li>\n<li><a href=\"http://www.hls-dhs-dss.ch/textes/d/D45874.php\">Link zum historischen Lexikon der Schweiz</a></li>\n<li><a href=\"https://shop.graubuenden.ch/Viamala/ukv/result?tt=qerkmsicqjn6dq2e5l1qsil7tr\">Unterk\u00fcnfte in Zillis-Reischen</a></li>\n</ul>", "url": "https://zillis-reischen.ch", "image": "https://viatpimtsoch.sos-ch-dk-2.exoscale-cdn.com/catalog/6/0/3/9/6039a42af9c4b90d4ac41a2f48a2f3e98e5fc8e8_zillis_reischen_dorf_sommer_demateo.jpg", "openstreetmap_id": "relation/1684211"}, "geometry": {"type": "Point", "coordinates": ["9.445457", "46.634904"]}}, {"type": "Feature", "properties": {"identifier": "5f231a24-dac4-4597-8db7-b3ce9b722861", "name": "Sils im Domleschg", "description": "<p>Sils liegt im s\u00fcdlichen Domleschg am Eingang zur Viamala-Schlucht auf 630 m \u00fc. M. und z\u00e4hlt rund 940 Einwohner.</p>\n<ul>\n<li><a href=\"https://www.sils-id.ch/\">Website Gemeinde Sils i.D.</a></li>\n<li><a href=\"http://www.hls-dhs-dss.ch/textes/d/D1480.php\">Link zum historischen Lexikon der Schweiz</a></li>\n<li><a href=\"http://shop.graubuenden.ch/Viamala/ukv/?date_unknown=1&amp;doSearch=1&amp;locationIDs[]=TDS00020010346781867&amp;globalReset=1&amp;persistentParameters=1&amp;lang=de\">Unterk\u00fcnfte in Sils i.D.</a></li>\n</ul>", "url": "https://www.sils-id.ch", "image": "https://viatpimtsoch.sos-ch-dk-2.exoscale-cdn.com/catalog/a/b/7/4/ab7497ac8215318cb37f7e28051abfa67d37c0cb_sils_im_domleschg_sommer_demateo.jpg", "openstreetmap_id": "relation/1684168"}, "geometry": {"type": "Point", "coordinates": ["9.451924", "46.700083"]}}, {"type": "Feature", "properties": {"identifier": "63c8200d-a5a3-4ff2-9586-99bf7a9e8f93", "name": "Nufenen", "description": "<p>Nufenen liegt auf 1\u2019568 m \u00fc.M. und z\u00e4hlt rund 150 Einwohner. Seit 1. Januar 2019 bildet der Ort mit Hinterrhein, Medels und Spl\u00fcgen die Gemeinde Rheinwald.</p>\n<ul>\n<li><a href=\"https://www.rheinwald.ch/\">Website Gemeinde Rheinwald</a></li>\n<li><a href=\"http://www.hls-dhs-dss.ch/textes/d/D1498.php\">Link zum historischen Lexikon der Schweiz</a></li>\n<li><a href=\"http://shop.graubuenden.ch/Viamala/ukv/?date_unknown=1&amp;doSearch=1&amp;locationIDs[]=TDS00020010346592173&amp;globalReset=1&amp;persistentParameters=1&amp;lang=de\">Unterk\u00fcnfte in Nufenen</a></li>\n</ul>", "url": "https://www.rheinwald.ch", "image": "https://viatpimtsoch.sos-ch-dk-2.exoscale-cdn.com/catalog/9/6/a/3/96a3b7d4c1583e5ab70b29cb2e7378a21ef6258f_nufenen_dorf_sommer_markus_mueller.jpg", "openstreetmap_id": "node/2442670944"}, "geometry": {"type": "Point", "coordinates": ["9.243459", "46.539388"]}}, {"type": "Feature", "properties": {"identifier": "674c23e7-395b-478c-be8e-9a0eafcfef9d", "name": "Tomils", "description": "<p>Tomils geh\u00f6rt seit 1.1.2015 zur Gemeinde Domleschg. Es liegt auf 800 m \u00fc.M. und z\u00e4hlt rund&nbsp;380 Einwohner.</p>\n<ul>\n<li><a href=\"http://www.domleschg.ch/\">Website Gemeinde Domleschg</a></li>\n<li><a href=\"https://hls-dhs-dss.ch/de/articles/001482/2016-12-09/\">Link zum historischen Lexikon der Schweiz</a></li>\n<li><a href=\"http://shop.graubuenden.ch/Viamala/ukv/?date_unknown=1&amp;doSearch=1&amp;locationIDs[]=TDS00020010527381530&amp;globalReset=1&amp;persistentParameters=1&amp;lang=de\">Unterk\u00fcnfte im Domleschg</a></li>\n</ul>", "url": "https://www.domleschg.ch", "image": "https://viatpimtsoch.sos-ch-dk-2.exoscale-cdn.com/catalog/b/3/6/1/b361f3ffe5a9582278d79be5516326e1a40913ed_tomils_schloss_ortenstein_sommer_fruehling_demateo.jpg", "openstreetmap_id": "node/240070148"}, "geometry": {"type": "Point", "coordinates": ["9.443537", "46.759476"]}}, {"type": "Feature", "properties": {"identifier": "69d41767-7c62-46fc-bf1d-c80ff245ffee", "name": "Mathon", "description": "<p>Mathon liegt am Schamserberg auf 1\u2019521 m \u00fc.M. und z\u00e4hlt rund 50 Einwohner. Hier steht das Geburtshaus des bekannten Komponisten Tumasch Dolf.</p>\n<ul>\n<li><a href=\"https://www.mdschons.ch/\">Website Gemeinde Muntogna da Schons</a></li>\n<li><a href=\"http://www.hls-dhs-dss.ch/textes/d/D1508.php\">Link zum historischen Lexikon der Schweiz</a></li>\n<li><a href=\"http://shop.graubuenden.ch/Viamala/ukv/?date_unknown=1&amp;doSearch=1&amp;locationIDs[]=TDS00020010346590066&amp;globalReset=1&amp;persistentParameters=1&amp;lang=de\">Unterk\u00fcnfte in Mathon</a></li>\n</ul>", "url": "https://mdschons.ch", "image": "https://viatpimtsoch.sos-ch-dk-2.exoscale-cdn.com/catalog/8/6/b/7/86b77cb2a9a8ed06974be2bb8216665c360fb140_mathon_muntogna_da_schons_sommer_demateo.jpg", "openstreetmap_id": "relation/6148051"}, "geometry": {"type": "Point", "coordinates": ["9.413933", "46.636625"]}}, {"type": "Feature", "properties": {"identifier": "7282c443-b171-46b1-b723-61b142254322", "name": "Viamala Markt", "description": "<p>Naturgewalten und die sanfte Bergidylle sind von Gegens\u00e4tzen gepr\u00e4gt. Dasselbe gilt f\u00fcr unsere Lieferanten der feinen Spezialit\u00e4ten aus unserer Region: So unterschiedlich die Hersteller, so speziell und einzigartig sind die geschmacksorientierten Spezialit\u00e4ten, die sich durch Einfachheit, Geschmack und Kraft auszeichnen. Der angenehme Gedanke dabei ist der willkommene Nebenverdienst f\u00fcr alle lokalen Hersteller der unz\u00e4hligen K\u00f6stlichkeiten. Alle diese Hersteller wissen \u2013 ein Versprechen, das verpflichtet.<br></p>", "url": "https://viamalamarkt.ch", "image": "https://viatpimtsoch.sos-ch-dk-2.exoscale-cdn.com/catalog/1/5/9/e/159ecbf0780cc7698167fa3e81215df460bf0089_der_viamala_markt_in_der_rastst__tte_thusi_ladens.jpg", "openstreetmap_id": "node/12120315067"}, "geometry": {"type": "Point", "coordinates": ["9.445359", "46.712627"]}}, {"type": "Feature", "properties": {"identifier": "857aa727-11bb-4cf8-b031-e1ba0c20d5c0", "name": "Scharans", "description": "<p>Scharans liegt im Domleschg auf rund 760 m \u00fc.M. und z\u00e4hlt rund 790 Einwohner.</p>\n<ul>\n<li><a href=\"https://scharans.ch/\">Website Gemeinde Scharans</a></li>\n<li><a href=\"http://www.hls-dhs-dss.ch/textes/d/D1478.php\">Link zum historischen Lexikon der Schweiz</a></li>\n<li><a href=\"http://shop.graubuenden.ch/Viamala/ukv/?date_unknown=1&amp;doSearch=1&amp;locationIDs[]=TDS00020010346780963&amp;globalReset=1&amp;persistentParameters=1&amp;lang=de\">Unterk\u00fcnfte in Scharans</a></li>\n</ul>", "url": "https://scharans.ch", "image": "https://viatpimtsoch.sos-ch-dk-2.exoscale-cdn.com/catalog/6/f/f/2/6ff24ec73d8b32dae3608aebea3dc4074c69f914_scharans_domleschg_sommer_demateo.com.jpg", "openstreetmap_id": "relation/1684156"}, "geometry": {"type": "Point", "coordinates": ["9.459635", "46.717053"]}}, {"type": "Feature", "properties": {"identifier": "86169aa9-f72d-4c94-99cc-af06b2932f05", "name": "Leseb\u00e4nkli Tartar", "description": "Genau das k\u00f6nnen Sie nun\u00a0in der Gemeinde Cazis tun. Bei\u00a0vier idyllisch gelegenen B\u00e4nkli steht eine Kiste bereit. Diese ist gef\u00fcllt mit B\u00fcchern und Zeitschriften f\u00fcr Jung und Alt. Sie sind herzlich eingeladen die B\u00fccher anzuschauen, zu lesen und darin zu schm\u00f6ckern. Falls Sie sich einmal so sehr in ein Buch vertieft haben, dass Sie davon nicht mehr loskommen, leihen Sie es sich f\u00fcr ein paar Tage aus oder kommen Sie einfach wieder zur\u00fcck aufs B\u00e4nkli, zum Weiterlesen.", "url": "https://cazis.ch", "image": "https://viatpimtsoch.sos-ch-dk-2.exoscale-cdn.com/catalog/5/a/b/3/5ab340ca3ed4943114d39ab58bf153aa4685c89b_lesebaenkli_tartar_heinzenberg_viamala_tourismus.jpg", "openstreetmap_id": "node/12097071867"}, "geometry": {"type": "Point", "coordinates": ["9.41512226443615", "46.71542973398972"]}}, {"type": "Feature", "properties": {"identifier": "8db01510-2f42-463c-9027-e75ccfcaa74b", "name": "Spl\u00fcgen", "description": "<p>Das Passdorf Spl&uuml;gen liegt 1&rsquo;458 m &uuml;.M. und z&auml;hlt rund 420 Einwohner. Seit 1. Januar 2019 bildet Spl&uuml;gen mit Hinterrhein, Nufenen und Medels die Gemeinde Rheinwald.</p><ul><li><a href=\"https://www.rheinwald.ch/\">Website Gemeinde Rheinwald</a></li><li><a href=\"http://www.hls-dhs-dss.ch/textes/d/D1499.php\">Link zum historischen Lexikon der Schweiz</a></li><li><a href=\"http://shop.graubuenden.ch/Viamala/ukv/?date_unknown=1&amp;doSearch=1&amp;locationIDs[]=TDS00020010346785325&amp;globalReset=1&amp;persistentParameters=1&amp;lang=de\">Unterk&uuml;nfte in Spl&uuml;gen</a></li><li><a href=\"https://viamala.ch/architekturfuehrer.html\">Architekturrundgang Spl&uuml;gen</a></li></ul><p><strong>&nbsp;</strong></p><p><strong>UN Best Tourism Village 2024</strong><br>UNWTO hat im Rahmen ihrer Initiative &laquo;Best Tourism Village&raquo; zum vierten Mal Tourismusd&ouml;rfer auf der Welt gesucht, die sich auf besonders nachhaltige und innovative Weise entwickeln, ohne dabei die lokale Kultur, Natur und die Bev&ouml;lkerung zu vergessen. Bewerben konnten sich D&ouml;rfer in l&auml;ndlichen Gegenden, bei denen traditionelle T&auml;tigkeiten wie Land- und Forstwirtschaft pr&auml;gend sind.</p><p>Spl&uuml;gen und&nbsp;Romoos im Entlebuch &uuml;berzeugten die Jury der UN Tourism mit ihrer starken Ausrichtung auf die nachhaltige Entwicklung des Tourismus vor Ort und verschiedenen Initiativen zur Bewahrung, F&ouml;rderung und touristischen Inwertsetzung des kulturellen Erbes.</p><ul><li><a href=\"https://viamala.ch/de/informieren/aktuelles/news/blog/splugen-erhalt-auszeichnung-zum-un-best-tourism-village-2024-137ef47e-7e78-47eb-b7dc-34b433814fb8.html\">Mehr erfahren</a></li></ul>", "url": "https://www.rheinwald.ch", "image": "https://viatpimtsoch.sos-ch-dk-2.exoscale-cdn.com/catalog/4/1/8/5/41850d998be28e52047e781da5cc5843f3df80b3_spluegen_dorf_rheinwald_sommer_marco_hartmann.jpg", "openstreetmap_id": "node/4429008093"}, "geometry": {"type": "Point", "coordinates": ["9.321705", "46.554118"]}}, {"type": "Feature", "properties": {"identifier": "92134345-10e6-4e03-8dff-b5c681f502d6", "name": "Thusis", "description": "<p>Thusis liegt am n\u00f6rdlichen Eingang zur Viamala-Schlucht am Fusse des Heinzenbergs auf 720 m \u00fc.M.. Seit 1.1.2018 z\u00e4hlt auch Mutten zur Gemeinde. Thusis z\u00e4hlt rund 3'200 Einwohner.</p>\n<ul>\n<li><a href=\"https://thusis.ch/\">Website Gemeinde Thusis</a></li>\n<li><a href=\"http://www.hls-dhs-dss.ch/textes/d/D1492.php\">Link zum historischen Lexikon der Schweiz</a></li>\n<li><a href=\"http://shop.graubuenden.ch/Viamala/ukv/?date_unknown=1&amp;doSearch=1&amp;locationIDs[]=WBX00020010000145701&amp;globalReset=1&amp;persistentParameters=1&amp;lang=de\">Unterk\u00fcnfte in Thusis</a></li>\n</ul>", "url": "https://thusis.ch", "image": "https://viatpimtsoch.sos-ch-dk-2.exoscale-cdn.com/catalog/e/a/b/1/eab1f4cc45cf24e5dd0d008e9aee7ea44b5be402_thusis_dorf_nolla_alter_dorfteil_viamala_demateo.com.jpg", "openstreetmap_id": "relation/1684187"}, "geometry": {"type": "Point", "coordinates": ["9.437736", "46.694178"]}}, {"type": "Feature", "properties": {"identifier": "945a8737-2355-4278-ba3d-f1318d9c17b8", "name": "B\u00fccherkiste Avers", "description": "<p>Von Krimis \u00fcber Romane, Geschichtsb\u00fcchern \u00fcber die Region bis hin zu Kinderb\u00fcchern. Alles was das Leserherz begehrt finden Sie in der neuen B\u00fccherkiste am Wanderweg.</p>\n<p>Leihen Sie sich ein Buch f\u00fcr eine Pause auf der Holzbank aus und geniessen Sie die Aussicht mit einer spannenden Geschichte.</p>\n<p>Die B\u00fccherkiste ist bis ca. Ende September (bei trockenem Wetter auch etwas l\u00e4nger...) zug\u00e4nglich.</p>", "url": "http://www.viamala.ch", "image": "https://viatpimtsoch.sos-ch-dk-2.exoscale-cdn.com/catalog/7/b/8/4/7b84f38cf0eb5045b92d83c14ccc4aef138d508b_buecherkiste_avers.jpg", "openstreetmap_id": "node/3093065891"}, "geometry": {"type": "Point", "coordinates": ["9.558587497884787", "46.446876437866706"]}}, {"type": "Feature", "properties": {"identifier": "98ebe266-e580-44f9-b304-63b04f54777b", "name": "Andeer", "description": "<p>Andeer ist der Schamser Zentrums- und Badeort und umfasst die Ortsteile Andeer, Pignia und Clugin. Es liegt auf 983 m \u00fc.M. und z\u00e4hlt rund 930 Einwohner.</p>\n<ul>\n<li><a href=\"http://www.gemeinde-andeer.ch\">Website Gemeinde Andeer</a></li>\n<li><a href=\"http://www.hls-dhs-dss.ch/textes/d/D1501.php\">Link zum historischen Lexikon der Schweiz</a></li>\n<li><a href=\"http://shop.graubuenden.ch/Viamala/ukv/?date_unknown=1&amp;doSearch=1&amp;locationIDs[]=WBX00020010000137809&amp;globalReset=1&amp;persistentParameters=1&amp;lang=de\">Unterk\u00fcnfte in Andeer</a></li>\n</ul>", "url": "https://www.gemeinde-andeer.ch", "image": "https://viatpimtsoch.sos-ch-dk-2.exoscale-cdn.com/catalog/4/5/9/9/4599c28c70c45bfe93910b4c2f59abb15b62871b_andeer_dorf_sommer_luftaufnahme_roman_huber.jpg", "openstreetmap_id": "relation/1684038"}, "geometry": {"type": "Point", "coordinates": ["9.425256", "46.602432"]}}, {"type": "Feature", "properties": {"identifier": "9e91992b-4a19-40dd-b8f6-b17959259d7e", "name": "Felszeichnungen Carschenna", "description": "<p>Die Felsbilder von Carschenna z&auml;hlen zu den wichtigsten pr&auml;historischen Fundstellen der Schweiz und sind einzigartige Zeugnisse menschlicher Kultur in der Region Viamala. Diese aussergew&ouml;hnlichen Darstellungen bieten einen faszinierenden Einblick in die kulturelle Vergangenheit der Region und reichen bis in die Bronze- und Eisenzeit (2./1. Jahrtausend v. Chr.) zur&uuml;ck.&nbsp;</p>\n<p><strong>Entdeckung und Erforschung</strong><br />Die Felsbilder von Carschenna wurden 1965 zuf&auml;llig von einem Forstbeamten entdeckt und anschliessend durch das R&auml;tische Museum freigelegt. Sie befinden sich auf mehreren Felsplatten und umfassen unz&auml;hlige Zeichen und Sujets, deren genaue Bedeutung nicht vollst&auml;ndig gekl&auml;rt ist. Vergleiche mit anderen, zum Teil besser datierbaren Felsbildern lassen auf eine Entstehungszeit in der Bronzezeit schliessen, ab ca. 1500 v. Chr.&nbsp;</p>\n<p><strong>Lage und Besonderheit der Fundstelle</strong><br />Die Felsbilder liegen auf einer Anh&ouml;he &ouml;stlich und oberhalb von Sils im Domleschg, direkt am Rande eines mehrere hundert Meter tiefen Abgrunds. In unmittelbarer N&auml;he verlief der Saumpfad zur Umgehung der Viamala-Schlucht. Diese besondere Lage macht die St&auml;tte nicht nur arch&auml;ologisch, sondern auch landschaftlich beeindruckend.&nbsp;</p>\n<p><strong>Beschreibung der Felsbilder</strong><br />Auf den Felsplatten findet man &uuml;berwiegend konzentrische Ringmuster mit einer Schale in der Mitte. Dar&uuml;ber hinaus sind Darstellungen von Tieren zu erkennen, die jedoch nicht immer eindeutig zu bestimmen sind. Besonders eindrucksvoll sind Darstellungen eines Reiters sowie von Saumtieren mit einer Last auf dem R&uuml;cken. Weitere Sujets umfassen Kr&auml;henf&uuml;sse, Gittermuster und Sonnensymbole. Diese Motive geben wertvolle Einblicke in die Vorstellungen und Lebensweisen der damaligen Menschen.&nbsp;</p>\n<p><strong>Zug&auml;nglichkeit</strong><br />Die Fundstelle liegt auf einem Plateau oberhalb von Sils im Domleschg und ist &ouml;ffentlich zug&auml;nglich. Eine Besichtigung ist jederzeit m&ouml;glich. Als eines der bedeutendsten arch&auml;ologischen Denkm&auml;ler in Graub&uuml;nden steht die Fundstelle unter besonderem Schutz. Besucher werden gebeten, die Bilder und die umliegende Natur mit Respekt zu behandeln, um den Erhalt dieses Kulturguts f&uuml;r zuk&uuml;nftige Generationen sicherzustellen.</p>", "url": "https://www.sils-id.ch", "image": "https://viatpimtsoch.sos-ch-dk-2.exoscale-cdn.com/catalog/5/b/5/6/5b56a975f8864b45acc210db023c3e6b5da25fcd_felszeichnungen_carschenna_demateo.jpg", "openstreetmap_id": "node/12120132893"}, "geometry": {"type": "Point", "coordinates": ["9.460735917091371", "46.694277298518706"]}}, {"type": "Feature", "properties": {"identifier": "a0836b0a-c3dd-471c-a69e-cbf05c227e21", "name": "B\u00fccherschrank Urmein", "description": "Der B\u00fccherschrank befindet sich in der alten Telefonkabine bei der Gemeindekanzlei Urmein.", "url": "https://www.urmein.ch", "image": "https://viatpimtsoch.sos-ch-dk-2.exoscale-cdn.com/catalog/4/6/b/e/46be40c7f9ff6a6aa63ffe8c7fc0a57c50c1ed57_buecherschrank_urmein.jpg", "openstreetmap_id": "node/12097059379"}, "geometry": {"type": "Point", "coordinates": ["9.401069049135458", "46.692458053789615"]}}, {"type": "Feature", "properties": {"identifier": "a23d9cb1-f1fc-46a6-bfd4-865a6bdf1a17", "name": "Sufers", "description": "<p>Die Gemeinde Sufers ist das n\u00f6rdlichste Dorf im Rheinwald. Es liegt auf 1\u2019428 m \u00fc.M., z\u00e4hlt rund 130 Einwohner und ist das einzige Dorf in der Region mit direktem Seeanstoss.</p>\n<ul>\n<li><a href=\"https://sufers.ch/\">Website Gemeinde Sufers</a></li>\n<li><a href=\"http://www.hls-dhs-dss.ch/textes/d/D1500.php\">Link zum historischen Lexikon der Schweiz</a></li>\n<li><a href=\"http://shop.graubuenden.ch/Viamala/ukv/?date_unknown=1&amp;doSearch=1&amp;locationIDs[]=TDS00020010346787671&amp;globalReset=1&amp;persistentParameters=1&amp;lang=de\">Unterk\u00fcnfte in Sufers</a></li>\n</ul>", "url": "https://sufers.ch", "image": "https://viatpimtsoch.sos-ch-dk-2.exoscale-cdn.com/catalog/d/d/d/5/ddd5a80d0ec3db14bef80ba52dbe415362634164_sufers_rheinwald_dorf_sommer_demateo.jpg", "openstreetmap_id": "relation/1684178"}, "geometry": {"type": "Point", "coordinates": ["9.366469", "46.569897"]}}, {"type": "Feature", "properties": {"identifier": "a2ebf0db-dfd4-4d92-97a2-a0539f0d98ca", "name": "Donat", "description": "<p>Das romanischsprachige Dorf liegt am Fusse des Schamserbergs auf 1\u2019043 m \u00fc.M. und z\u00e4hlt rund 220 Einwohner. Es liegt an der historischen Weitwanderroute der viaSpluga.</p>\n<ul>\n<li><a href=\"https://www.mdschons.ch/\">Website Gemeinde Muntogna da Schons</a></li>\n<li><a href=\"http://www.hls-dhs-dss.ch/textes/d/D1505.php\">Link zum historischen Lexikon der Schweiz</a></li>\n<li><a href=\"http://shop.graubuenden.ch/Viamala/ukv/?date_unknown=1&amp;doSearch=1&amp;locationIDs[]=TDS00020010346588347&amp;globalReset=1&amp;persistentParameters=1&amp;lang=de\">Unterk\u00fcnfte in Donat</a></li>\n</ul>", "url": "https://mdschons.ch", "image": "https://viatpimtsoch.sos-ch-dk-2.exoscale-cdn.com/catalog/0/0/b/6/00b64a6630e1fa36cf5507ea92172886061f7b18_donat_schamserberg_muntogna_da_schons_fruehling_sommer_demateo.jpg", "openstreetmap_id": "node/248646076"}, "geometry": {"type": "Point", "coordinates": ["9.429137", "46.628406"]}}, {"type": "Feature", "properties": {"identifier": "a643756f-c911-4d16-8162-3626c096b13c", "name": "Bergseeli Spl\u00fcgenpass", "description": "Das Bergseeli liegt oberhalb der Passh\u00f6he vom Spl\u00fcgenpass auf 2'311 m \u00fc.M.", "url": "https://www.viamala.ch", "image": "https://viatpimtsoch.sos-ch-dk-2.exoscale-cdn.com/catalog/c/6/7/c/c67c3d361d08ca9878dcb7c27c5a1d377dfada47_bergseeli_spluegenpass_sommer_rheinwald_demateo.com.jpg", "openstreetmap_id": "way/71882326"}, "geometry": {"type": "Point", "coordinates": ["9.339968824126231", "46.507409678869514"]}}, {"type": "Feature", "properties": {"identifier": "a784ca3d-d126-471d-82ef-5bdfffc746ba", "name": "Spl\u00fcgenpass", "description": "<p>Der Spl&uuml;genpass wurde nachweislich schon in der fr&uuml;hgeschichtlichen Zeit begangen. Auch in der r&ouml;mischen Zeit gibt es Hinweise darauf, z.B. das Itinerarium Antonini, eine r&ouml;mische Strassenkarte um 300 n.Chr. Die recht engen Verbindungen zwischen den Bist&uuml;mern Chur und Como liefen &uuml;ber den Spl&uuml;genpass. Schon 1396 sind am Spl&uuml;gen erhebliche Zolleinnahmen nachgewiesen worden. Der Ausbau der Viamala-Schlucht f&ouml;rderte dessen Aufschwung. Der Warenverkehr erfolgte fast ausschliesslich mit S&auml;umern, was oftmaliges Umladen bedeutete.&nbsp;</p><p>Der Transitverkehr bildete einen wichtigen Teil der bl&uuml;henden Wirtschaft. Noch 1798 schrieb der &ouml;sterreichische Feldmarschall von Bellegarde: &laquo;&Uuml;ber diesen Pass geht der gr&ouml;sste Warenzug aus dem Mail&auml;ndischen nach Deutschland, aber meistens auf Pferden und Maultieren.&raquo; Zwischen 1818 und 1823 wurde gleichzeitig mit dem San Bernardino eine erste f&uuml;r Frachtwagen und Postkutschen befahrbare Strasse gebaut, die in weiten Teilen noch heute dem damaligen Verlauf entspricht. Danach wuchsen das Frachtaufkommen und der internationale Personenverkehr &uuml;ber den Spl&uuml;gen um ein Vielfaches und erreichte um die Mitte der 1850er Jahre seinen Zenit.&nbsp;</p><p>Die Er&ouml;ffnung der Alpenbahnen (1867 Brenner, 1872 Mont Cenis) schm&auml;lerten bereits den Transitverkehr &uuml;ber den Spl&uuml;gen. Die Er&ouml;ffnung der Gotthardbahn 1882 brachte den B&uuml;ndner Transitverkehr praktisch zum Erliegen. Eine grosse Auswanderungswelle war eine direkte Folge. Die jahrzehntelangen Anstrengungen f&uuml;r eine Spl&uuml;genbahn blieben schliesslich erfolglos. Der Bau der Nationalstrasse mit Autotunnel am San Bernardino er&ouml;ffnete wieder neue Perspektiven. Der Spl&uuml;genpass ist seit dem 2. Weltkrieg im Winter geschlossen.</p><p>viaSpluga</p><p>Die zweitausendj&auml;hrige Transitgeschichte l&auml;sst sich heute auf dem Kultur- und Weitwanderweg viaSpluga von Thusis nach Chiavenna erfahren. Weitere Informationen finden Sie hier.</p>", "url": "https://www.viamala.ch", "image": "https://viatpimtsoch.sos-ch-dk-2.exoscale-cdn.com/catalog/5/1/5/d/515d5cc3bec1f87a87ff1b71a1d8364d2dac4d6c_spluegenpass_passstrasse_rheinwald_sommer_demateo.jpg", "openstreetmap_id": "node/6038984981"}, "geometry": {"type": "Point", "coordinates": ["9.330337643623352", "46.505660105777054"]}}, {"type": "Feature", "properties": {"identifier": "aa88896d-2840-4d24-bb0d-d6226d8a6d1f", "name": "Pr\u00e4z", "description": "<p>Pr\u00e4z geh\u00f6rt seit 1.1.2010 zur Gemeinde Cazis. Es liegt am \u00e4usseren Heinzenberg auf 1'200 m \u00fc.M. und z\u00e4hlt rund 160 Einwohner.</p>\n<ul>\n<li><a href=\"https://www.cazis.ch/\">Website Gemeinde Cazis</a></li>\n<li><a href=\"http://www.hls-dhs-dss.ch/textes/d/D1489.php\">Link zum historischen Lexikon der Schweiz</a></li>\n<li><a href=\"http://shop.graubuenden.ch/Viamala/ukv/?date_unknown=1&amp;doSearch=1&amp;locationIDs[]=TDS00020010346592929&amp;globalReset=1&amp;persistentParameters=1&amp;lang=de\">Unterk\u00fcnfte in Pr\u00e4z</a></li>\n</ul>", "url": "https://www.cazis.ch", "image": "https://viatpimtsoch.sos-ch-dk-2.exoscale-cdn.com/catalog/9/4/c/f/94cf40bf9e17a5a85404aedb631f38a2e08a347c_praez_heinzenberg_demateo.jpg", "openstreetmap_id": "node/3441297073"}, "geometry": {"type": "Point", "coordinates": ["9.404314", "46.740614"]}}, {"type": "Feature", "properties": {"identifier": "ab9e3752-542e-4305-839a-8042d3949046", "name": "Patrutgsee", "description": "<p>Idyllisch gelegenes Familienparadies mit Spielbach, Kinderbadesee, Spiel- und Liegewiese sowie zahlreichen Freizeitm&ouml;glichkeiten. F&uuml;nf Feuerstellen mit Sitzgruppen, ein Spielplatz, ein Boots- und Badesteg sowie eine rollstuhlg&auml;ngige WC-Anlage sorgen f&uuml;r einen erlebnisreichen Aufenthalt.&nbsp;Das Gel&auml;nde wird von einem kinderwagentauglichen Spazierweg umgeben.</p><p>F&uuml;r Firmen-, Vereins- und Familienfeste kann im Sommer die H&uuml;tte des Eisstockclubs gemietet werden.</p>", "url": "https://www.viamala.ch", "image": "https://viatpimtsoch.sos-ch-dk-2.exoscale-cdn.com/catalog/f/e/c/e/fece88a65db7d2aaaa90bb2732119893a1baad80_patrutgsee_oberurmein_sommer_viamala_tourismus.jpg", "openstreetmap_id": "way/38415016"}, "geometry": {"type": "Point", "coordinates": ["9.384797", "46.702105"]}}, {"type": "Feature", "properties": {"identifier": "ac5b2b78-529e-4c69-9254-564fec503e52", "name": "Pascuminersee", "description": "<p>Der auf 1959 m \u00fc. M. gelegene Pascuminersee hat einen unterirdischen Zufluss. Die Wassertemperaturen sind bei heissem Sommerwetter \u00e4usserst angenehm. Vom Pascuminersee haben Sie eine atemberaubende Aussicht auf den Hausberg Piz Beverin sowie ins Domleschg und in die faszinierende Bergwelt Graub\u00fcndens.</p><p><span style=\"font-weight: bold;\">Summerbeizli Alp Bischola<br></span>F\u00fcnf Gehminuten oberhalb der beiden Bergseen befindet sich das Alpbeizli <a href=\"https://www.maps.viamala.ch/s/GEff4\" target=\"_blank\">Hirtinnenbeizli&nbsp;Alp Bischola</a>.</p>", "url": "https://www.viamala.ch", "image": "https://viatpimtsoch.sos-ch-dk-2.exoscale-cdn.com/catalog/2/8/1/2/2812b3988055f96d12515cd0d2b182f2f23fd898_Pascuminersee_Heinzenberg_Herbst.jpg", "openstreetmap_id": "way/37145075"}, "geometry": {"type": "Point", "coordinates": ["9.359782719156971", "46.70563758577499"]}}, {"type": "Feature", "properties": {"identifier": "acfbb897-2294-41e5-8388-bf16b156449d", "name": "Leseb\u00e4nkli Masein", "description": "<p>Von unserem B\u00fccherhorst aus hat man zwar eine wunderbare Aussicht auf \ndie Berge, trotzdem lohnt es sich, die B\u00fccherkiste zu \u00f6ffnen und aus den\n Reihen der B\u00fccher eines auszuw\u00e4hlen. Es gibt Romane, Kurzgeschichten \nund B\u00fccher mit Gedichten. Auch f\u00fcr Kinder hat es Lesestoff und \nBilderb\u00fccher. Wenn man ein Buch gerne zu Ende lesen m\u00f6chte, kann man es \ngetrost nach Hause nehmen und nach der Lekt\u00fcre zur\u00fcckbringen.<br></p>", "url": "https://maseinerfrauen.wordpress.com", "image": "https://viatpimtsoch.sos-ch-dk-2.exoscale-cdn.com/catalog/b/6/4/e/b64e1e4fe7bb5ca82bc8faa4ed8c1e1ada211483_lesebaenkli_masein_viamala_tourismus.jpg", "openstreetmap_id": "node/12097086175"}, "geometry": {"type": "Point", "coordinates": ["9.42453682422638", "46.70283859175896"]}}, {"type": "Feature", "properties": {"identifier": "b48cd378-ef45-4081-8e32-febefb95135b", "name": "Dreib\u00fcndenstein", "description": "<p>Vor Ort steht eine 1915 von der Sektion Rh\u00e4tia des Schweizerischen Alpenclubs errichtete Stele. Der urspr\u00fcngliche Grenzstein von 1722 ist im <a href=\"https://raetischesmuseum.gr.ch/\" target=\"_blank\">R\u00e4tischen Museum</a> in Chur ausgestellt. Die heutige Stele tr\u00e4gt die drei Wappen der historischen B\u00fcnde. Hier trafen sich der Graue Bund mit der damaligen Gerichtsgemeinde Rh\u00e4z\u00fcns, der Gotteshausbund (Schloss Ortenstein) und der Zehngerichtenbund (Gerichtsgemeinde Churwalden).<br>Der Kulminationspunkt markiert die Grenzen der heutigen Gemeinden Churwalden (bis 2009 Malix), Domleschg (bis 2010 Feldis) und Domat/Ems. Der Dreib\u00fcndenstein und seine westlich gelegene Hochebene sind aus jeder Richtung \u00fcber Wanderwege (Schwierigkeitsgrad T2, ausser von Pargitsch und St\u00e4tzerhorn: T3) erreichbar.</p><p><span style=\"font-weight: bold;\">Schneeschuh-Arena Dreib\u00fcndenstein</span><br>Die Schneeschuh-Arena Dreib\u00fcndenstein liegt im Herzen der Regionen Viamala, Chur und Lenzerheide. Sie verbindet die drei Wintersportgebiete Feldis, Brambr\u00fcesch und Pradaschier f\u00fcr Schneeschuhwanderer. Vorbildlich signalisierte Schneeschuh-Routen f\u00fchren ab den drei Stationen zur Hochebene Dreib\u00fcndenstein, wodurch sich tolle M\u00f6glichkeiten fu\u0308r abwechslungsreiche Schneeschuh-Rundtouren er\u00f6ffnen.</p><ul><li><a href=\"https://www.chur.graubuenden.ch/de/aktivitaeten/winter/schneeschuh-arena-dreibuendenstein\" target=\"_blank\">Zur Schneeschuh-Arena</a></li></ul><p><span style=\"font-weight: bold;\"><br>Rundwanderungen Dreib\u00fcndenstein</span><br>Die Wanderregion zwischen den drei Gebieten Chur-Brambr\u00fcesch, Feldis und Pradaschier ist gepr\u00e4gt von der malerischen Hochebene rund um den Dreib\u00fcndenstein. Die abwechslungsreichen Rundwanderungen bestechen durch ein fantastisches 360\u00b0 Panorama und erm\u00f6glichen unvergleichliche Wandererlebnisse. In den attraktiven Rundreise-Tickets sind alle Bergbahnen und auch die R\u00fcckreise mit dem \u00d6V inklusive.</p><ul><li><a href=\"https://www.chur.graubuenden.ch/de/aktivitaeten/sommer/dreibuendenstein-rundwanderungen\" target=\"_blank\">Rundwanderungen entdecken</a><br></li></ul><p><br><span style=\"font-weight: bold;\">Absturzstelle Lady Patricia<br></span>Am 16. November 1944 st\u00fcrzte der amerikanische B24-Bomber \u201eLady Patricia\u201c n\u00f6rdlich des Dreib\u00fcndensteins unterhalb des Furggab\u00fcels ab, im Grenzgebiet zwischen Malix und Domat/Ems. Der Bomber war auf dem R\u00fcckflug von einer Bombardierung in M\u00fcnchen nach S\u00fcditalien, wo er stationiert war. Alle zw\u00f6lf Besatzungsmitglieder konnten die Maschine vor dem Aufprall mit dem Fallschirm verlassen und landeten unverletzt. Nach ihrer Rettung wurden die M\u00e4nner in Adelboden interniert. Der Absturz wurde durch Besch\u00e4digungen durch deutsche Gesch\u00fctze verursacht. Der Name \u201eLady Patricia\u201c bezog sich auf die kleine Tochter des Piloten Daryl R. Mason, der die Maschine normalerweise flog. Da er an jenem Tag krank war, flog sein Ersatzpilot Doyle R. Smith das Flugzeug.<br>Anl\u00e4sslich des 60. Jahrestages wurde 2004 an der Absturzstelle auf dem Wanderweg nach Feldis ein Gedenkstein enth\u00fcllt, in Anwesenheit der namensgebenden Pilotentochter Patricia Mason Freel.<br>Im Actionbound kann Wissenswertes \u00fcber \u00abThe Lady Patricia\u00bb, \u00fcber ihre Besatzung, ihre Mission und \u00fcber ihren Absturz erfahren werden. Tauche ein in ein faszinierende Kapitel der Lokalgeschichte.</p><ul><li><a href=\"https://de.actionbound.com/bound/lady-patricia\" target=\"_blank\">Zum Actionbound</a><br></li></ul>", "url": "https://www.viamala.ch", "image": "https://viatpimtsoch.sos-ch-dk-2.exoscale-cdn.com/catalog/a/0/4/f/a04f72e1f6c2d52a333fb34a8d383f94a4e094bf_dreibuendenstein.jpg", "openstreetmap_id": "node/242664544"}, "geometry": {"type": "Point", "coordinates": ["9.497196", "46.800826"]}}, {"type": "Feature", "properties": {"identifier": "b5c662c0-6525-413a-a0ba-485406af5d5d", "name": "KHR & Staumauer Valle di Lei", "description": "<p>Die Staumauer des Valle di Lei liegt auf Schweizer Gebiet, der See bereits in Italien. Von der Mauerkrone aus hat man einen imposanten Blick auf den ewigen Schnee des Pizzo Stella und des Piz Grisch. Die Anlage Valle di Lei geh\u00f6rt zur dreistufigen Kraftwerksgruppe mit den Zentralen Ferrera, B\u00e4renburg und Sils. Pro Jahr werden rund 1'410 Mio. kWh Strom produziert. Direkt bei der Staumauer Valle di Lei befindet sich ein \u00f6ffentlich zug\u00e4ngliches Inforama der Kraftwerke Hinterrhein AG. Hier sind die einzelnen Stufen der gesamten Anlage verst\u00e4ndlich dokumentiert. Zus\u00e4tzlich wird viel Wissenswertes \u00fcber die Stromproduktion vermittelt.</p><p><span style=\"font-weight: bold;\">Gef\u00fchrte Staumauer-Besichtigung Valle di Lei</span><br>Im Juli und August jeweils am Dienstag-Nachmittag. Anmeldung erforderlich bis 16.00 Uhr am Vorabend an G\u00e4steinformation Viamala, Tel. <a href=\"tel:+41816509030\">+41 81 650 90 30</a>. Treffpunkt: 14.00 Uhr beim KHR-Inforama Valle di Lei. Dauer ca. 1.5 \u2013 2 Stunden. Kostenlos. Gute Schuhe und warme Jacke erforderlich. Begrenzte Anzahl Teilnehmer. F\u00fcr Gruppen nach Vereinbarung. Anmeldung via <a href=\"https://www.khr.ch/de/fuehrungen\" target=\"_blank\">Online-Formular</a>.</p>", "url": "https://www.khr.ch", "image": "https://viatpimtsoch.sos-ch-dk-2.exoscale-cdn.com/catalog/a/9/0/d/a90d22ec97663e046455b679a9b3c0673cc87f2d_staumauer_valle_di_lei.jpg", "openstreetmap_id": "way/365808667"}, "geometry": {"type": "Point", "coordinates": ["9.456771", "46.48363"]}}, {"type": "Feature", "properties": {"identifier": "b9b78422-571d-4c1f-a327-309bf4527299", "name": "Almens", "description": "<p>Almens geh\u00f6rt seit 1.1.2015 zur Gemeinde Domleschg. Es liegt auf 790 m \u00fc.M. und z\u00e4hlt rund 220 Einwohner.</p>\n<ul>\n<li><a href=\"http://www.domleschg.ch/\">Website Gemeinde Domleschg</a></li>\n<li><a href=\"http://www.hls-dhs-dss.ch/textes/d/D1471.php\">Link zum historischen Lexikon der Schweiz</a></li>\n<li><a href=\"http://shop.graubuenden.ch/Viamala/ukv/?date_unknown=1&amp;doSearch=1&amp;locationIDs[]=TDS00020010346546205&amp;globalReset=1&amp;persistentParameters=1&amp;lang=de\">Unterk\u00fcnfte in Almens</a></li>\n</ul>", "url": "https://www.domleschg.ch", "image": "https://viatpimtsoch.sos-ch-dk-2.exoscale-cdn.com/catalog/1/0/c/5/10c50d89b6a616f1d994f973c75d337994d6907d_almens_dorf_freuhling_sommer_demateo.jpg", "openstreetmap_id": "node/1285022533"}, "geometry": {"type": "Point", "coordinates": ["9.454479", "46.738029"]}}, {"type": "Feature", "properties": {"identifier": "bafa2abf-535d-407c-be97-c5dbe09da4b8", "name": "7438 Hinterrhein", "description": "<div>Das Passdorf Hinterrhein liegt auf 1\u2019624 m \u00fc.M. Meer und z\u00e4hlt rund 60 Einwohner. Per 1. Januar 2019 bildet Hinterrhein mit Nufenen, Medels und Spl\u00fcgen die Gemeinde Rheinwald.</div><div><br></div><ul><li><a href=\"https://www.rheinwald.ch/\">Website Gemeinde Rheinwald</a></li><li><a href=\"http://www.hls-dhs-dss.ch/textes/d/D1496.php\">Link zum historischen Lexikon der Schweiz</a></li>\n<li><a href=\"http://shop.graubuenden.ch/Viamala/ukv/?date_unknown=1&amp;doSearch=1&amp;locationIDs[]=TDS00020010346589183&amp;globalReset=1&amp;persistentParameters=1&amp;lang=de\">Unterk\u00fcnfte in Hinterrhein</a></li>\n</ul>", "image": "https://viatpimtsoch.sos-ch-dk-2.exoscale-cdn.com/catalog/7/1/b/5/71b5a70df1f4184ae3e5164c8dd1f0962afe7d77_hinterrhein_im_winter.jpg", "openstreetmap_id": "node/4429021370"}, "geometry": {"type": "Point", "coordinates": ["9.199219", "46.530755"]}}, {"type": "Feature", "properties": {"identifier": "bbe176c2-9974-447f-982e-2ad2625ec204", "name": "Medels im Rheinwald", "description": "<p>Das beschauliche Dorf Medels liegt 1559 m \u00fc.M. und z\u00e4hlt 40 Einwohner. Seit 2006 ist Medels Teil der Gemeinde Spl\u00fcgen, seit 1. Januar 2019 geh\u00f6rt es zur neuen Gemeinde Rheinwald.</p>\n<ul>\n<li><a href=\"https://www.rheinwald.ch/\">Website Gemeinde Rheinwald</a></li>\n<li><a href=\"http://www.hls-dhs-dss.ch/textes/d/D1497.php\">Link zum historischen Lexikon der Schweiz</a></li>\n<li><a href=\"http://shop.graubuenden.ch/Viamala/ukv/?date_unknown=1&amp;doSearch=1&amp;locationIDs[]=TDS00020010346590094&amp;globalReset=1&amp;persistentParameters=1&amp;lang=de\">Unterk\u00fcnfte in Medels im Rheinwald</a></li>\n</ul>", "url": "https://www.rheinwald.ch", "image": "https://viatpimtsoch.sos-ch-dk-2.exoscale-cdn.com/catalog/b/e/1/9/be19498dac74fe6baed0c70ccd0bb09331a66fbb_medels_im_rheinwald_sommer_markus_mueller.jpg", "openstreetmap_id": "node/7963871606"}, "geometry": {"type": "Point", "coordinates": ["9.29638", "46.548353"]}}, {"type": "Feature", "properties": {"identifier": "bc225367-912e-4bcf-a4ed-ede5317f80c0", "name": "Masein", "description": "<p>Masein liegt am Fusse des inneren Heinzenbergs auf 865 m \u00fc.M. und z\u00e4hlt rund 480 Einwohner.</p>\n<ul>\n<li><a href=\"https://www.masein.ch/\">Website Gemeinde Masein</a></li>\n<li><a href=\"http://www.hls-dhs-dss.ch/textes/d/D1487.php\">Link zum historischen Lexikon der Schweiz</a></li>\n<li><a href=\"http://shop.graubuenden.ch/Viamala/ukv/?date_unknown=1&amp;doSearch=1&amp;locationIDs[]=TDS00020010141062041&amp;globalReset=1&amp;persistentParameters=1&amp;lang=de\">Unterk\u00fcnfte in Masein</a></li>\n</ul>", "url": "https://www.masein.ch", "image": "https://viatpimtsoch.sos-ch-dk-2.exoscale-cdn.com/catalog/9/e/e/3/9ee31312b1b0481e415c4c693c580e34c31c1485_masein_dorf_sommer_heinzenberg_viamala_tourismus.jpg", "openstreetmap_id": "relation/1684114"}, "geometry": {"type": "Point", "coordinates": ["9.426726", "46.702379"]}}, {"type": "Feature", "properties": {"identifier": "c0427bad-4d84-40b8-a674-a81e23794b27", "name": "Scheid", "description": "<p>Scheid geh\u00f6rt seit 1.1.2015 zur Gemeinde Domleschg. Es liegt auf 1\u2019220 m \u00fc.M. und z\u00e4hlt rund 150 Einwohner.</p>\n<ul>\n<li><a href=\"http://www.domleschg.ch/\">Website der Gemeinde Domleschg</a></li>\n<li><a href=\"http://www.hls-dhs-dss.ch/textes/d/D1479.php\">Link zum historischen Lexikon der Schweiz</a></li>\n<li><a href=\"http://shop.graubuenden.ch/Viamala/ukv/?date_unknown=1&amp;doSearch=1&amp;locationIDs[]=TDS00020010527381530&amp;globalReset=1&amp;persistentParameters=1&amp;lang=de\">Unterk\u00fcnfte im Domleschg</a></li>\n</ul>", "url": "https://www.domleschg.ch", "image": "https://viatpimtsoch.sos-ch-dk-2.exoscale-cdn.com/catalog/3/3/9/0/3390ac239359d517caa5016470041e46e1bd0f83_scheid_dorf_sommer_domleschg_piz_beverin_heinzenberg_demateo.jpg", "openstreetmap_id": "node/242666210"}, "geometry": {"type": "Point", "coordinates": ["9.448273", "46.776949"]}}, {"type": "Feature", "properties": {"identifier": "c267ed29-52b9-4994-beb0-641f664e7b65", "name": "Lohn", "description": "<p>Lohn liegt am Schamserberg auf 1\u2019585 m \u00fc.M. und z\u00e4hlt rund 45 Einwohner. Das Dorfbild wird von der reformierten Kirche mit ihren zwei Kircht\u00fcrmen gepr\u00e4gt.</p>\n<ul>\n<li><a href=\"https://www.mdschons.ch/\">Website Gemeinde Muntogna da Schons</a></li>\n<li><a href=\"http://www.hls-dhs-dss.ch/textes/d/D1507.php\">Link zum historischen Lexikon der Schweiz</a></li>\n<li><a href=\"http://shop.graubuenden.ch/Viamala/ukv/?date_unknown=1&amp;doSearch=1&amp;locationIDs[]=TDS00020010346589440&amp;globalReset=1&amp;persistentParameters=1&amp;lang=de\">Unterk\u00fcnfte in Lohn</a></li>\n</ul>", "url": "https://mdschons.ch", "image": "https://viatpimtsoch.sos-ch-dk-2.exoscale-cdn.com/catalog/7/b/9/6/7b96a9b83c54dfcc64426776d6df2812cdfbaf83_lohn_schamserberg_sommer_demateo.jpg", "openstreetmap_id": "relation/1684103"}, "geometry": {"type": "Point", "coordinates": ["9.427462", "46.651399"]}}, {"type": "Feature", "properties": {"identifier": "c2784aa8-78a6-4d07-b6fe-ec46e493d7ed", "name": "Verlorna Loch", "description": "<p>Sieben Jahre sp&auml;ter war die 120 Kilometer lange Strasse fertig gebaut. Sie sollte es nach damaliger Berechnung erm&ouml;glichen, in 28 Wegstunden von Chur nach Bellinzona zu gelangen. Durch die Viamala f&uuml;hrte diese Kommerzialstrasse stellenweise auf einem neuen, entsprechend schnelleren Weg - nicht mehr &uuml;ber Oberrongellen, sondern direkt durch das Verlorna Loch. Der Gehilfe Pocobellis, der sp&auml;tere Kantonsingenieur Richard La Nicca, sprengte hier einen Tunnel durch den Fels. Oder besser gesagt: Er liess sprengen. Richard La Nicca sah dem explosiven Spektakel 1820 w&auml;hrend seiner Hochzeitsfeier auf Hohen R&auml;tien zu.</p>\n<h4>Gef&uuml;hrte Wanderungen durch das Verlorna Loch</h4>\n<p>Der Streckenabschnitt zwischen Thusis und Rongellen ist ein Meisterwerk des fr&uuml;hen Strassenbaues von 1818 - 1823. Auf den gef&uuml;hrten Wanderungen erfahren Sie vieles &uuml;ber die ausserordentliche Ingenieurleistung der damaligen Zeit und wie es m&ouml;glich war an einem so speziellen Ort die Strasse zu erbauen.</p>\n<ul>\n<li><a href=\"https://viamala.ch/de/map/poi/guida-viamala-gefuhrte-wanderung-durch-das-verlorna-loch-ac70c387-4a09-4aa3-9295-6b8da53ad37a.html\" target=\"_blank\" rel=\"noopener\">Weitere Informationen zum Angebot</a></li>\n</ul>\n<h4>Die Rettung vom Verlorna Loch</h4>\n<p>Der spektakul&auml;rste Abschnitt der Commercialstrasse von 1823 w&auml;re fast&hellip; s&rsquo;Loch ab&hellip;&nbsp;Es kam anders, mit baulichen Sofortmassnahmen gelang es die &laquo;L&ouml;cher&raquo; zu stopfen!</p>\n<ul>\n<li><a href=\"https://www.naturpark-beverin.ch/de/verlorenesloch\" target=\"_blank\" rel=\"noopener\">Weitere Informationen zur Rettungsaktion</a></li>\n</ul>", "url": "https://www.viamala.ch", "image": "https://viatpimtsoch.sos-ch-dk-2.exoscale-cdn.com/catalog/7/7/2/f/772f959d6256787099fab416228ad12400b90769_verlorna_loch_rongellen_thusis_viamala_tourismus.jpg", "openstreetmap_id": "way/105664814"}, "geometry": {"type": "Point", "coordinates": ["9.451914999999985", "46.680195"]}}, {"type": "Feature", "properties": {"identifier": "c4c63744-266b-4af0-9ffe-d7d0dabd3c83", "name": "Libi", "description": "Bei&nbsp; Trockenheit beachten Sie bitte allf\u00e4llige Feuerverbote! Im Hochsommer kann es vorkommen, dass der See austrocknet.", "url": "https://www.viamala.ch", "image": "https://viatpimtsoch.sos-ch-dk-2.exoscale-cdn.com/catalog/e/e/2/1/ee216468c561a693d66ff7b18a4dc43dae84dbaa_libi_see_lohn_schamserberg_sommer_demateo.com.jpg", "openstreetmap_id": "way/319955741"}, "geometry": {"type": "Point", "coordinates": ["9.40233930143529", "46.65144352725643"]}}, {"type": "Feature", "properties": {"identifier": "c55cf7fe-86b9-4f72-87ab-d4beb7eaf5cf", "name": "Rofflaschlucht", "description": "<p>Anfangs des 20. Jahrhunderts kehrte der Amerika- Auswanderer Christian Pitschen-Melchior in seine alte Heimat zur&uuml;ck. Er &uuml;bernahm von seinen Eltern den Gastbetrieb Rofflaschlucht. Durch die Niagara-F&auml;lle inspiriert, setzten sich Christian und seine Familie das Ziel, den Wasserfall in der Rofflaschlucht als Touristenattraktion zu erschliessen und damit das &Uuml;berleben der Familie zu sichern.</p><p>So begann er 1907, sich einen Weg in die Schlucht zu bahnen. Sieben Jahre arbeitete er an seinem Werk. Viel Ausdauer und Kraft waren n&ouml;tig, um die Sprengl&ouml;cher in den harten Stein zu schlagen. Nach 8000 Sprengungen hatte er es geschafft. Der Wasserfall im Zentrum der Schlucht konnte &uuml;ber die neu erschaffene Felsengalerie erreicht werden. Damals wie heute ist die Unterquerung des tosenden Rheins ein eindr&uuml;ckliches Erlebnis. Am Eingang zur Rofflaschlucht befindet sich das historische Gasthaus mit Restaurant und einem kleinen Museum, welches die spannende Entstehungsgeschichte dokumentiert.</p>", "url": "https://rofflaschlucht.ch", "image": "https://viatpimtsoch.sos-ch-dk-2.exoscale-cdn.com/catalog/0/8/4/5/0845ba66be62b31480071a64a295e2a88833ab51_rofflaschlucht_wasserfall_sommer_schams_rheinwald_gravel_and_road_grf_tolisart.com.jpg", "openstreetmap_id": "node/60626538"}, "geometry": {"type": "Point", "coordinates": ["9.421252", "46.581913"]}}, {"type": "Feature", "properties": {"identifier": "c6699280-8176-40e0-a574-fff415427b5f", "name": "Sarn", "description": "<p>Sarn geh\u00f6rt seit 1.1.2010 zur Gemeinde Cazis. Es liegt am \u00e4usseren Heinzenberg auf 1150 m \u00fc.M. und z\u00e4hlt rund 140 Einwohner.</p>\n<ul>\n<li><a href=\"https://www.cazis.ch/\">Website Gemeinde Cazis</a></li>\n<li><a href=\"http://www.hls-dhs-dss.ch/textes/d/D1490.php\">Link zum historischen Lexikon der Schweiz</a></li>\n<li><a href=\"http://shop.graubuenden.ch/Viamala/ukv/?date_unknown=1&amp;doSearch=1&amp;locationIDs[]=TDS00020010346594091&amp;globalReset=1&amp;persistentParameters=1&amp;lang=de\">Unterk\u00fcnfte in Sarn</a></li>\n</ul>", "url": "https://www.cazis.ch", "image": "https://viatpimtsoch.sos-ch-dk-2.exoscale-cdn.com/catalog/9/d/1/1/9d1150202fb4935ffc718562393deecd00c4019a_sarn_heinzenberg_fruehling_demateo.jpg", "openstreetmap_id": "node/298208242"}, "geometry": {"type": "Point", "coordinates": ["9.409829", "46.719625"]}}, {"type": "Feature", "properties": {"identifier": "c71f8f69-9baf-421f-b2c2-0fa68d1e99bd", "name": "Feldis", "description": "<p>Feldis ist der n\u00f6rdlichst gelegene Ort in der Region Viamala und geh\u00f6rt seit 1.1.2015 zur Gemeinde Domleschg. Es liegt auf 1470 m \u00fc.M. und z\u00e4hlt rund 130 Einwohner.</p>\n<ul>\n<li><a href=\"http://www.domleschg.ch/\">Website der Gemeinde Domleschg</a></li>\n<li><a href=\"http://www.hls-dhs-dss.ch/textes/d/D1472.php\">Link zum historischen Lexikon der Schweiz</a></li>\n<li><a href=\"http://shop.graubuenden.ch/Viamala/ukv/?date_unknown=1&amp;doSearch=1&amp;locationIDs[]=WBX00020010000140245&amp;globalReset=1&amp;persistentParameters=1&amp;lang=de\">Unterk\u00fcnfte in Feldis</a></li>\n</ul>", "url": "https://www.domleschg.ch", "image": "https://viatpimtsoch.sos-ch-dk-2.exoscale-cdn.com/catalog/c/f/9/0/cf90060e4c425a8077ae07d8b7634155d2123985_feldis_dorf_im_sommer_demateo.jpg", "openstreetmap_id": "node/240035995"}, "geometry": {"type": "Point", "coordinates": ["9.43648", "46.793767"]}}, {"type": "Feature", "properties": {"identifier": "cbcdd115-9a09-4eed-b42b-b0eda56e190e", "name": "Rodels", "description": "<p>Rodels geh\u00f6rt seit 1.1.2015 zur Gemeinde Domleschg. Es liegt auf 680 m \u00fc.M. und z\u00e4hlt rund 270 Einwohner.</p>\n<ul>\n<li><a href=\"http://www.domleschg.ch/\">Website Gemeinde Domleschg</a></li>\n<li><a href=\"http://www.hls-dhs-dss.ch/textes/d/D1476.php\">Link zum historischen Lexikon der Schweiz</a></li>\n<li><a href=\"http://shop.graubuenden.ch/Viamala/ukv/?date_unknown=1&amp;doSearch=1&amp;locationIDs[]=TDS00020010346593211&amp;globalReset=1&amp;persistentParameters=1&amp;lang=de\">Unterk\u00fcnfte in Rodels</a></li>\n</ul>", "url": "https://www.domleschg.ch", "image": "https://viatpimtsoch.sos-ch-dk-2.exoscale-cdn.com/catalog/b/9/5/c/b95ceae94f55c7b7bbc5bade790365f3261a7ee9_rodels_dorf_sommer_adrian_michael.jpg", "openstreetmap_id": "node/240044148"}, "geometry": {"type": "Point", "coordinates": ["9.44297", "46.734381"]}}, {"type": "Feature", "properties": {"identifier": "d441645d-ca39-4d7a-bf50-36f26f591fdc", "name": "Bischolsee", "description": "<p><span style=\"font-weight: bold;\">Wichtig:</span> Bitte halten Sie sich an das Badeverbot! Wenige Schritte entfernt liegt der <a href=\"https://www.maps.viamala.ch/de/poi/see/pascuminersee/24147371/\" target=\"_blank\" rel=\"noopener\">Pascuminersee</a>, der sich f\u00fcr eine Abk\u00fchlung eignet.</p>\n<p><span style=\"font-weight: bold;\">Hirtinnenbeizli Alp Bischola</span><br>F\u00fcnf Gehminuten oberhalb der beiden Bergseen befindet sich das Alpbeizli <a href=\"https://www.maps.viamala.ch/s/GEff4\" target=\"_blank\" rel=\"noopener\">Hirtinnenbeizli&nbsp;Alp Bischola</a>.</p>", "url": "https://www.viamala.ch", "image": "https://viatpimtsoch.sos-ch-dk-2.exoscale-cdn.com/catalog/1/4/0/a/140af4776314646f155d64ccadaa894a6559f03c_bischolsee_heinzenberg_piz_beverin_sommer_herbst_demateo.com.jpg", "openstreetmap_id": "way/232477305"}, "geometry": {"type": "Point", "coordinates": ["9.358130677041231", "46.70650073575445"]}}, {"type": "Feature", "properties": {"identifier": "de2c844f-93ad-43ab-9d2e-ae7be3af4055", "name": "Tschappina", "description": "<p>Die einzige Walsergemeinde am Heinzenberg ist ein Streudorf und liegt zwischen 1'400 und 1'850 m \u00fc.M. am Glaspass.</p>\n<ul>\n<li><a href=\"https://www.tschappina.ch/\">Website Gemeinde Tschappina</a></li>\n<li><a href=\"http://www.hls-dhs-dss.ch/textes/d/D1493.php\">Link zum historischen Lexikon der Schweiz</a></li>\n<li><a href=\"http://shop.graubuenden.ch/Viamala/ukv/?date_unknown=1&amp;doSearch=1&amp;locationIDs[]=TDS00020010347148158&amp;globalReset=1&amp;persistentParameters=1&amp;lang=de\">Unterk\u00fcnfte in Tschappina</a></li>\n</ul>", "url": "https://www.tschappina.ch/", "image": "https://viatpimtsoch.sos-ch-dk-2.exoscale-cdn.com/catalog/b/9/c/7/b9c789d784aafec95e60adde16f6c3f6af3837e9_glaser_grat_glaspass_heinzenberg_herbst_sonnenuntergang_long_nong_huang.jpg", "openstreetmap_id": "relation/1684194"}, "geometry": {"type": "Point", "coordinates": ["9.375927", "46.686777"]}}, {"type": "Feature", "properties": {"identifier": "e1672f91-c34c-493a-a415-5bf62b06928d", "name": "Fl\u00fceseen", "description": "Das Bergpanorama ist traumhaft und die Bergseen bezaubernd.", "url": "https://www.viamala.ch", "image": "https://viatpimtsoch.sos-ch-dk-2.exoscale-cdn.com/catalog/2/4/a/e/24ae363186830ef946e0ff2a695d350e99a7fcfc_flueseen_avers_herbst_viamala_demateo.com.jpg", "openstreetmap_id": "way/233961267"}, "geometry": {"type": "Point", "coordinates": ["9.590823383412726", "46.45403394404385"]}}, {"type": "Feature", "properties": {"identifier": "e42551b6-63aa-4c3e-8119-8b802dec8132", "name": "Avers", "description": "<p>Die Gemeinde liegt im Hochtal Avers und umfasst 8 Fraktionen. Sie liegt zwischen 1\u2019670 und 2\u2019126 m \u00fc.M. und z\u00e4hlt rund 180 Einwohner.</p>\n<ul>\n<li><a href=\"https://gemeindeavers.ch/\">Website Gemeinde Avers</a></li>\n<li><a href=\"http://www.hls-dhs-dss.ch/textes/d/D1495.php\">Link zum historischen Lexikon der Schweiz</a></li>\n<li><a href=\"http://shop.graubuenden.ch/Viamala/ukv/?date_unknown=1&amp;doSearch=1&amp;locationIDs[]=TDS00020010527381509&amp;globalReset=1&amp;persistentParameters=1&amp;lang=de\">Unterk\u00fcnfte in Avers/Ferrera</a></li>\n</ul>", "url": "https://gemeindeavers.ch", "image": "https://viatpimtsoch.sos-ch-dk-2.exoscale-cdn.com/catalog/e/f/f/a/effa0ca1e1fd57e2410d71ebbe2a0a4c35428d05_avers_juf_sommer_demateo.jpg", "openstreetmap_id": "relation/1684043"}, "geometry": {"type": "Point", "coordinates": ["9.512991", "46.472851"]}}, {"type": "Feature", "properties": {"identifier": "e4fd03e4-484e-4df3-8a42-5abdf4466bc7", "name": "Canyoning Viamala", "description": "<p>Viamala Canyoning ist nicht das typische Canyoning-Abenteuer. Es ist ein echtes Naturerlebnis der Extraklasse. Beim Viamala Canyoning gibt es keine atemberaubenden Wasserf\u00e4lle, welche man runterspringt. Vielmehr \u00f6ffnet sich hier die Viamala-Schlucht dem Besucher von einer v\u00f6llig unbekannten Seite. W\u00e4hrend Millionen von Jahren wurde das beeindruckende Naturmonument der Viamala-Schlucht in den massiven Fels geschliffen. Bis zu 300 Meter hohe Felsw\u00e4nde ragen in den Himmel und ganz unten fliesst der junge Rhein. Und genau hier schwimmen Sie durch die Felsenenge und entdecken, was dem Besucher der Schlucht normalerweise verborgen bleibt.</p><p><span style=\"font-weight: bold;\">Anbieter und Sicherheit</span><br>Sicherheit wird grossgeschrieben:&nbsp;Das Naturerlebnis Canyoning Viamala wird durch speziell ausgebildete Fachleute von Swissraft&nbsp;und&nbsp;Swiss River Adventures&nbsp;durchgef\u00fchrt. Die Unternehmen&nbsp;sind gem\u00e4ss den Richtlinien&nbsp;der Beratungsstelle f\u00fcr Unfallverh\u00fctung BFU&nbsp;sicherheitszertifiziert und b\u00fcrgen f\u00fcr Sicherheit und Qualit\u00e4t.</p><ul><li><a href=\"https://www.swissraft.ch/canyoning/graubunden/viamala-schlucht-43\" target=\"_blank\">Zum Angebot von Swissraft</a></li><li><a href=\"https://swissriveradventures.ch/canyoning-tour/canyoning-viamala-halbtagestour/\" target=\"_blank\">Zum Angebot von Swiss River Adventure</a><br><br></li></ul><p><span style=\"font-weight: bold;\">Was es braucht<br></span>Canyoning in der Viamala ist keine wilde Action, daf\u00fcr umso mehr pures Naturerlebnis f\u00fcr alle, welche keine Angst vor Wasser haben. Das Mindestalter ist 14 Jahre in Begleitung Erwachsener. Das Viamala-Canyoning dauert rund 3-4 Stunden. Treffpunkt ist beim <a href=\"https://maps.app.goo.gl/Jv9b5yhK5sseZYXLA\" target=\"_blank\">ehemaligen Restaurant zur alten Post in Rongellen</a>. Die Canyoning-Ausr\u00fcstung wird zur Verf\u00fcgung gestellt.</p><p><span style=\"font-weight: bold;\">Durchf\u00fchrung<br></span>Ca. Mitte Mai (je nach Wasserlevel) bis September. F\u00fcr Gruppen ab vier Personen t\u00e4glich auf Anfrage. F\u00fcr Einzelpersonen und Kleingruppen Donnerstag und Sonntag sowie an einzelnen weiteren Tagen.</p>", "url": "https://viamala.ch", "image": "https://viatpimtsoch.sos-ch-dk-2.exoscale-cdn.com/catalog/6/5/4/0/654050d69437873799ef4d23c88fd094fcbc18bd_canyoning_viamala_schlucht_switzerland_tourism_ivo_scholz.jpg", "openstreetmap_id": "node/12131365364"}, "geometry": {"type": "Point", "coordinates": ["9.447504", "46.663276"]}}, {"type": "Feature", "properties": {"identifier": "e5922677-980e-44ad-a1bf-766de5912efb", "name": "Lai Ner", "description": "Der dunkle Seeboden und die umliegenden Tannen lassen das Wasser fast schwarz erscheinen. Im Hochsommer kann es sein, dass der See ganz ausgetrocknet ist.", "url": "https://www.viamala.ch", "image": "https://viatpimtsoch.sos-ch-dk-2.exoscale-cdn.com/catalog/f/2/9/1/f291b53a101b5660b8513cc2dc7b62ad160d9938_lai_ner_sommer_schamserberg_demateo.com.jpg", "openstreetmap_id": "way/323732480"}, "geometry": {"type": "Point", "coordinates": ["9.401155783984791", "46.5872963332419"]}}, {"type": "Feature", "properties": {"identifier": "ec224e0d-b473-42d6-af29-ea01e05ad195", "name": "Lai Grand und Moorlandschaft", "description": "Die umliegende Moorlandschaft ist eine von 89 Schweizer Moorlandschaften, die zum Inventar der Moorlandschaften von besonderer Sch\u00f6nheit und nationaler Bedeutung geh\u00f6ren. Steigt man weiter talw\u00e4rts, passiert man die Alp Nurdagn. Hier darf pausiert werden, die hiesige Alpbeiz bietet einfache, regionale Gerichte. Die Gegend um die Alp Anarosa wird zudem vom Bus Alpin ab der auf 2300 m \u00fc. M. gelegenen Haltestelle Tguma (nach Wergenstein) bedient.", "url": "https://www.viamala.ch", "image": "https://viatpimtsoch.sos-ch-dk-2.exoscale-cdn.com/catalog/1/b/4/1/1b4172a8ad5abd0ec8a0a4d406be0cf4dde7b1c8_lai_grand_und_moorlandschaft_anarosa_schamserberg_viamala_sommer.jpg", "openstreetmap_id": "way/319356458"}, "geometry": {"type": "Point", "coordinates": ["9.3296794492137", "46.6072265939652"]}}, {"type": "Feature", "properties": {"identifier": "ed3d3978-3bc7-4cbd-ab6d-3c1b441f1605", "name": "Bergbau-Erlebnisse im Schams", "description": "<p>Es kann jedoch davon ausgegangen werden, dass die Menschen schon viel fr\u00fcher die Erzvorkommen nutzten. Damals suchte man vor allem nach sogenannten Buntmetallen (Blei, Silber und Kupfererz) aber auch nach Eisenerzvorkommen. Einige Stollen, Abbauhalden und \u00dcberreste der Verarbeitungsanlagen und Schmelz\u00f6fen sind als stumme Zeugen dieser l\u00e4ngst vergangenen Zeiten bis heute erhalten geblieben. Der Verein Erzminen Hinterrhein sorgt daf\u00fcr, dass diese im Bergbaumuseum in Innerferrera und auf gef\u00fchrten Exkursionen wieder entdeckt werden k\u00f6nnen.</p>\n<p>Wer bereit ist f\u00fcr ein abenteuerliches Eintauchen in l\u00e4ngst vergangene Zeiten, ist hier richtig.</p>\n<p><strong>Gef\u00fchrte Besichtigungen</strong></p>\n<p><strong>Exkursion zu den Silberminen Alp Taspegn<br></strong>Jeden Mittwoch von&nbsp;Juli bis&nbsp;Mitte September&nbsp;gibt es eine gef\u00fchrte Besichtigung zu den und in die ehemaligen Erz- und Silberminen. Fahrt mit dem Jeep zur Alp Taspegn, anschliessend kurze Wanderung bis zum Zugang der Mine. Weitere Informationen finden Sie im&nbsp;<a href=\"https://www.viamala.ch/de/veranstaltungen\">Viamala-Veranstaltungskalender</a>.</p>\n<p><strong>Bergbau-Geschichte im Val Ferrera - Besichtigung Museum und Zeitzeugen<br></strong>Auf Anfrage f\u00fchren gef\u00fchrte Bergbau-Exkursionen statt. Es gibt eine gef\u00fchrte Tour durch das Bergbaumuseum in Innerferrera und zu den Zeitzeugen in der Schmelzi bei Ausserferrera.</p>\n<p><strong>Bergbau-Wanderung zu den Erzstollen auf Ursera<br></strong>Auf Anfrage geht es zu Fuss von der Schmelzi bei Ausserferrera steil hinauf zu den stillgelegten Erzstollen auf Ursera. Gutes Schuhwerk und Trittsicherheit sind f\u00fcr diese anspruchsvolle Tour erforderlich.</p>\n<p>Detaillierte Informationen zu den gef\u00fchrten Besichtigungen finden Sie im&nbsp;<a href=\"https://www.viamala.ch/de/veranstaltungen\">Viamala-Veranstaltungskalender</a>! F\u00fcr s\u00e4mtliche gef\u00fchrte Besichtigungen ist eine Anmeldung erforderlich (begrenzte Anzahl Pl\u00e4tze). F\u00fcr Gruppen sind individuelle F\u00fchrungen an allen Wochentagen auf Anfrage m\u00f6glich, zu den Silberminen auch Ganztagestouren.</p>", "url": "https://www.erzminen-hinterrhein.ch", "image": "https://viatpimtsoch.sos-ch-dk-2.exoscale-cdn.com/catalog/6/1/0/6/610638313ee6415c1629dd94a38c3ee57173ddc5_verein_erzminen_hinterrhein_alp_taspegn_erz_und_silberminen_fuehrung.jpg", "openstreetmap_id": "node/9980229909"}, "geometry": {"type": "Point", "coordinates": ["9.439752", "46.556727"]}}, {"type": "Feature", "properties": {"identifier": "ed54e72f-f37e-4928-b648-5e1cffc3beb0", "name": "Cazis", "description": "<p>Das Klosterdorf Cazis liegt am \u00e4usseren Heinzenberg auf 660 bis 1'200 m \u00fc.M.. Die Gemeinde Cazis besteht aus den Fraktionen Cazis, Tartar, Sarn, Portein und Pr\u00e4z.</p>\n<ul>\n<li><a href=\"https://www.cazis.ch/\">Website Gemeinde Cazis</a></li>\n<li><a href=\"http://www.hls-dhs-dss.ch/textes/d/D1485.php\">Link zum historischen Lexikon der Schweiz</a></li>\n<li><a href=\"http://shop.graubuenden.ch/Viamala/ukv/?date_unknown=1&amp;doSearch=1&amp;locationIDs[]=TDS00020010346586688&amp;globalReset=1&amp;persistentParameters=1&amp;lang=de\">Unterk\u00fcnfte in&nbsp;Cazis</a></li>\n</ul>", "url": "https://www.cazis.ch", "image": "https://viatpimtsoch.sos-ch-dk-2.exoscale-cdn.com/catalog/0/4/4/c/044c625118ad22e27d132c6898b4efe7ad71ece0_cazis_fruehling_demateo.jpg", "openstreetmap_id": "relation/1684061"}, "geometry": {"type": "Point", "coordinates": ["9.429027", "46.720776"]}}, {"type": "Feature", "properties": {"identifier": "f25d6238-2833-4ebd-8c95-46db51ff7955", "name": "F\u00fcrstenau", "description": "<p>Die Stadt F\u00fcrstenau nennt sich kleinste Stadt der Welt. Sie liegt mitten im Domleschg auf 650 m \u00fc.M. und z\u00e4hlt rund 350 Einwohner. Zur Gemeinde geh\u00f6rt auch der Ortsteil F\u00fcrstenaubruck.</p>\n<ul>\n<li><a href=\"https://www.fuerstenau.ch/\">Website Stadt F\u00fcrstenau</a></li>\n<li><a href=\"http://www.hls-dhs-dss.ch/textes/d/D1473.php\">Link zum historischen Lexikon der Schweiz</a></li>\n<li><a href=\"http://shop.graubuenden.ch/Viamala/ukv/?date_unknown=1&amp;doSearch=1&amp;locationIDs[]=TDS00020010527381530&amp;globalReset=1&amp;persistentParameters=1&amp;lang=de\">Unterk\u00fcnfte im Domleschg</a></li>\n</ul>", "url": "https://www.fuerstenau.ch", "image": "https://viatpimtsoch.sos-ch-dk-2.exoscale-cdn.com/catalog/4/8/f/e/48fe60d193bbe1558a6a716601432a5b376a6e22_fuerstenau_stadt_dorf_schloesser_sommer_demateo.jpg", "openstreetmap_id": "relation/1684084"}, "geometry": {"type": "Point", "coordinates": ["9.445947", "46.72084"]}}, {"type": "Feature", "properties": {"identifier": "fd24c0f2-51a8-484f-b333-d6a4c524791c", "name": "Rongellen", "description": "<p>Rongellen z\u00e4hlt 51 Einwohner und ist seit jeher das einzige deutschsprachige Dorf im Schams. Es ist allerdings unklar, ob dies auf eine Walser-Vergangenheit zur\u00fcck zu f\u00fchren ist.</p>\n<ul>\n<li><a href=\"https://rongellen.ch/\">Website Gemeinde Rongellen</a></li>\n<li><a href=\"http://www.hls-dhs-dss.ch/textes/d/D1511.php\">Link zum historischen Lexikon der Schweiz</a></li>\n<li><a href=\"http://shop.graubuenden.ch/Viamala/ukv/?date_unknown=1&amp;doSearch=1&amp;locationIDs[]=WBX00020010000145701&amp;globalReset=1&amp;persistentParameters=1&amp;lang=de\">Unterk\u00fcnfte in Thusis</a> / <a href=\"http://shop.graubuenden.ch/Viamala/ukv/?date_unknown=1&amp;doSearch=1&amp;locationIDs[]=TDS00020010527381593&amp;globalReset=1&amp;persistentParameters=1&amp;lang=de\">Unterk\u00fcnfte im Schams</a></li>\n</ul>", "url": "https://rongellen.ch", "image": "https://viatpimtsoch.sos-ch-dk-2.exoscale-cdn.com/catalog/0/e/4/2/0e425161564652b32d8334d2ec65c64d095fbf30_rongellen_sommer.jpg", "openstreetmap_id": "relation/1684139"}, "geometry": {"type": "Point", "coordinates": ["9.447763", "46.67793"]}}]}