{"type": "FeatureCollection", "features": [{"type": "Feature", "properties": {"identifier": "0c540601-f88d-4d3d-a8b1-e441ed69b520", "name": "Gef\u00fchrte Wildtiertexkursionen im Naturpark Beverin", "description": "<p>Absolute Ruhe, eindr\u00fcckliche Landschaften und mit etwas Gl\u00fcck - G\u00e4msen, Steinwild und Bartgeier. Erfahrene, einheimische Ranger und J\u00e4ger bieten Ihnen auf individuell zugeschnittenen Exkursionen die Gelegenheit, Wildtiere in ihrem nat\u00fcrlichen Lebensraum zu beobachten und Wissenswertes dar\u00fcber zu erfahren. Bereits die Fahrt ins Wildeinstandsgebiet wird zum Erlebnis. Sie fahren mit einem Landrover Defender, meist \u00fcber Schotterstrassen \u00fcber die Baumgrenzen in der Destination Viamala - die Exkursionsleiter wissen genau, wo die Chancen auf Sichtungen am gr\u00f6ssten sind.</p><p> W\u00e4hrend den gef\u00fchrten Wanderungen werden zus\u00e4tzlich auch die Pflanzen- und Landschaftsmerkmale erkundet und die Bedeutung der verschiedenen \u00d6kosysteme vermittelt. Das Angebot richtet sich an s\u00e4mtliche Naturliebhaber, Familien, Fotografen und kann bei der Buchung individuell angepasst werden. Mit einer minimalen Dauer von 2.5 h muss gerechnet werden, da die Anfahrten zum Wildeinstand bereits einige Zeit in Anspruch nimmt.</p>", "url": "https://www.waldwildgmbh.ch", "image": "https://viatpimtsoch.sos-ch-dk-2.exoscale-cdn.com/catalog/8/9/0/a/890a121305ac919918d5b913838d02cd883df75f_steinbock_mirco_scherrer.jpg"}, "geometry": {"type": "Point", "coordinates": ["9.429236899999996", "46.593535349999996"]}}, {"type": "Feature", "properties": {"identifier": "0d09ba3d-f54a-4aaa-9721-79f581bb55ff", "name": "viaSpluga - Kulinarik", "description": "<h3><strong>Leistungen</strong></h3><ul><li>6 &Uuml;bernachtungen im Doppelzimmer mit Fr&uuml;hst&uuml;ck in ausgew&auml;hlten &laquo;Kulinarik-Unterk&uuml;nften&raquo;</li><li>Abendessen in jedem Hotel mit vielf&auml;ltigen kulinarischen Highlights</li><li>5 Lunchpakete</li><li>An- und Abreise mit den &ouml;ffentlichen Verkehrsmitteln (Schweiz)</li><li>Gep&auml;cktransport von Hotel zu Hotel</li><li>G&auml;stekarte<ul><li>Freie Fahrt mit dem &ouml;ffentlichen Verkehr in der Region Viamala bis Chiavenna (IT)</li><li>Zutritt zu verschiedenen Erlebnissen entlang der viaSpluga</li></ul></li><li>Dokumentation mit Wanderkarte</li></ul><p><a href=\"https://viamala.ch/files/websites/viamala.ch/objects/prospekte-artikel/verschiedenes/2026_Vertrags-%20und%20Reisebedingungen_Mehrsprachig_DE_EN_IT.pdf\" target=\"_blank\" rel=\"noopener\">Vertrags- und Reisebedingungen</a><br><br></p><h3><strong>Programm</strong></h3><p><strong>1. Tag:</strong>&nbsp;Individuelle Anreise nach Thusis oder F&uuml;rstenau</p><p><strong>2. Tag:</strong> Wanderung Thusis oder F&uuml;rstenau &ndash; Zillis oder Andeer</p><p><strong>3. Tag:</strong>&nbsp;Wanderung Zillis oder Andeer &ndash; Spl&uuml;gen</p><p><strong>4. Tag:</strong>&nbsp;Wanderung Spl&uuml;gen &ndash; Montespluga</p><p><strong>5. Tag:</strong> Wanderung Montespluga &ndash; Campodolcino</p><p><strong>6. Tag:</strong>&nbsp;Wanderung Campodolcino &ndash; Chiavenna</p><p><strong>7. Tag:</strong> Individuelle R&uuml;ckreise via Spl&uuml;genpass<br><br></p><h3><strong>viaSpluga - Individuell</strong></h3><p>M&ouml;chtest du ein abgebildetes Pauschalarrangement individuell anpassen? Gerne k&ouml;nnen wir auf verschiedenste W&uuml;nsche eingehen und das Angebot verl&auml;ngern oder verk&uuml;rzen, einen Ruhetag einplanen, nur eine Teilstrecke buchen oder Leistungen weglassen oder erg&auml;nzen.</p><p>Wir beraten dich gerne und stellen dir ein individuelles Arrangement zusammen.<br><br></p><h3><strong>R&uuml;ckreise von Chiavenna</strong></h3><p>Die R&uuml;ckreise von Chiavenna &uuml;ber den Spl&uuml;genpass nach Thusis ist bereits in der G&auml;stekarte <em>Via Mia Pass</em> unter &laquo;Viamala Mobil&raquo; enthalten und muss nicht separat gebucht werden.<br>Die Heimreise ab Thusis mit den &ouml;ffentlichen Verkehrsmitteln ist inbegriffen. Von dort reist du bequem und kostenlos mit dem &ouml;ffentlichen Verkehr in der ganzen Schweiz zur&uuml;ck nach Hause.<br><br></p><h3><strong>Preise &amp; G&uuml;ltigkeit</strong></h3><ul><li><strong>Preis&nbsp;pro Person:</strong> ab CHF 1'188.00</li><li><strong>G&uuml;ltigkeit:</strong>&nbsp;13. Juni bis 20. September 2026<br><br></li></ul><p><strong>Kindererm&auml;ssigung</strong></p><p>Kinder bis und mit 11 Jahre im Elternzimmer erhalten 30 % Erm&auml;ssigung.<br><br></p><p><strong>Optionen</strong></p><ul><li>Einzelzimmer</li><li>Zusatzn&auml;chte<br><br></li></ul><p><strong>Vorausbuchungsfrist</strong></p><p>Das Arrangement kann bis sp&auml;testens 3 Arbeitstage (Mo-Sa) vor Anreise bei uns gebucht werden, sofern noch Zimmer verf&uuml;gbar sind. Wir empfehlen eine fr&uuml;hzeitige Reservation.</p>", "url": "https://viamala.ch/de/", "image": "https://viatpimtsoch.sos-ch-dk-2.exoscale-cdn.com/catalog/e/9/3/8/e938ece44030ae9d5d6454d5894d10cf1362ed8d_crotti_di_chiavenna_ombra.jpg"}, "geometry": {"type": "Point", "coordinates": ["9.439702033996584", "46.695737968322376"]}}, {"type": "Feature", "properties": {"identifier": "1031886b-023d-4d1e-881a-ff677e38baf5", "name": "Sakral-Landschaft Graub\u00fcnden: Kirchen und Kultur erleben", "description": "<h3>Kirchenf&uuml;hrungen</h3><p>Erlebe Kirchenf&uuml;hrungen, die alle Sinne ansprechen und Raum f&uuml;r Unerwartetes lassen. Die F&uuml;hrungen k&ouml;nnen kreativ erweitert werden, z. B. mit Ap&eacute;ros, Spazierg&auml;ngen, musikalischen Darbietungen oder anderen Ideen.</p><ul><li><span style=\"font-weight: bold;\">Kirchen/Kapellen:</span> <a href=\"https://viamala.ch/de/map/poi/kapelle-st-maria-magdalena-9736e021-7190-44cc-a509-b1756eabae69.html\">Kapelle St. Maria Magdalena</a>&nbsp;in Dusch/Paspels, Kirche Tomils,&nbsp;<a href=\"https://viamala.ch/de/map/poi/steinkirche-cazis-a0673c88-9dbb-4596-9bbb-4fb2568973c2.html\">Steinkirche Cazis</a>, <a href=\"https://www.kath-albula.ch/mistail\" target=\"_blank\" rel=\"noopener\">Kirche St. Peter Mistail</a> in Tiefencastel/Alvaschein</li><li><span style=\"font-weight: bold;\">Zielgruppen:</span>&nbsp;Einzelpersonen, Familien, Gruppen, Kirchgemeinden (bis max. 25 Personen)</li><li><span style=\"font-weight: bold;\">Dauer:&nbsp;</span>0.45&ndash;1.5 Stunden</li><li><span style=\"font-weight: bold;\">Kosten:&nbsp;<br></span>CHF 25.00 pro Person<br>CHF 100.00 pauschal f&uuml;r Gruppen (exkl. Spesen)<br>CHF 150.00 halber Tag (exkl. Spesen)</li></ul><p><a href=\"https://www.wandern-mit-kultur.ch/kirchen-fuehrungen/\" target=\"_blank\" rel=\"noopener\">Mehr erfahren</a><br><br></p><h3>Tagesangebote</h3><p>Diese Angebote kombinieren Wanderungen, Kirchenf&uuml;hrungen und kulturelle/kulinarische Elemente und sind flexibel auf eure W&uuml;nsche abgestimmt.</p><ul><li><span style=\"font-weight: bold;\">Standardpakete:&nbsp;</span>Auf den Spuren des Schulmeisters und Wandmalers Hans Ard&uuml;ser / Zu Fuss mit Hans Ard&uuml;ser vom Albulatal ins Domleschg</li><li><span style=\"font-weight: bold;\">Zielgruppen:</span>&nbsp;Einzelpersonen, Familien, Gruppen, Kirchgemeinden (bis max. 15 Personen)</li><li><span style=\"font-weight: bold;\">Kosten:</span>&nbsp;CHF 300.00 pro Tag (exkl. Spesen)</li><li><span style=\"font-weight: bold;\">Vorbereitung:</span>&nbsp;mindestens 1 Monat Vorlaufzeit</li></ul><p><a title=\"Mehr erfahren\" href=\"https://www.wandern-mit-kultur.ch/tagesangebot/\" target=\"_blank\" rel=\"noopener\">Mehr erfahren</a><br><br></p><h3>Mehrt&auml;gige Angebote</h3><p>F&uuml;r Kirchgemeinden und Interessengruppen werden 2- bis 4-t&auml;gige Programme angeboten, die Kirchenf&uuml;hrungen, Wanderungen und gemeinsames Erleben umfassen. Die Organisation beinhaltet Aktivit&auml;ten, Transfers, Verpflegung und mehr.</p><ul><li><span style=\"font-weight: bold;\">Standardpakete:&nbsp;</span>Vielf&auml;ltige Ferientage in der Region Viamala / Albula und M&uuml;nstertal im Wandel der Zeit</li><li><span style=\"font-weight: bold;\">Zielgruppen:</span>&nbsp;Kirchgemeinden und weitere Gruppen (bis max. 15 Personen)</li><li><span style=\"font-weight: bold;\">Kosten:&nbsp;</span>CHF 300.00 pro Tag (An- und Abreisetag nach Absprache, exkl. Spesen)</li><li><span style=\"font-weight: bold;\">Planung:&nbsp;</span>detaillierte Vorbereitung und regelm&auml;ssiger Austausch</li></ul><p><a title=\"Mehr erfahren\" href=\"https://www.wandern-mit-kultur.ch/mehrtaegige-angebote/\" target=\"_blank\" rel=\"noopener\">Mehr erfahren</a></p><p>Die Angebote von Sakral-Landschaft Graub&uuml;nden stehen f&uuml;r kreative und pers&ouml;nliche Erlebnisse in einer einzigartigen Landschaft.</p>", "url": "https://www.wandern-mit-kultur.ch/", "image": "https://viatpimtsoch.sos-ch-dk-2.exoscale-cdn.com/catalog/6/4/7/7/64771c8fa4cae4b06c7c84d24a37cf2dc348afbb_kapelle_st_maria_magdalena_paspels_fruehling.jpg"}}, {"type": "Feature", "properties": {"identifier": "12f74ecc-916a-47ef-b498-d596d379e71c", "name": "Einfach f\u00fcr Retour Graub\u00fcnden", "description": "<p>Das &Ouml;V-Angebot <strong>&laquo;Einfach f&uuml;r Retour Graub&uuml;nden&raquo;</strong> belohnt nachhaltige Anreise: Wer mit dem &ouml;ffentlichen Verkehr zu einer mit &laquo;Einfach f&uuml;r Retour&raquo; gekennzeichneten Veranstaltung im Naturpark Beverin anreist, erh&auml;lt die R&uuml;ckfahrt gratis.</p><p>Und so funktioniert&rsquo;s: Einfach ein normales <strong>Einfach-Billett</strong> f&uuml;r die Hinfahrt kaufen, dieses am Veranstaltungsort abstempeln lassen &ndash; und schon ist es auch f&uuml;r die R&uuml;ckfahrt g&uuml;ltig. G&uuml;ltig ist das Angebot f&uuml;r Fahrten mit der <strong>Rh&auml;tischen Bahn, PostAuto und Bustaxi</strong> (nach Fahrplan) ab allen Einstiegsorten in Graub&uuml;nden.<br><br></p><h4>Wichtig zu wissen:</h4><ul><li>Digitale Tickets sind g&uuml;ltig &ndash; hier <strong>braucht es eine Teilnehmerbest&auml;tigung</strong> vom Veranstalter</li><li><strong>Gruppentickets</strong> k&ouml;nnen ebenfalls abgestempelt werden</li><li>Keine R&uuml;ckerstattung bei bereits retour gel&ouml;sten Tickets</li><li><strong>Nicht kumulierbar</strong> mit anderen Angeboten wie Kombitickets</li><li>Das Angebot ist <strong>w&auml;hrend der Sommersaison 2025 g&uuml;ltig</strong> und macht Veranstaltungen im Naturpark einfach, g&uuml;nstig und umweltfreundlich erreichbar.</li></ul><p>&nbsp;</p><p><a href=\"https://www.fahrtziel-natur.ch/de/reiseangebote/einfachfuerretour.php\" target=\"_blank\" rel=\"noopener\">Mehr Infos</a></p>", "url": "https://www.naturpark-beverin.ch/", "image": "https://viatpimtsoch.sos-ch-dk-2.exoscale-cdn.com/catalog/a/3/d/f/a3df1e296ff742ed2961645a9c471e2e847b5885_Postauto_Schams_Yasmin_Spengler.jpg_compressed.JPEG"}}, {"type": "Feature", "properties": {"identifier": "3407e79c-0a5c-4597-abad-fdd37ff38549", "name": "viaSpluga - Bike", "description": "<h3><strong>Leistungen</strong></h3><ul><li>5 &Uuml;bernachtungen im Doppelzimmer mit Fr&uuml;hst&uuml;ck</li><li>4 Lunchpakete</li><li>An- und Abreise mit den &ouml;ffentlichen Verkehrsmitteln (Schweiz)</li><li>Gep&auml;cktransport von Hotel zu Hotel</li><li>G&auml;stekarte<br>- Freie Fahrt mit dem &ouml;ffentlichen Verkehr in der Region Viamala bis Chiavenna (IT)<br>- Zutritt zu verschiedenen Erlebnissen entlang der viaSpluga</li><li>Dokumentationen</li></ul><p><a href=\"https://viamala.ch/files/websites/viamala.ch/objects/prospekte-artikel/verschiedenes/2026_Vertrags-%20und%20Reisebedingungen_Mehrsprachig_DE_EN_IT.pdf\" target=\"_blank\" rel=\"noopener\">Vertrags- und Reisebedingungen</a><br><br></p><h3><strong>Programm</strong></h3><p><strong>1. Tag:</strong>&nbsp;Individuelle Anreise nach Thusis&nbsp;</p><p><strong>2. Tag:</strong> Tour von Thusis &ndash; Andeer</p><p><strong>3. Tag:</strong>&nbsp;Tour von Andeer &ndash; Sufers oder Spl&uuml;gen</p><p><strong>4. Tag:</strong>&nbsp;Tour von Sufers oder Spl&uuml;gen &ndash; Montespluga</p><p><strong>5. Tag:</strong>&nbsp;Tour von Montespluga &ndash; Chiavenna&nbsp;</p><p><strong>6. Tag:</strong> Individuelle R&uuml;ckreise via Engadin/St. Moritz<br><br></p><h3><strong>viaSpluga - Individuell</strong></h3><p>M&ouml;chtest du ein abgebildetes Pauschalarrangement individuell anpassen? Gerne k&ouml;nnen wir auf verschiedenste W&uuml;nsche eingehen und das Angebot verl&auml;ngern oder verk&uuml;rzen, einen Ruhetag einplanen, nur eine Teilstrecke buchen oder Leistungen weglassen oder erg&auml;nzen.</p><p>Wir beraten dich gerne und stellen dir ein individuelles Arrangement zusammen.<br><br></p><h3><strong>R&uuml;ckreise von Chiavenna nach Thusis</strong></h3><p>Die R&uuml;ckreise von Chiavenna mit den &ouml;ffentlichen Verkehrsmitteln ist f&uuml;r den Personentransport inbegriffen. Bitte beachte, dass f&uuml;r den Bike-Transport eine Reservation beim Ticketkauf erforderlich ist und die Kosten selbst zu tragen sind. Der Zugangscode f&uuml;r den Ticketkauf ist in der G&auml;stekarte <em>Via Mia Pass</em> hinterlegt. Wir empfehlen die R&uuml;ckreise mit dem Postauto und der Rh&auml;tischen Bahn via St. Moritz / Engadin. &Uuml;ber den Spl&uuml;genpass kann der Transport nicht garantiert werden.<br><br></p><h3><strong>Preise &amp; G&uuml;ltigkeit</strong></h3><ul><li><strong>Preis pro Person:</strong> ab CHF 710.00</li><li><strong>G&uuml;ltigkeit:</strong>&nbsp;13. Juni bis 25. Oktober 2026<br><br></li></ul><p><strong>Kindererm&auml;ssigung</strong></p><p>Kinder bis und mit 11 Jahre im Elternzimmer erhalten 30 % Erm&auml;ssigung.<br><br></p><p><strong>Optionen</strong></p><ul><li>Halbpension</li><li>Einzelzimmer</li><li>Zusatzn&auml;chte<br><br></li></ul><p><strong>Vorausbuchungsfrist</strong></p><p>Das Arrangement kann bis sp&auml;testens 3 Arbeitstage (Mo-Sa) vor Anreise bei uns gebucht werden, sofern noch Zimmer verf&uuml;gbar sind. Wir empfehlen eine fr&uuml;hzeitige Reservation.</p>", "url": "https://www.viamala.ch/", "image": "https://viatpimtsoch.sos-ch-dk-2.exoscale-cdn.com/catalog/5/a/8/b/5a8b6e50c06709dca1726e5db61f3cc2db5b64c1_gravelbike_hinterrhein_actionbild_2.jpg_compressed.JPEG"}, "geometry": {"type": "Point", "coordinates": ["9.439707398414612", "46.695741635368876"]}}, {"type": "Feature", "properties": {"identifier": "38fa01ba-2ba8-407c-8b94-9acf1de6bc6e", "name": "Care Move & Bloom \u2013 Frauenwochenende in der STORY Thusis", "description": "<p>G&ouml;nn dir eine Auszeit voller Bewegung, Begegnung und Inspiration im Care Move &amp; Bloom Frauenwochenende im STORY Thusis. Dieses besondere Retreat l&auml;dt dich ein, dich selbst in den Mittelpunkt zu stellen, neue Energie zu tanken und gemeinsam mit anderen Frauen ein vielseitiges Programm aus Yoga, Outdoor-Aktivit&auml;ten, Training, Entspannung und Celebration zu erleben. Ein Wochenende, das dich st&auml;rkt, ber&uuml;hrt und zum Bl&uuml;hen bringt.<br><br></p><h4><strong>Leistungen</strong></h4><ul><li>2 &Uuml;bernachtungen im Mehrbettzimmer in der <a href=\"https://story-thusis.ch/en/lodge/\" target=\"_blank\" rel=\"noopener\">STORY Thusis</a></li><li>Fr&uuml;hst&uuml;ck am Holztisch</li><li>Abendessen am Freitag</li><li>Ap&eacute;ro mit Wildberry Lillet &amp; Fruchtspiessli</li><li>Eintritt zur <a href=\"https://story-thusis.ch/events/ladies-night-disco/\" target=\"_blank\" rel=\"noopener\">Ladies-Night-Disco</a> mit DJane</li><li>Yoga-, Wander-, Trailrunning-, Crossfit- und weitere Bewegungs- und Workshop-Einheiten gem&auml;ss Programm</li><li>Vortrag &bdquo;Du funktionierst &ndash; aber bl&uuml;hst du auch?&ldquo;</li><li>Faszienkurs und Mental-Workshop &bdquo;Mental to go&ldquo;</li><li>Bike Shuttle zur Ladies Night</li></ul><p><a href=\"https://story-thusis.ch/events/her-to-her-care-move-and-bloom/\" target=\"_blank\" rel=\"noopener\">Detailliertes Programm &amp; Weitere Informationen</a></p>", "url": "https://story-thusis.ch/", "image": "https://viatpimtsoch.sos-ch-dk-2.exoscale-cdn.com/catalog/3/1/8/0/3180d0b1e9a89774d3825fc19613ea2f71c8d016_care_move_and_bloom_story_thusis.jpg"}, "geometry": {"type": "Point", "coordinates": ["9.440222382545473", "46.69261042419321"]}}, {"type": "Feature", "properties": {"identifier": "42794c50-3173-42c3-b1f1-6d867e51f37f", "name": "Package \u00abTrailrunning\u00bb im Hotel Capricorns in Wergenstein", "description": "<p>Das Trailrunning-Package im Hotel Capricorns bietet ideale Bedingungen f&uuml;r alle, die aktiv unterwegs sein und gleichzeitig neue Energie tanken m&ouml;chten. Zwischen aussichtsreichen Trails, alpiner Ruhe und wohltuender Entspannung findest du genau das, worauf es beim Trailrunning wirklich ankommt.</p><h4>Leistungen</h4><ul><li>2 &Uuml;bernachtungen im Doppelzimmer Piz Grisch im Hotel Capricorns in Wergenstein</li><li>Power-Ap&eacute;ro an der Capricorns Bar</li><li>genussvolles 4-Gang Znacht (exkl. Getr&auml;nke)</li><li>reichhaltiges, regionales Zmorge-Buffet</li><li>energiereiches Lunchpaket mit Lieblingsgetr&auml;nk</li><li>Naturpark Beverin Trailrunning-Karte</li><li>Wellnessbereich La Calma zur freien Nutzung</li><li>20% Rabatt auf den Eintritt ins Mineralbad Andeer</li><li>Capricorns &Uuml;berraschungsgeschenk</li><li>WLAN</li><li>Aussenparkplatz</li></ul><h4>G&uuml;ltigkeit</h4><section class=\"sect-top\"><div class=\"container\"><div class=\"txt-box\"><p class=\"p2\"><span class=\"s1\">Buchbar von Juni bis Oktober (Anreisetag von Sonntag bis Mittwoch).</span></p></div></div></section>", "url": "https://capricorns.ch/", "image": "https://viatpimtsoch.sos-ch-dk-2.exoscale-cdn.com/catalog/d/d/2/a/dd2aa5da66679a555e838e9ec5112d86edcb8921_trailrunning_schamserberg_carnusapass_demateo.com.JPEG"}, "geometry": {"type": "Point", "coordinates": ["9.40735459327698", "46.6263311519914"]}}, {"type": "Feature", "properties": {"identifier": "45f296d1-c2eb-47c6-86f5-f542171851df", "name": "Kulinarischer Wochenendgenuss im Hotel Post Andeer", "description": "<p><span style=\"font-weight: bold;\">Leistungen</span></p><ul><li>Zwei &Uuml;bernachtungen (Freitag - Sonntag) in einem der modernen Zimmer im <a href=\"https://www.hotelpostandeer.ch/\" target=\"_blank\" rel=\"noopener\">Hotel Post in Andeer</a></li><li>Begr&uuml;ssungsgetr&auml;nk bei Ankunft</li><li>T&auml;glich reichhaltiges Fr&uuml;hst&uuml;ck</li><li>Erster Abend: 3-Gang Men&uuml; zum Abendessen in unserer Beiz</li><li>Zweiter Abend: 5-Gang Men&uuml; Abendessen in unserem Gourmetrestaurant inkl. Weinbegleitung</li><li>Eintritt in das <a href=\"https://mineralbad-andeer.ch/\" target=\"_blank\" rel=\"noopener\">Hallen- und Freibad Mineralbad</a> Andeer (einmal Pro Person pro Aufenthalt)</li><li>Aussenparkplatz (inkl. Ladestation f&uuml;r Elektro-Auto)</li><li>Luxuri&ouml;se Feuerstein Essentials Badprodukte</li><li>Service, MwSt. und Taxen</li></ul>", "url": "https://www.hotelpostandeer.ch/", "image": "https://viatpimtsoch.sos-ch-dk-2.exoscale-cdn.com/catalog/b/f/1/1/bf11f3ed77ffd9e7e8f6e37552959b62485a98f2_hotel_post_andeer_gourmetrestaurant_schams.jpg"}, "geometry": {"type": "Point", "coordinates": ["9.427101016044617", "46.601933435026254"]}}, {"type": "Feature", "properties": {"identifier": "4c4f7dfd-50ec-4320-bf05-5eaec64c1fd7", "name": "Fliegenfischen mit SPELUCA-Flair", "description": "<p>&nbsp;</p><h3><strong>Schnupperkurs</strong></h3><p>An einem halben Tag f&uuml;hrt dich David von der Theorie zur Praxis: Du lernst Materialkunde, Insektenkunde und Gew&auml;sserkunde, &uuml;bst den &Uuml;berkopfwurf und den Rollwurf und pr&auml;sentierst am Schluss deine erste Fliege am Hinterrhein. Alles Schritt f&uuml;r Schritt, mit pers&ouml;nlicher Begleitung.</p><p><strong>Daten 2026:</strong> 16. Mai / 17. Mai / 11. Juli / 12. Juli</p><p>&nbsp;</p><h3><strong>Anf&auml;ngerkurs</strong></h3><p>Du lernst verschiedene Fliegenfischen-Techniken, Knotenkunde, Insektenkunde sowie Gew&auml;sser- und Fischkunde &ndash; von Fischarten &uuml;ber Schonzeiten bis zu gesetzlichen Mindestmassen. Nach den Trocken&uuml;bungen geht es ans Wasser: Rollwurf und &Uuml;berkopfwurf, Fliegenwahl und Pr&auml;sentation &ndash; bis hin zu Drill, schonendem Landen und der entscheidenden Frage: Wo stehen die Fische?</p><p><strong>Daten 2026:</strong> 15. &amp; 16. Juli / 22. &amp; 23. August</p><p>&nbsp;</p><h3><strong>Anf&auml;nger-Intensivkurs</strong></h3><p>Du lernst verschiedene Fliegenfischen-Techniken, Knotenkunde, Insektenkunde sowie Gew&auml;sser- und Fischkunde &ndash; von Fischarten &uuml;ber Schonzeiten bis zu gesetzlichen Mindestmassen. Nach den Trocken&uuml;bungen geht es ans Wasser: Rollwurf und &Uuml;berkopfwurf, Fliegenwahl und Pr&auml;sentation &ndash; bis hin zu Drill, schonendem Landen und der entscheidenden Frage: Wo stehen die Fische? Dank vier Tagen am Wasser bleibt mehr Zeit zum &Uuml;ben, Vertiefen und Geniessen.</p><p><strong>Daten 2026:</strong> 17. - 20. Juli / 13. - 16. August</p><p>&nbsp;</p><h3><strong>Fortgeschrittenen-Kurs</strong></h3><p>Du festigst deine Grundw&uuml;rfe &ndash; Rollwurf und &Uuml;berkopfwurf &ndash; und lernst den Doppelzugwurf. Du vertiefst verschiedene Fliegenfischen-Techniken, entwickelst ein Gef&uuml;hl f&uuml;r die passende Taktik je nach Wasserstand und erweiterst dein Wissen in Insektenkunde. Und wenn der Moment kommt: Du landest deinen Troph&auml;enfisch sicher und sorgf&auml;ltig.</p><p><strong>Daten 2026:</strong> 2. &amp; 3. Mai / 5. &amp; 6. September</p><p>&nbsp;</p><h3><strong>Wandern &amp; Fliegenfischen</strong></h3><p>Nach dem Transfer geht es zu Fuss hinauf zu ausgew&auml;hlten Bergseen in Graub&uuml;nden, dem Tessin oder dem nahen Italien. Am Wasser angekommen, heisst es: Rute zusammensetzen, durchatmen &ndash; und fischen. David begleitet dich den ganzen Tag mit pers&ouml;nlichem Guiding direkt am Wasser.</p><p><strong>Daten 2026:</strong> 23. Juli / 24. Juli / 12. August / 4. September</p><p>&nbsp;</p><h3><strong>Pers&ouml;nliches Coaching und Fliegenbinden</strong></h3><p>Du kannst an keinem der oben genannten Daten teilnehmen oder m&ouml;chtest lieber ein individuelles Coaching ganz nach deinen W&uuml;nschen? Kein Problem &ndash; die Speluca stellt dir gerne ein passendes Angebot zusammen.</p><p>Und wer schon immer wissen wollte, wie eine Fliege entsteht: David Jedlicka zeigt dir das Fliegenbinden gerne auf Anfrage &ndash; eine faszinierende Kunst, die dein Fliegenfischen auf eine ganz neue Ebene bringt.</p>", "url": "https://www.speluca.ch/fliegenfischen/", "image": "https://viatpimtsoch.sos-ch-dk-2.exoscale-cdn.com/catalog/3/8/f/b/38fbb6043cf9ecd9fcfcfa5cc31905f7205cf7b5_Guiding_Fliegenfischen.jpeg", "openstreetmap_id": "way/214746349"}, "geometry": {"type": "Point", "coordinates": ["9.324856", "46.5534454"]}}, {"type": "Feature", "properties": {"identifier": "4c5ec508-6ba7-4544-bbad-f8e45a5752bc", "name": "Zeit zu zweit im Hotel Fravi in Andeer", "description": "<h3>Leistungen</h3><ul><li>2 N&auml;chte Aufenthalt inkl. Fr&uuml;hst&uuml;ck und Candlelight-Dinner im Hotel Fravi in Andeer</li><li>&Uuml;bernachtung in einer romantisch dekorierten Juniorsuite</li><li>T&auml;glicher Eintritt ins Mineralbad Andeer und die Saunalandschaft</li><li>1 Flasche Champagner (0.75 l) im Zimmer</li><li>1 Fr&uuml;chteteller im Zimmer</li><li>2 Candlelight-Dinner</li></ul><h3><strong>Datum</strong></h3><p id=\"h-ganzjahrig-nach-verfugbarkeit-ausgenommen-festtage-2-ubernachtungen\" class=\"wp-block-heading\">Ganzj&auml;hrig nach Verf&uuml;gbarkeit (ausgenommen Festtage).</p><ul><li class=\"wp-block-heading\"><a href=\"https://www.simplebooking.it/ibe2/hotel/7319/package/74485?hid=7319&amp;lang=DE&amp;cur=CHF\" target=\"_blank\" rel=\"noopener\">Jetzt reservieren</a></li></ul>", "url": "https://fravi-hotel.ch/", "image": "https://viatpimtsoch.sos-ch-dk-2.exoscale-cdn.com/catalog/6/9/3/a/693ad314289b4b10a2b355009173eb26ab04476a_mineralbad_andeer_innenbecken_sommer_andrea_badrutt.jpg"}, "geometry": {"type": "Point", "coordinates": ["9.426500201225283", "46.604708812030744"]}}, {"type": "Feature", "properties": {"identifier": "508c1e63-9e15-4249-af3d-76cfebb2fab2", "name": "Romanisch-Kurswoche (Sutsilvan) f\u00fcr Anf\u00e4nger sowie leicht Fortgeschrittene", "description": "<p>W&auml;hrend dieser Kurswoche lernst du die Grundlagen des Romanischen in entspannter Atmosph&auml;re &ndash; ganz ohne Vorkenntnisse.</p><p>Du lernst Sutsilvan von Grund auf &ndash; praxisnah, interaktiv und in einer angenehmen Lernatmosph&auml;re.</p><ul><li><a href=\"https://viamala.ch/informieren/aktuelles/events/romanisch-wochenende.html\" target=\"_blank\" rel=\"noopener\">Weitere Informationen</a></li></ul><p>&nbsp;</p><h3>Datum</h3><p>Die Kurswoche beginnt mit der Ankunft am Sonntag, 30. August 2026, und dauert bis Freitag, 4. September. Der Kursunterricht findet jeweils von 09.00 bis 12.00 Uhr statt.</p>", "url": "https://viamala.ch/informieren/aktuelles/events/romanisch-wochenende.html", "image": "https://viatpimtsoch.sos-ch-dk-2.exoscale-cdn.com/catalog/e/9/c/c/e9cc20216722df1b9ddd15e177229e9fca300187_wergenstein_am_schamserberg_im_sommer_reformierte_kirche_graubuenden_ferien.jpg"}, "geometry": {"type": "Point", "coordinates": ["9.407386779785158", "46.626308913300505"]}}, {"type": "Feature", "properties": {"identifier": "55068bbd-4a28-4ae2-a23e-a9a64873cead", "name": "Wohlf\u00fchlbereich Hotel Weiss Kreuz", "description": "<p>Sauna 85 \u00b0C / trocken, Sanariun 65 \u00b0C / feucht (40 % Luftfeuchtigkeit), Dampfbad 45 \u00b0C / nass.</p>\n<h4><br>Reservation</h4><p>Empfehlenswert.</p><p><br></p>\n<h4>Leistung</h4><p>Ben\u00fctzung Sauna, Sanarium, Dampfbad, 1 Waffeltuch (Ausgabe an der R\u00e9ception), Frotteetuch (liegt im Wohlf\u00fchlkeller auf), Ben\u00fctzung Garderobe mit Wertsachenschliessfach.</p>", "url": "https://www.weisskreuz.ch", "image": "https://viatpimtsoch.sos-ch-dk-2.exoscale-cdn.com/catalog/a/e/d/a/aeda9c2692d70003aa193de6947f97e4af07a0c0_sauna_hotel_weiss_kreuz_thusis.jpg", "openstreetmap_id": "way/289615759"}, "geometry": {"type": "Point", "coordinates": ["9.439652", "46.696475"]}}, {"type": "Feature", "properties": {"identifier": "55290989-041a-474b-a706-73e7c75daa0b", "name": "viaSpluga \u2013 Auf R\u00f6merspuren mit Tumasch Planta", "description": "<p>Den Menschen, die dazu Genaueres erfahren m&ouml;chten, bietet Tumasch Planta eine kompetente F&uuml;hrung in 2.5 Tagen (von Freitag Mittag bis Sonntag) zu den wichtigsten und interessantesten Teilstrecken der viaSpluga.<br><br></p><h3><strong>Leistungen</strong></h3><ul><li>Fachkundliche Begleitung durch Tumasch Planta, Mitentdecker der ersten Stunde auf Kulturwanderungen, die dem Gast einen Einblick in die Arbeit der Wegforschung von seinem Vater Armon Planta geben sollen</li><li>Zwei &Uuml;bernachtung inkl. Halbpension</li><li>Billett auf Teilstrecken und R&uuml;ckfahrt mit den &ouml;ffentlichen Verkehrsmitteln bzw. Kleinbus<br><br></li></ul><h3><strong>Beginn</strong></h3><p>Jeweils freitags 11.30 Uhr am Bahnhof Thusis, Treffpunkt.<br><br></p><h3><strong>Ausr&uuml;stung</strong></h3><p>Wanderausr&uuml;stung (mindestens gute Trekkinschuhe), Lunch.<br><br></p><h3><strong>Anforderung</strong></h3><p>F&auml;hig zu bis zu 4 Stunden Marschzeit.<br><br></p><h3><strong>Unterkunft</strong></h3><p>Inkl. Halbpension im DZ im Hotel Alte Post in Zillis bzw. Locanda Cardinello in Isola (l). EZ-Zuschlag je CHF 30.00 pro Nacht und pro Person.<br><br></p><h3><strong>Transport</strong></h3><p>Inkl. Billet auf Teilstrecken und R&uuml;ckfahrt mit &ouml;.V. bzw. Kleinbus.<br><br></p><h3><strong>Anmeldung</strong></h3><p>Schriftlich oder telefonisch jeweils 3 Wochen vor Beginn der Kulturwanderung, und/oder mit der Anzahlung von CHF 300.00 pro Person.<br><br></p><h3><strong>Preis &amp; Daten</strong></h3><ul><li><strong>Preis pro Person:</strong><ul><li>CHF 720 pro Person bei 4-8 Teilnehmern</li></ul></li><li><strong>Daten: </strong><ul><li>31. Juli - 2. August 2026</li><li>4. - 6. September 2026<br><br></li></ul></li></ul><h3><strong>Programm</strong></h3><ul><li><strong>1. Tag:</strong> Thusis &ndash; Via Mala</li><li><strong>2. Tag:</strong> Spl&uuml;gen &ndash; Spl&uuml;genpass / Cardinello &ndash; Isola</li><li><strong>3. Tag:</strong> Isola &ndash; Scien &ndash; Campodolcino</li></ul>", "url": "https://www.chauennas.ch", "image": "https://viatpimtsoch.sos-ch-dk-2.exoscale-cdn.com/catalog/f/2/8/e/f28e546cec28d4e494ace974789e454c1f9f12ff_ST0051744.jpg_compressed.JPEG", "openstreetmap_id": "relation/1684187"}, "geometry": {"type": "Point", "coordinates": ["9.4390836", "46.6972368"]}}, {"type": "Feature", "properties": {"identifier": "596edaa9-72c9-4bcd-8457-be620acf980e", "name": "Pistenbully selbst fahren", "description": "<p>Eine \"coole\" Tour auf der Pistenraupe, die Geschick, &Uuml;bersicht und manchmal auch ein wenig Mut abverlangt. Beim fachkundigen Briefing mit dem erfahrenen Pistenchef lernen Sie sowohl die Grundlagen wie auch die wichtigsten Funktionen des Cockpits kennen. Auch die Verhaltens- und Sicherheitsregeln f&uuml;r einen Pisten-Bully Fahrer werden besprochen. Diese sind wichtig, schliesslich haben Sie es hier mit einem richtigen Giganten zu tun.</p><p>Anschliessend werden Sie als Beifahrer lernen, wie das 330 PS starke Pistenfahrzeug zu fahren ist. Die Schwerpunkte Ihres eigenen Fahrerlebnisses werden je nach Fahrk&ouml;nnen und Fortschritten festgelegt und individuell bestimmt.</p><p>Nach erfolgreichem \"Pistenbully fahren\" erhalten Sie ein kleines Erinnerungsgeschenk und Ihr pers&ouml;nliches Diplom. Schenken Sie Ihren Liebsten, Kindern, Bekannten, Freunden, Gesch&auml;ftskollegen dieses unvergessliche Erlebnis.</p><p><strong>Teilnahmevoraussetzungen</strong><br>Normale physische und psychische Verfassung, Besitz und mitf&uuml;hren des PKW-F&uuml;hrerscheins, befolgen der Anweisungen des Instruktors.</p><p><strong>Teilnehmer&nbsp;</strong><br>1 Person&nbsp;</p><p><strong>Zuschauer</strong><br>Herzlich willkommen (ausserhalb des Fahrzeugs, da darin neben dem Fahrer nur der Instruktor erlaubt ist).</p><p><strong>Ausr&uuml;stung</strong><br>Festes Schuhwerk<br>Warme Winterkleidung</p><p><strong>Leistungen</strong></p><ul><li>Fachkundiges Briefing</li><li>Pistenbully mitfahren und selbst steuern</li><li>Erinnerungsgeschenk</li><li>Pers&ouml;nliches Diplom</li></ul><p><strong>Preis &amp; G&uuml;ltigkeit</strong></p><ul><li>Preis: CHF 420.00</li><li>G&uuml;ltigkeit:&nbsp;Das Angebot ist nach Absprache ab 17.00 Uhr w&auml;hrend der Wintersaison der Sesselbahn und Skilifte Feldis buchbar.</li><li>Dauer:&nbsp;ca. 90 Minuten, davon ca. 30 Minuten selbst fahren (Details nach Absprache).</li><li>Durchf&uuml;hrung: F&uuml;r Saison 26/27 ausverkauft</li></ul>", "url": "https://bergbahnen-feldis.ch", "image": "https://viatpimtsoch.sos-ch-dk-2.exoscale-cdn.com/catalog/3/1/b/1/31b198662e5c096720a835005117331c8e3bd8ea_pistenbully_fahrt.jpg"}, "geometry": {"type": "Point", "coordinates": ["9.45603132247925", "46.79660754267421"]}}, {"type": "Feature", "properties": {"identifier": "5d361433-1aee-4b38-98d7-05ff3b941b7e", "name": "Schneeschuhwandern im winterlichen Naturpark Beverin", "description": "<p>Wer die winterliche Stille der B\u00fcndner Alpen geniessen m\u00f6chte, findet hier das perfekte Angebot. Ob im Rheinwald, im Avers oder am Schamserberg \u2013 die Schneeschuhwanderungen f\u00fchren durch unber\u00fchrte Natur und laden dazu ein, die faszinierende Bergwelt auf ruhigen Pfaden zu erkunden. Interessierte k\u00f6nnen ihr Wunschdatum direkt im Anmeldeformular ausw\u00e4hlen und sich auf eine unvergessliche Tour freuen.</p><p><strong>Auch Halbtageswanderungen m\u00f6glich</strong></p><p>F\u00fcr alle, die nur einen halben Tag Zeit haben, gibt es ebenfalls passende Angebote. Eine kurze Anfrage gen\u00fcgt, um eine individuell zugeschnittene Wanderung zu arrangieren.</p><h3><strong>Anmeldung</strong></h3><p>Bis zwei Tage vorher</p><h3><strong>Teilnehmerzahl</strong></h3><p>Min. 4 /\u00a0max. 8 Personen</p>", "image": "https://viatpimtsoch.sos-ch-dk-2.exoscale-cdn.com/catalog/8/6/0/f/860ff42c6113d3a37be3892c0f70f1e0f4601cfa_DSC_6764.jpg"}, "geometry": {"type": "Point", "coordinates": ["9.186801910400392", "46.52578546939352"]}}, {"type": "Feature", "properties": {"identifier": "63ccf75c-07f8-416b-8bb9-1457ab982b69", "name": "S\u00e4umerweg Avers via Juppa", "description": "<h3>Leistungen</h3><ul><li>6 &Uuml;bernachtungen im Doppelzimmer mit Fr&uuml;hst&uuml;ck</li><li>5 Lunchpakete</li><li>An- und Abreise mit den &ouml;ffentlichen Verkehrsmitteln (Schweiz)</li><li>Gep&auml;cktransport von Hotel zu Hotel</li><li>G&auml;stekarte<ul><li>Freie Fahrt mit dem &ouml;ffentlichen Verkehr in der Region Viamala bis Chiavenna (IT)</li><li>Zutritt zu verschiedenen Erlebnissen entlang des S&auml;umerwegs Avers</li></ul></li><li>Soglio-Produkt \"Valser-Balsam\"</li></ul><p><a href=\"https://viamala.ch/files/websites/viamala.ch/objects/prospekte-artikel/verschiedenes/2026_Vertrags-%20und%20Reisebedingungen_S%C3%A4umerweg%20Avers.pdf\" target=\"_blank\" rel=\"noopener\">Vertrags- und Reisebedingungen</a><br><br></p><h3>Programm</h3><p><strong>1. Tag:&nbsp;</strong>Individuelle Anreise nach Thusis&nbsp;</p><p><strong>2. Tag:</strong> Wanderung Thusis &ndash; Andeer</p><p><strong>3. Tag:&nbsp;</strong>Wanderung Andeer &ndash; Innerferrera</p><p><strong>4. Tag:&nbsp;</strong>Wanderung Innerferrera &ndash; Juppa</p><p><strong>5. Tag:</strong> Wanderung Juppa &ndash; Soglio</p><p><strong>6. Tag:</strong> Wanderung Soglio &ndash; Chiavenna</p><p><strong>7. Tag:&nbsp;</strong>Individuelle R&uuml;ckreise via Spl&uuml;genpass</p><p>&nbsp;</p><h3>Gep&auml;cktransport</h3><p>Ihr Gep&auml;ck (max. 15kg) wird von Thusis bis Chiavenna mit einem Unternehmen transportiert. Von Juppa wird es direkt nach Chiavenna transportiert. F&uuml;r die Pass&uuml;berquerung, den Aufenthalt in Soglio und die Wanderung nach Chiavenna packen Sie bitte das Notwendige in Ihren Tagesrucksack (Ersatzw&auml;sche, K&ouml;rperpflege, Medikamente und Zahnb&uuml;rste).</p><p>&nbsp;</p><h3>Individuell</h3><p>M&ouml;chtest du ein abgebildetes Pauschalarrangement individuell anpassen? Gerne k&ouml;nnen wir auf verschiedenste W&uuml;nsche eingehen und das Angebot verl&auml;ngern oder verk&uuml;rzen, einen Ruhetag einplanen, nur eine Teilstrecke buchen oder Leistungen weglassen oder erg&auml;nzen.</p><p>Wir beraten dich gerne und stellen dir ein individuelles Arrangement zusammen.</p><p>&nbsp;</p><h3>R&uuml;ckreise von Chiavenna</h3><p>Die R&uuml;ckreise von Chiavenna &uuml;ber den Spl&uuml;genpass nach Thusis ist bereits in der G&auml;stekarte Via Mia Pass unter &laquo;Viamala Mobil&raquo; enthalten und muss nicht separat gebucht werden.<br>Die Heimreise ab Thusis mit den &ouml;ffentlichen Verkehrsmitteln ist inbegriffen. Von dort reist du bequem und kostenlos mit dem &ouml;ffentlichen Verkehr in der ganzen Schweiz zur&uuml;ck nach Hause.</p><p>&nbsp;</p><h3>Preise &amp; G&uuml;ltigkeit</h3><ul><li><strong>Preis pro Person:</strong> ab CHF 888.00</li><li><strong>G&uuml;ltigkeit: </strong>Anfang/Mitte Juli bis Mitte Oktober (je nach Schneeverh&auml;ltnissen)</li></ul><p>&nbsp;</p><p><strong>Kindererm&auml;ssigung</strong></p><p>Kinder bis und mit 11 Jahre im Elternzimmer erhalten 30 % Erm&auml;ssigung.</p><p>&nbsp;</p><p><strong>Optionen</strong></p><ul><li>Halbpension</li><li>Einzelzimmer</li><li>Zusatzn&auml;chte</li></ul><p>&nbsp;</p><p><strong>Vorausbuchungsfrist</strong></p><p>Das Arrangement kann bis sp&auml;testens 4 Arbeitstage (Mo-Sa) vor Anreise bei uns gebucht werden, sofern noch Zimmer verf&uuml;gbar sind. Wir empfehlen eine <strong>kurzfristige</strong> Reservation, da eine <strong>stabile Wetterlage</strong> Voraussetzung f&uuml;r die Tour ist.</p>", "url": "https://www.viamala.ch/", "image": "https://viatpimtsoch.sos-ch-dk-2.exoscale-cdn.com/catalog/6/f/7/8/6f782dc110fd426f9876d5c8dc066d2531a84eee_Alte_Averserstrasse.JPEG"}, "geometry": {"type": "Point", "coordinates": ["9.439653754234316", "46.695767424751956"]}}, {"type": "Feature", "properties": {"identifier": "69c62b17-f539-4ad8-85e8-b1364876060e", "name": "Golf & Dine in der Casa Caminada in F\u00fcrstenau", "description": "<h4><strong>Leistungen</strong></h4><ul><li>2 &Uuml;bernachtungen im Standard-Doppelzimmer inkl. Fr&uuml;hst&uuml;ck in der <a href=\"https://www.casacaminada.com/\" target=\"_blank\" rel=\"noopener\">Casa Caminada</a></li><li>Zwei 4-Gang Abendessen in der Casa Caminada</li><li>Gratis E-Bike-Verleih</li><li>Zwei Greenfees pro Person auf dem <a href=\"https://www.golfdomatems.ch/\" target=\"_blank\" rel=\"noopener\">Golfclub Domat/Ems</a> oder <a href=\"https://www.bunavistagolf.ch/\" target=\"_blank\" rel=\"noopener\">Buna Vista Golf Sagogn</a><br><br></li></ul><h4><strong>G&uuml;ltigkeit</strong></h4><p>Angebot g&uuml;ltig f&uuml;r Reservationen von April bis Oktober 2026 und jeweils buchbar von Donnerstag bis Samstag. Getr&auml;nke sind in den Pauschalpreisen nicht inbegriffen. Es gelten die <a href=\"https://static1.squarespace.com/static/5b2a2d74e2ccd1021fd92a16/t/67ba171dd342194c04084aa8/1740248861601/Genuss%2BWerkstatt%2BAG_%2BDatenschutz%2B10_2023_DE.pdf\" target=\"_blank\" rel=\"noopener\">AGBs</a> der Casa Caminada. Bereits gebuchte Greenfees k&ouml;nnen unter Umst&auml;nden nicht zur&uuml;ckerstattet werden.</p>", "url": "https://www.casacaminada.com/", "image": "https://viatpimtsoch.sos-ch-dk-2.exoscale-cdn.com/catalog/2/c/5/6/2c56fb8cd1851451bb173e86362e4c1e12c88840_golfplatz_domat_ems.jpg"}, "geometry": {"type": "Point", "coordinates": ["9.44577991962433", "46.72095746968647"]}}, {"type": "Feature", "properties": {"identifier": "6a3b0cb5-4280-4ce9-bd84-a8efb5fdc6bf", "name": "Wildtierexkursion mit H\u00fctten\u00fcbernachtung", "description": "<p>Begebt euch auf eine unvergessliche Wildtierexkursion, gef&uuml;hrt von einem erfahrenen einheimischen Ranger, der euch die Geheimnisse der Bergwelt n&auml;herbringt.</p><p>Unser exklusives Paket bietet dir und deinen Freunden die einzigartige Gelegenheit, die majest&auml;tischen Wildtiere der Alpen in Begleitung eines erfahrenen einheimischen Rangers zu erkunden. Lasst euch von den faszinierenden Sichtungen und Geschichten &uuml;ber Steinwild, G&auml;msen, Bartgeier, Adler, Murmeltiere, Bergwild und weiteren heimischen Tieren verzaubern, w&auml;hrend ihr durch atemberaubende Landschaften streift.</p><p>Nach einem aufregenden Tag in der Natur kehrt ihr zur&uuml;ck zum Maiens&auml;ss Bavugls, wo eine exklusive H&uuml;tten&uuml;bernachtung auf euch wartet. Die charmante Bergh&uuml;tte liegt in einer kleinen Bergsiedlung oberhalb Andeer in v&ouml;lliger Abgeschiedenheit.<br><br></p><h3><strong>Programm</strong></h3><p>Bereits die Anfahrt in die hoch gelegene Maiens&auml;ss Siedlung Bavugls ist ein Abenteuer. Ihr werdet mit einem Gel&auml;ndefahrzeug in Andeer abgeholt und zur H&uuml;tte gefahren. Die Bergh&uuml;tte bietet Platz bis 6 Personen. F&uuml;r die Verpflegung in der H&uuml;tte und auf der Exkursion muss selbst gesorgt werden. Es besteht keine M&ouml;glichkeit, Essen und Getr&auml;nke in der n&auml;heren Umgebung zu kaufen. Das Tagesprogramm wird auf eure W&uuml;nsche zugeschnitten.<br><br></p><h3><strong>Leistungen</strong></h3><ul><li>Transport ab Andeer mit einem Gel&auml;ndefahrzeug</li><li>Wildtierexkursion mit dem Ranger (Tagestour)</li><li>&nbsp;Individuelle &Uuml;bernachtung im Maiens&auml;ss in Bavugls 1940 m &uuml;. M.</li><li>&nbsp;Endreinigung &amp; Bettw&auml;sche<br><br></li></ul><h3><strong>Optional</strong></h3><ul><li>M&ouml;glichkeit zur Buchung von Zusatzn&auml;chten (CHF 90.00 / Nacht)</li></ul>", "url": "https://www.waldwildgmbh.ch/", "image": "https://viatpimtsoch.sos-ch-dk-2.exoscale-cdn.com/catalog/9/4/8/4/9484f0355c6063e991a7d532a9dc3fe2a6e9b8a8_steinboecke_am_piz_beverin_0.jpg"}, "geometry": {"type": "Point", "coordinates": ["9.4618997", "46.6043212"]}}, {"type": "Feature", "properties": {"identifier": "770d6bdb-2817-47b2-9c32-541d0a4cd08e", "name": "viaSpluga - Klassik", "description": "<h3><strong>Leistungen</strong></h3><ul><li>5 &Uuml;bernachtungen im Doppelzimmer mit Fr&uuml;hst&uuml;ck</li><li>4 Lunchpakete</li><li>An- und Abreise mit den &ouml;ffentlichen Verkehrsmitteln (Schweiz)</li><li>Gep&auml;cktransport von Hotel zu Hotel</li><li>G&auml;stekarte<ul><li>Freie Fahrt mit dem &ouml;ffentlichen Verkehr in der Region Viamala bis Chiavenna (IT)</li><li>Zutritt zu verschiedenen Erlebnissen entlang der viaSpluga</li></ul></li><li>Dokumentation mit Wanderkarte</li></ul><p><a href=\"https://viamala.ch/files/websites/viamala.ch/objects/prospekte-artikel/verschiedenes/2026_Vertrags-%20und%20Reisebedingungen_Mehrsprachig_DE_EN_IT.pdf\">Vertrags- und Reisebedingungen</a><br><br></p><h3><strong>Programm</strong></h3><p><strong>1. Tag:</strong> Individuelle Anreise nach Thusis</p><p><strong>2. Tag:</strong> Wanderung Thusis &ndash; Zillis oder Andeer</p><p><strong>3. Tag:</strong>&nbsp;Wanderung Zillis oder Andeer &ndash; Sufers oder Spl&uuml;gen</p><p><strong>4. Tag:</strong>&nbsp;Wanderung Sufers oder Spl&uuml;gen &ndash; Isola</p><p><strong>5. Tag:</strong>&nbsp;Wanderung Isola &ndash; Chiavenna&nbsp;</p><p><strong>6. Tag:</strong> Individuelle R&uuml;ckreise via Spl&uuml;genpass<br><br></p><h3><strong>viaSpluga - Individuell</strong></h3><p>M&ouml;chtest du ein abgebildetes Pauschalarrangement individuell anpassen? Gerne k&ouml;nnen wir auf verschiedenste W&uuml;nsche eingehen und das Angebot verl&auml;ngern oder verk&uuml;rzen, einen Ruhetag einplanen, nur eine Teilstrecke buchen oder Leistungen weglassen oder erg&auml;nzen.</p><p>Wir beraten dich gerne und stellen dir ein individuelles Arrangement zusammen.<br><br></p><h3><strong>R&uuml;ckreise von Chiavenna</strong></h3><p>Die R&uuml;ckreise von Chiavenna &uuml;ber den Spl&uuml;genpass nach Thusis ist bereits in der G&auml;stekarte <em>Via Mia Pass</em> unter &laquo;Viamala Mobil&raquo; enthalten und muss nicht separat gebucht werden.<br>Die Heimreise ab Thusis mit den &ouml;ffentlichen Verkehrsmitteln ist inbegriffen. Von dort reist du bequem und kostenlos mit dem &ouml;ffentlichen Verkehr in der ganzen Schweiz zur&uuml;ck nach Hause.<br><br></p><h3><strong>Preise &amp; G&uuml;ltigkeit</strong></h3><ul><li><strong>Preis pro Person:</strong> ab CHF 675.00</li><li><strong>G&uuml;ltigkeit:</strong> 13. Juni bis 25. Oktober 2026<br><br></li></ul><p><strong>Kindererm&auml;ssigung</strong></p><p>Kinder bis und mit 11 Jahre im Elternzimmer erhalten 30 % Erm&auml;ssigung.<br><br></p><p><strong>Optionen</strong></p><ul><li>Halbpension</li><li>Einzelzimmer</li><li>Zusatzn&auml;chte</li><li>Mitnahme von Hunden<br><br></li></ul><p><strong>Vorausbuchungsfrist</strong></p><p>Das Arrangement kann bis sp&auml;testens 3 Arbeitstage (Mo-Sa) vor Anreise bei uns gebucht werden, sofern noch Zimmer verf&uuml;gbar sind. Wir empfehlen eine fr&uuml;hzeitige Reservation.</p>", "url": "https://www.viamala.ch/", "image": "https://viatpimtsoch.sos-ch-dk-2.exoscale-cdn.com/catalog/5/e/6/1/5e61660f75e4e6879b70bfc84c0645a2d236f880_viaspluga_shooting.jpg"}, "geometry": {"type": "Point", "coordinates": ["9.439707398414612", "46.695741635368876"]}}, {"type": "Feature", "properties": {"identifier": "79b27f52-609f-4af4-a87a-c22b94c21da9", "name": "Relax & Dine in der Casa Caminada in F\u00fcrstenau", "description": "<h4><strong>Leistungen</strong></h4><ul><li>2 &Uuml;bernachtungen im Standard-Doppelzimmer inkl. Fr&uuml;hst&uuml;ck in der <a href=\"https://www.casacaminada.com\" target=\"_blank\" rel=\"noopener\">Casa Caminada</a> in F&uuml;rstenau</li><li>Willkommensgetr&auml;nk</li><li>2 x 4-Gang Abendessen in der Casa Caminada</li><li>Tageseintritt ins <a href=\"https://mineralbad-andeer.ch/\" target=\"_blank\" rel=\"noopener\">Mineralbad Andeer</a></li></ul><h4><strong>G&uuml;ltigkeit</strong></h4><p>Das Package ist ab 1. M&auml;rz 2026 buchbar, jeweils ab Sonntag bis Donnerstag.</p>", "url": "https://www.casacaminada.com/", "image": "https://viatpimtsoch.sos-ch-dk-2.exoscale-cdn.com/catalog/5/2/8/d/528de9e3f62d614e3c928f72e6ffcee32f4b54d2_mineralbad_andeer_aussenbecken_sommer.jpg"}, "geometry": {"type": "Point", "coordinates": ["9.44579601287842", "46.72098313318722"]}}, {"type": "Feature", "properties": {"identifier": "86bea03a-2ffe-4982-bfa0-8e143687ae82", "name": "Wellnessbereich \u00abLa Calma\u00bb", "description": "<p>G\u00f6nnen Sie sich eine Wellness-Auszeit im Wellnessbereich \u00abLa Calma\u00bb \u2013 ein Ort der Ruhe und Gelassenheit im Naturpark Beverin.</p>\n<p>Entspannen Sie sich nach sportlichen Aktivit\u00e4ten im Dampfbad mit lokalem Andeerer Granit, in der Sauna und im Ruheraum mit herrlichem Berg-Panorama ins Val Schons und geniessen Sie die Stille f\u00fcr Ihr \u00abbainesser\u00bb.</p>\n<p>Der Wellnessbereich \u00abLa Calma\u00bb steht den Hotel- wie auch externen G\u00e4sten zur Verf\u00fcgung.</p>\n<p>&nbsp;</p>\n<h4>Kosten</h4>\n<p><strong>Erwachsene/Jugendliche ab 16 Jahren (extern):</strong>&nbsp;CHF 20.00</p>\n<p><strong>10-er Abonnement:</strong>&nbsp;CHF 180.00</p>", "url": "https://www.capricorns.ch", "image": "https://viatpimtsoch.sos-ch-dk-2.exoscale-cdn.com/catalog/9/1/3/a/913a93a1b9c77702a0b18168ea1b960b938cb569_sauna_wellnessbereich_la_calma_capricorns_wergenstein.jpg", "openstreetmap_id": "node/3929077482"}, "geometry": {"type": "Point", "coordinates": ["9.407385438680649", "46.626237473292754"]}}, {"type": "Feature", "properties": {"identifier": "8a3bdb6c-ade2-4e0a-909a-fe8462666c19", "name": "Romantisches Wellness- und Genuss-Weekend im Gasthaus Alpina", "description": "<p>Ab 15 Uhr werden die G&auml;ste mit einem Glas Prosecco begr&uuml;sst. Ab 16 Uhr kann das Paar den kleinen Wellness-Bereich exklusiv nutzen. Die <a href=\"https://www.gasthaus-alpina.ch/wellness\" target=\"_blank\" rel=\"noopener\">Fass-Sauna und das Badefass</a> (Hotpot) stehen den G&auml;sten ohne weitere Anwesende zur Verf&uuml;gung. Der neue beheizte Pool (nur in den Sommermonaten) darf auch von anderen G&auml;sten genutzt werden. Als besonderes Highlight wird im Hotpot ein Glas B&uuml;ndner Weisswein und ein Flammkuchen serviert. Ab 19 Uhr werden die G&auml;ste in der B&uuml;ndner Stube mit einem regionalen 4-Gang &Uuml;berraschungsmen&uuml; mit lokalen K&ouml;stlichkeiten verw&ouml;hnt. Nach einer erholsamen Nacht im urgem&uuml;tlichen Doppelzimmer erwartet die G&auml;ste ein reichhaltiges Fr&uuml;hst&uuml;cksbuffet mit vielen regionalen Produkten.<br><br></p><h4>Leistungen</h4><ul><li>&Uuml;bernachtung in einem gem&uuml;tlichen Doppelzimmer</li><li>Ein reichhaltiges Fr&uuml;hst&uuml;cksbuffet mit vielen regionalen Produkten</li><li>Willkommens-C&uuml;pli</li><li>Exklusive Entspannung im <a href=\"https://www.gasthaus-alpina.ch/wellness\">Whirlpool und in der Fasssauna</a></li><li>Ben&uuml;tzung des beheizten Aussenpools (nur in den Sommermonaten)</li><li>Miete von Badem&auml;nteln und Hausschuhen</li><li>B&uuml;ndner Weisswein &amp; Flammkuchen im Hotpot</li><li>4-Gang-&Uuml;berraschungsmen&uuml; am Abend</li><li>Freier Eintritt in den Streichelzoo</li><li>Kostenloses WLAN im ganzen Haus</li><li>Kostenlose Parkpl&auml;tze</li></ul>", "url": "https://www.gasthaus-alpina.ch", "image": "https://viatpimtsoch.sos-ch-dk-2.exoscale-cdn.com/catalog/9/3/4/b/934b0616bcf066d074896b7b0261a280f8166ccc_Romantisches_Wellness__und_Genuss_Weekend_im_Gasthaus_Alpina.jpg"}, "geometry": {"type": "Point", "coordinates": ["9.3884838", "46.6877507"]}}, {"type": "Feature", "properties": {"identifier": "8d7dc6b2-fa67-444f-a6f4-a3704430efa1", "name": "Wellness-Auszeit im Hotel Capricorns in Wergenstein", "description": "<h3>Leistungen</h3><ul><li>2 &Uuml;bernachtungen im Doppelzimmer Piz Grisch im&nbsp;<a href=\"https://capricorns.ch/\" target=\"_blank\" rel=\"noopener\">Hotel Capricorns in Wergenstein</a></li><li>Willkommensc&uuml;pli</li><li>Genussvolles 4-Gang Znacht (exkl. Getr&auml;nke)</li><li>Reichhaltiges und regionales Zmorge-Buffet</li><li>1 Eintritt ins&nbsp;<a href=\"https://mineralbad-andeer.ch/\" target=\"_blank\" rel=\"noopener\">Mineralbad Andeer</a></li><li>Naturpark-Severin Ganzk&ouml;rper-Massage im Mineralbad Andeer (auf Anmeldung)</li><li>Wellnessbereich &laquo;La Calma&raquo; zur freien Nutzung</li><li>Capricorns Wellnessgeschenk</li><li>WLAN</li><li>Aussenparkplatz</li></ul>", "url": "https://capricorns.ch/", "image": "https://viatpimtsoch.sos-ch-dk-2.exoscale-cdn.com/catalog/1/0/4/e/104e28883e16a33557529e0fed5d93751ca7afe0_sauna_wellnessbereich_la_calma_capricorns_wergenstein.jpg"}, "geometry": {"type": "Point", "coordinates": ["9.4075071", "46.6262957"]}}, {"type": "Feature", "properties": {"identifier": "901f82c2-8073-4561-82ff-f8341631c2be", "name": "S\u00e4umerweg Avers via Cr\u00f6t", "description": "<h3>Leistungen</h3><ul><li>5 &Uuml;bernachtungen im Doppelzimmer mit Fr&uuml;hst&uuml;ck</li><li>4 Lunchpakete</li><li>An- und Abreise mit den &ouml;ffentlichen Verkehrsmitteln (Schweiz)</li><li>Gep&auml;cktransport von Hotel zu Hotel</li><li>G&auml;stekarte<ul><li>Freie Fahrt mit dem &ouml;ffentlichen Verkehr in der Region Viamala bis Chiavenna (IT)</li><li>Zutritt zu verschiedenen Erlebnissen entlang des S&auml;umerwegs Avers</li></ul></li><li>Soglio-Produkt \"Valser-Balsam\"</li></ul><p><a href=\"https://viamala.ch/files/websites/viamala.ch/objects/prospekte-artikel/verschiedenes/2026_Vertrags-%20und%20Reisebedingungen_S%C3%A4umerweg%20Avers.pdf\" target=\"_blank\" rel=\"noopener\">Vertrags- und Reisebedingungen</a><br><br></p><h3>Programm</h3><p><strong>1. Tag:&nbsp;</strong>Individuelle Anreise nach Thusis&nbsp;</p><p><strong>2. Tag:</strong> Wanderung Thusis &ndash; Andeer</p><p><strong>3. Tag:&nbsp;</strong>Wanderung Andeer &ndash; Cr&ouml;t</p><p><strong>4. Tag:&nbsp;</strong>Wanderung Cr&ouml;t &ndash; Soglio</p><p><strong>5. Tag:</strong> Wanderung Soglio &ndash; Chiavenna</p><p><strong>6. Tag:</strong> Individuelle R&uuml;ckreise via Spl&uuml;genpass</p><p>&nbsp;</p><h3>Gep&auml;cktransport</h3><p>Ihr Gep&auml;ck (max. 15kg) wird von Thusis bis Chiavenna mit einem Unternehmen transportiert. Von Cr&ouml;t wird es direkt nach Chiavenna transportiert. F&uuml;r die Pass&uuml;berquerung, den Aufenthalt in Soglio und die Wanderung nach Chiavenna packen Sie bitte das Notwendige in Ihren Tagesrucksack (Ersatzw&auml;sche, K&ouml;rperpflege, Medikamente und Zahnb&uuml;rste).</p><p>&nbsp;</p><h3>Individuell</h3><p>M&ouml;chtest du ein abgebildetes Pauschalarrangement individuell anpassen? Gerne k&ouml;nnen wir auf verschiedenste W&uuml;nsche eingehen und das Angebot verl&auml;ngern oder verk&uuml;rzen, einen Ruhetag einplanen, nur eine Teilstrecke buchen oder Leistungen weglassen oder erg&auml;nzen.</p><p>Wir beraten dich gerne und stellen dir ein individuelles Arrangement zusammen.</p><p>&nbsp;</p><h3>R&uuml;ckreise von Chiavenna</h3><p>Die R&uuml;ckreise von Chiavenna &uuml;ber den Spl&uuml;genpass nach Thusis ist bereits in der G&auml;stekarte Via Mia Pass unter &laquo;Viamala Mobil&raquo; enthalten und muss nicht separat gebucht werden.<br>Die Heimreise ab Thusis mit den &ouml;ffentlichen Verkehrsmitteln ist inbegriffen. Von dort reist du bequem und kostenlos mit dem &ouml;ffentlichen Verkehr in der ganzen Schweiz zur&uuml;ck nach Hause.</p><p>&nbsp;</p><h3>Preise &amp; G&uuml;ltigkeit</h3><ul><li><strong>Preis pro Person:</strong> ab CHF 790.00</li><li><strong>G&uuml;ltigkeit: </strong>Anfang/Mitte Juli bis Mitte Oktober (je nach Schneeverh&auml;ltnissen)</li></ul><p>&nbsp;</p><p><strong>Kindererm&auml;ssigung</strong></p><p>Kinder bis und mit 11 Jahre im Elternzimmer erhalten 30 % Erm&auml;ssigung.</p><p>&nbsp;</p><p><strong>Optionen</strong></p><ul><li>Halbpension</li><li>Einzelzimmer</li><li>Zusatzn&auml;chte</li></ul><p>&nbsp;</p><p><strong>Vorausbuchungsfrist</strong></p><p>Das Arrangement kann bis sp&auml;testens 4 Arbeitstage (Mo-Sa) vor Anreise bei uns gebucht werden, sofern noch Zimmer verf&uuml;gbar sind. Wir empfehlen eine <strong>kurzfristige</strong> Reservation, da eine <strong>stabile Wetterlage</strong> Voraussetzung f&uuml;r die Tour ist.</p>", "url": "https://www.viamala.ch/", "image": "https://viatpimtsoch.sos-ch-dk-2.exoscale-cdn.com/catalog/2/b/2/7/2b27cb1b403bb928025ae76a7bb556fd4541c5c1_Alte_Averserstrasse.JPEG"}, "geometry": {"type": "Point", "coordinates": ["9.439653754234316", "46.695767424751956"]}}, {"type": "Feature", "properties": {"identifier": "ac70c387-4a09-4aa3-9295-6b8da53ad37a", "name": "Guida Viamala - Gef\u00fchrte Wanderung durch das Verlorna Loch", "description": "<p>Die Wanderung beginnt in Thusis und f&uuml;hrt am Nordportal des Sicherheitsstollens des Crapteigtunnels vorbei. Dort l&auml;sst der instand gestellte B&uuml;ndnerzaun mit Steinstelen erahnen, dass hier ein besonderes Bauwerk beginnt. Vorbei am ehemaligen Wegmachergeb&auml;ude (erbaut vor 1890) geht die Wanderung sanft bergauf. Den Brunnen und Gedenkstein an denen wir vorbeikommen, erl&auml;utern wir, und erreichen die Stelle vor dem K&auml;nzeli, die in den Jahren 2020-2023 baulich saniert wurde. Das K&auml;nzeli mit Blick in die Tiefe und nach Hohen R&auml;tien zeigt uns, dass die Ingenieure eine Strasse erbauen wollten, die sch&ouml;n und landschaftlich reizvoll sein sollte und die Deutschland und Italien auf beinahe k&uuml;rzestem Weg verbindet, nicht nur f&uuml;r Warentransporte, sondern auch f&uuml;r Reisende. Nach dem K&auml;nzeli durchschreiten wir einen kurzen Tunnel &ndash; f&uuml;r damals eine Sensation. Nach dem Tunnel f&uuml;hrt die Strasse eingeschnitten in den Felsen entlang der senkrechten hohen Schluchtwand, die einem noch heute erschaudern l&auml;sst, nach Rongellen.<br><br></p><h3><strong>Dauer</strong></h3><p>Die F&uuml;hrung dauert 1.5 bis 2 Stunden und die Wanderdistanz betr&auml;gt 2.1 Kilometer.<br><br></p><h3><strong>Gruppen</strong></h3><p>F&uuml;r Gruppen ist die gef&uuml;hrte Wanderung auf Anfrage &uuml;ber Viamala Tourismus buchbar.</p>", "url": "https://www.viamala.ch", "image": "https://viatpimtsoch.sos-ch-dk-2.exoscale-cdn.com/catalog/e/5/1/d/e51da380f78d7275c868b060b18c7e526a9fc7d4_verlorna_loch_rongellen_thusis_viamala_tourismus.jpg", "openstreetmap_id": "way/105664814"}, "geometry": {"type": "Point", "coordinates": ["9.439846", "46.693582"]}}, {"type": "Feature", "properties": {"identifier": "af8d1025-2c70-4dcb-bd7b-cbca61761fbc", "name": "Fasssauna-Erlebnis im Hotel Bergalga", "description": "<p>Nach einem Tag im Schnee ist ein Saunabesuch ein Erlebnis und eine Wohltat f&uuml;r K&ouml;rper und Seele. Entschleunigung heisst unser Zauberwort. G&ouml;nnen Sie sich Zeit zur Entspannung und um neue Kraft zu tanken.</p>\n<p>Es sind auch G&auml;ste willkommen, die nicht im Hotel Bergalga &uuml;bernachten.</p>\n<ul>\n<li><strong>Mietdauer:</strong> 1.5 h</li>\n<li><strong>Belegung:</strong> maximal 4 Personen</li>\n<li><strong>Eintritt:</strong> CHF 10.00 pro&nbsp;Person</li>\n<li><strong>Bademantel:</strong>&nbsp;CHF&nbsp;5.00 Leihgeb&uuml;hr</li>\n</ul>", "url": "https://bergalga.ch", "image": "https://viatpimtsoch.sos-ch-dk-2.exoscale-cdn.com/catalog/6/8/a/0/68a06b2f553257a66f0d988706d44c6106ffd5ae_das_bergalga_saunafass.jpg", "openstreetmap_id": "node/3028837057"}, "geometry": {"type": "Point", "coordinates": ["9.553865", "46.44992"]}}, {"type": "Feature", "properties": {"identifier": "c423d4bc-1bb4-4943-b77f-986780035185", "name": "viaSpluga - Montespluga", "description": "<h3><strong>Leistungen</strong></h3><ul><li>6 &Uuml;bernachtungen im Doppelzimmer mit Fr&uuml;hst&uuml;ck</li><li>5 Lunchpakete</li><li>An- und Abreise mit den &ouml;ffentlichen Verkehrsmitteln (Schweiz)</li><li>Gep&auml;cktransport von Hotel zu Hotel</li><li>G&auml;stekarte<br>- Freie Fahrt mit dem &ouml;ffentlichen Verkehr in der Region Viamala bis Chiavenna (IT)<br>- Zutritt zu verschiedenen Erlebnissen entlang der viaSpluga</li><li>Dokumentation mit Wanderkarte</li></ul><p><a href=\"https://viamala.ch/files/websites/viamala.ch/objects/prospekte-artikel/verschiedenes/2026_Vertrags-%20und%20Reisebedingungen_Mehrsprachig_DE_EN_IT.pdf\" target=\"_blank\" rel=\"noopener\">Vertrags- und Reisebedingungen</a><br><br></p><h3><strong>Programm</strong></h3><p><strong>1. Tag:</strong>&nbsp;Individuelle Anreise nach Thusis&nbsp;</p><p><strong>2. Tag:</strong> Wanderung Thusis &ndash; Zillis oder Andeer</p><p><strong>3. Tag:</strong>&nbsp;Wanderung Zillis oder Andeer &ndash; Sufers oder Spl&uuml;gen</p><p><strong>4. Tag:</strong>&nbsp;Wanderung Sufers oder Spl&uuml;gen &ndash; Montespluga</p><p><strong>5. Tag:</strong>&nbsp;Wanderung Montespluga &ndash; Campodolcino</p><p><strong>6. Tag:</strong>&nbsp;Wanderung Campodolcino &ndash; Chiavenna</p><p><strong>7. Tag:</strong> Individuelle R&uuml;ckreise via Spl&uuml;genpass<br><br></p><h3><strong>viaSpluga - Individuell</strong></h3><p>M&ouml;chtest du ein abgebildetes Pauschalarrangement individuell anpassen? Gerne k&ouml;nnen wir auf verschiedenste W&uuml;nsche eingehen und das Angebot verl&auml;ngern oder verk&uuml;rzen, einen Ruhetag einplanen, nur eine Teilstrecke buchen oder Leistungen weglassen oder erg&auml;nzen.</p><p>Wir beraten dich gerne und stellen dir ein individuelles Arrangement zusammen.<br><br></p><h3><strong>R&uuml;ckreise von Chiavenna</strong></h3><p>Die R&uuml;ckreise von Chiavenna &uuml;ber den Spl&uuml;genpass nach Thusis ist bereits in der G&auml;stekarte <em>Via Mia Pass</em> unter &laquo;Viamala Mobil&raquo; enthalten und muss nicht separat gebucht werden.<br>Die Heimreise ab Thusis mit den &ouml;ffentlichen Verkehrsmitteln ist inbegriffen. Von dort reist du bequem und kostenlos mit dem &ouml;ffentlichen Verkehr in der ganzen Schweiz zur&uuml;ck nach Hause.<br><br></p><h3><strong>Preise &amp; G&uuml;ltigkeit</strong></h3><ul><li><strong>Preis pro Person:</strong> ab CHF 809.00</li><li><strong>G&uuml;ltigkeit:</strong>&nbsp;13. Juni bis 25. Oktober 2026<br><br></li></ul><p><strong>Kindererm&auml;ssigung</strong></p><p>Kinder bis und mit 11 Jahre im Elternzimmer erhalten 30 % Erm&auml;ssigung.<br><br></p><p><strong>Optionen</strong></p><ul><li>Halbpension</li><li>Einzelzimmer</li><li>Zusatzn&auml;chte<br><br></li></ul><p><strong>Vorausbuchungsfrist</strong></p><p>Das Arrangement kann bis sp&auml;testens 3 Arbeitstage (Mo-Sa) vor Anreise bei uns gebucht werden, sofern noch Zimmer verf&uuml;gbar sind. Wir empfehlen eine fr&uuml;hzeitige Reservation.</p>", "url": "https://www.viamala.ch/", "image": "https://viatpimtsoch.sos-ch-dk-2.exoscale-cdn.com/catalog/9/6/4/0/9640ff35add41037a745caa7fab081cd6b0d6930_viaspluga_weitwanderweg_wanderweg.jpg"}, "geometry": {"type": "Point", "coordinates": ["9.439707398414612", "46.695741635368876"]}}, {"type": "Feature", "properties": {"identifier": "cd4987ca-5e06-47b1-872d-f5ee513a701b", "name": "Golf-Genuss im Hotel Weiss Kreuz Thusis", "description": "<p>Golfen mit Bergblick ist ein besonderer Hochgenuss. Profitieren Sie von exklusiven Verg&uuml;nstigungen auf den Golfanlagen&nbsp;<a href=\"https://golf-alvaneu.ch/\" target=\"_blank\" rel=\"noopener\">Alvaneu</a> und <a href=\"https://golflenzerheide.ch/\" target=\"_blank\" rel=\"noopener\">Lenzerheide</a>&nbsp;und geniessen Sie die technische Vielfalt unserer Golf-Region.<br><br></p><h3>Leistungen</h3><ul><li>Eine &Uuml;bernachtung inklusive reichhaltigem Fr&uuml;hst&uuml;cksbuffet</li><li>Genuss-Halbpension</li><li>Green Fee f&uuml;r den Golfclub Alvaneu Bad oder Lenzerheide</li><li>Ein Glas Franciacorta um auf ein wunderbares Golferlebnis anzustossen</li></ul>", "url": "https://weisskreuz.ch/de/", "image": "https://viatpimtsoch.sos-ch-dk-2.exoscale-cdn.com/catalog/8/5/b/8/85b8d56629238b460795d0adc7048cd94220a056_golfplatz_golfclub_alvaneu_keyvisual_golfen.jpg"}, "geometry": {"type": "Point", "coordinates": ["9.43982512622237", "46.6958969"]}}, {"type": "Feature", "properties": {"identifier": "d5fc5c7d-eef3-405d-9876-bf5b6acff4c0", "name": "Wanderpackage \u00abNaturpark Beverin\u00bb in Wergenstein", "description": "<p>Das Wanderpackage verbindet gem&uuml;tliche Hotelmomente im Hotel Capricorns mit einem authentischen Erlebnis auf der Alp Nurdagn &ndash; ideal f&uuml;r alle, die Bergwiesen, Maiens&auml;sse und hochalpine Landschaften aktiv entdecken m&ouml;chten.</p><h4><strong>Leistungen Hotel Capricorns</strong></h4><ul><li>1 &Uuml;bernachtung im Doppelzimmer Piz Grisch im <a href=\"https://capricorns.ch/\">Hotel Capricorns in Wergenstein</a></li><li>Willkommens-Ap&eacute;ro</li><li>genussvolles 4-Gang Abendessen (exkl. Getr&auml;nke)</li><li>reichhaltiges, regionales Fr&uuml;hst&uuml;cks-Buffet</li><li>Lunchpaket f&uuml;r zwei Wandertage</li><li>Kultur- und Landschaftsf&uuml;hrer Piz Beverin</li><li><a href=\"https://viamala.ch/map/poi/wellnessbereich-la-calma-86bea03a-2ffe-4982-bfa0-8e143687ae82.html\" target=\"_blank\" rel=\"noopener\">Wellnessbereich La Calma</a> zur freien Nutzung</li><li>WLAN</li><li>Gratisparkplatz (Aussenparkplatz) f&uuml;r die gesamte Dauer des Packages</li></ul><h4><strong>Leistungen <a href=\"https://viamala.ch/buchen/unterkuenfte/agrotourismus/alp-nurdagn.html\" target=\"_blank\" rel=\"noopener\">Agrotourismus Alp Nurdagn</a></strong></h4><ul><li>1 &Uuml;bernachtung im Massenlager auf 2261 m &uuml;. M.</li><li>3-Gang &Auml;lpler-Znacht (exkl. Getr&auml;nke)</li><li>Einfaches &Auml;lpler-Zmorge</li></ul><h4><strong>G&uuml;ltigkeit</strong></h4><p>Das Angebot ist von Mitte Juni bis Ende September buchbar.</p>", "url": "https://capricorns.ch/", "image": "https://viatpimtsoch.sos-ch-dk-2.exoscale-cdn.com/catalog/d/4/0/a/d40a886945b9b51692ee6932a55bd1e4fb735da2_alp_nurdagn_bnb_moorlandschaft_anarosa_schamserberg_frank_buederli.jpg"}, "geometry": {"type": "Point", "coordinates": ["9.407402873039247", "46.626297786637366"]}}, {"type": "Feature", "properties": {"identifier": "d92a917a-5211-44f9-8b4b-33bffc8a649b", "name": "Auf Isl\u00e4ndern durch Spl\u00fcgen reiten", "description": "F\u00fcr Kinder, Jugendliche und Erwachsene ein einmaliges Erlebnis mit den \u00e4usserst sympathischen Vierbeinern und ihrer Besitzerin.", "image": "https://viatpimtsoch.sos-ch-dk-2.exoscale-cdn.com/catalog/c/2/9/0/c2905c5c5646f2125401d49e115cc885427c2aae_auf_islaendern_durch_spluegen.jpg"}, "geometry": {"type": "Point", "coordinates": ["9.325477480888368", "46.55383983678612"]}}, {"type": "Feature", "properties": {"identifier": "e794b1ac-8a3a-48d9-b66b-765f1e17b4bf", "name": "Drei f\u00fcr Zwei im Hotel Capricorns in Wergenstein", "description": "<h3>Leistungen</h3><ul><li>3 \u00dcbernachtungen im Doppelzimmer Piz Grisch im <a href=\"https://capricorns.ch/\" target=\"_blank\">Hotel Capricorns in Wergenstein</a></li><li>Reichhaltiges und regionales Buffet-Zmorge</li><li><a href=\"https://capricorns.ch/de/wellnessbereich-la-calma/\" target=\"_blank\">Wellnessbereich La Calma</a> zur freien Nutzung</li><li>20% Rabatt auf den Eintritt ins <a href=\"https://mineralbad-andeer.ch/\" target=\"_blank\">Mineralbad Andeer</a></li><li>WLAN</li><li>Aussenparkplatz</li></ul>", "url": "https://capricorns.ch/", "image": "https://viatpimtsoch.sos-ch-dk-2.exoscale-cdn.com/catalog/5/0/b/8/50b869db515c8eb07f76b6d4f8fc197cbbd9ed61_hotel_restaurant_capricorns_wergenstein_dolores_rupa.jpg"}, "geometry": {"type": "Point", "coordinates": ["9.407451152801515", "46.626294338103044"]}}, {"type": "Feature", "properties": {"identifier": "ecd1e6bf-e3bd-4ce9-9fd9-8eacd6927966", "name": "viaCapricorn", "description": "<h3>Leistungen</h3><ul><li>4 &Uuml;bernachtungen im Doppelzimmer mit Fr&uuml;hst&uuml;ck</li><li>1 Halbpension (Safiental-Turrahus)</li><li>3 Lunchpakete</li><li>Willkommens Ap&eacute;ro in Wergenstein</li><li>An- und Abreise mit den &ouml;ffentlichen Verkehrsmitteln (Schweiz)</li><li>G&auml;stekarte<br>- Freie Fahrt mit dem &ouml;ffentlichen Verkehr in der Region Viamala<br>- Zutritt zu verschiedenen Erlebnissen in der Region Viamala</li><li>Wanderdokumentation (Wanderkarte Safiental &ndash; 1:50&lsquo;000, Kultur- und Landschaftsf&uuml;hrer NPB)</li></ul><p><a href=\"https://viamala.ch/files/websites/viamala.ch/assets/viaspluga/S%C3%A4umerwerg/2026_Vertrags-%20und%20Reisebedingungen_viaCapricorn.pdf\" target=\"_blank\" rel=\"noopener\">Vertrags- und Reisebedingungen</a><br><br></p><h3>Programm</h3><p><strong>1. Tag:&nbsp;</strong>Individuelle Anreise nach Wergenstein</p><p><strong>2. Tag:</strong>&nbsp;Wanderung Wergenstein - Glaspass</p><p><strong>3. Tag:&nbsp;</strong>Wanderung Glaspass - Turrahus</p><p><strong>4. Tag:&nbsp;</strong>Wanderung Turrahus - Wergenstein</p><p><strong>5. Tag:&nbsp;</strong>Individuelle Heimreise<br><br></p><h3>viaCapricorn - Individuell</h3><p>M&ouml;chtest du das oben aufgef&uuml;hrte Pauschalarrangement individuell anpassen? Gerne k&ouml;nnen wir auf verschiedenste W&uuml;nsche eingehen und das Angebot verl&auml;ngern oder verk&uuml;rzen, einen Ruhetag einplanen oder Leistungen weglassen.</p><p>Wir beraten dich gerne und stellen dir ein individuelles Arrangement zusammen.<br><br></p><h3>Preise &amp; G&uuml;ltigkeit</h3><ul><li><strong>Preis pro Person:</strong> ab CHF 556.00</li><li><strong>G&uuml;ltigkeit:&nbsp;</strong>Juli bis Oktober 2026 (je nach Schneeverh&auml;ltnissen)<br><br></li></ul><p><strong>Optionen</strong></p><ul><li>Halbpension</li><li>Einzelzimmer</li><li>Mitnahme von Hunden<br><br></li></ul><p><strong>Vorausbuchungsfrist</strong></p><p>Das Arrangement kann bis sp&auml;testens 4 Arbeitstage (Mo-Sa) vor Anreise bei uns gebucht werden, sofern noch Zimmer verf&uuml;gbar sind. Wir empfehlen eine <strong>kurzfristige </strong>Reservation, da eine <strong>stabile Wetterlage</strong> Voraussetzung f&uuml;r die Tour ist.</p>", "image": "https://viatpimtsoch.sos-ch-dk-2.exoscale-cdn.com/catalog/c/e/f/b/cefb74837b98280e81965ddc3492b432d8543b80_DSC_5922.jpg"}, "geometry": {"type": "Point", "coordinates": ["9.439653754234316", "46.695767424751956"]}}, {"type": "Feature", "properties": {"identifier": "fb588193-52fe-4b40-b579-3503df767b5a", "name": "Walserweg Graub\u00fcnden, Thusis - Mulegns", "description": "<h3>Komfort in den &Uuml;bernachtungsorten</h3><ul><li><strong>Thusis:&nbsp;</strong>Zimmer mit Bad</li><li><strong>Obermutten:</strong>&nbsp;Zimmer mit Bad</li><li><strong>Andeer:</strong>&nbsp;Zimmer mit Bad inkl. Bade-Eintritt 3h</li><li><strong>Innerferrera:</strong>&nbsp;Zimmer mit Bad /&nbsp; <strong>Ausserferrera:</strong> Zimmer mit Etagenbad</li><li><strong>Avers Juppa:</strong>&nbsp;Zimmer mit Bad</li></ul><h3>Programm</h3><p><strong>Tag 1</strong><br>Individuelle Anreise in das kleine St&auml;dtchen Thusis am Eingangstor zur ber&uuml;hmten Viamala-Schlucht, wo Sie nach einem feinen Abendessen die erste Nacht verbringen.</p><p><strong>Tag 2</strong><br>Thusis - Carschenna - Crocs - Obermutten Wanderzeit ca. 5.5 Stunden</p><p><strong>Tag 3</strong><br>Obermutten - Samest - Zillis - Andeer Wanderzeit ca. 4 Stunden</p><p><strong>Tag 4</strong><br>Andeer -Rofflaschlucht - lnnerferrera Wanderzeit ca. 4.5 Stunden</p><p><strong>Tag 5</strong><br>lnnerferrera - Campsut - Cr&ouml;t - Avers Juf Wanderzeit ca. 6 Stunden</p><p><strong>Tag 6</strong><br>Avers Juf - Stallerberg - Fallerfurgga - Tga Faller - Mulegns - Alp Flix Wanderzeit ca. 5.5 Stunden</p><p>Die markierten Wanderwege sind durchgehend mit der Routen-Nummer 35 signalisiert.<br><br></p><h3><strong>Leistungen</strong></h3><ul><li>5 &Uuml;bernachtungen mit Abendessen und Fr&uuml;hst&uuml;ck, wo m&ouml;glich mit regionalen Produkten</li><li>5&times; Tagesproviant</li><li>5&times; Gep&auml;cktransport zwischen den Etappenorten</li><li>Buch &laquo;Walserweg Graub&uuml;nden&raquo; von Irene Schuler, herausgegeben vom Rotpunktverlag, 5. Auflage</li><li>Reisedokumentation mit wertvollen Tipps und Vouchern</li><li>Zus&auml;tzlich bestellbar: &Ouml;V-Ticket: Mulegns - Thusis, pro Person CHF 14.-<br><br></li></ul><p><strong>Preis:</strong> Einzelperson, Jugendliche und Kinder auf Anfrage.</p><p>Zusatzn&auml;chte w&auml;hrend oder am Ende der Tour auf Anfrage m&ouml;glich.</p><p>Auch Hunde sind herzlich willkommen.</p>", "url": "https://www.walserweg.ch/", "image": "https://viatpimtsoch.sos-ch-dk-2.exoscale-cdn.com/catalog/5/2/6/1/52615164da890a8129285fe1223d71bcde8aa8fc_Avers_im_Sommer_Wegweiser.jpg"}, "geometry": {"type": "Point", "coordinates": ["9.439492821693422", "46.69598465616598"]}}]}