{"type": "FeatureCollection", "features": [{"type": "Feature", "properties": {"identifier": "075f60a0-8bca-4d5a-ab88-ecf819d889e2", "name": "Avers - Juppa Richtung Cavetta", "image": "https://viatpimtsoch.sos-ch-dk-2.exoscale-cdn.com/catalog/b/1/0/9/b1094ccd0170b0de2d270fb5c2c7185061b2a6b8_avers_juppa_skilift_winter_demateo.jpg", "openstreetmap_id": "node/2335598005"}, "geometry": {"type": "Point", "coordinates": ["9.553771018981935", "46.45135564677528"]}}, {"type": "Feature", "properties": {"identifier": "0760d5e1-8532-41a5-9756-0f0204df2a57", "name": "Andeer - Richtung S\u00fcden", "image": "https://viatpimtsoch.sos-ch-dk-2.exoscale-cdn.com/catalog/f/8/f/3/f8f3f3507b1888eeb3d0bc6d1e3d40680caf96d9_andeer_im_winter_schams_viamala_tourismus_1.jpg", "openstreetmap_id": "node/2238796065"}, "geometry": {"type": "Point", "coordinates": ["9.426183700561523", "46.60504815751617"]}}, {"type": "Feature", "properties": {"identifier": "153b8af0-c79b-446d-a1c2-20bc063130e6", "name": "Valle di Lei - KHR Staumauer", "image": "https://viatpimtsoch.sos-ch-dk-2.exoscale-cdn.com/catalog/a/f/1/4/af1456ea029f40d57aa2667ada0b38c1726757f9_staumauer_und_stausee_valle_di_lei_viamala_tourismus.jpg", "openstreetmap_id": "way/365808667"}, "geometry": {"type": "Point", "coordinates": ["9.456835985183718", "46.4835891691578"]}}, {"type": "Feature", "properties": {"identifier": "23dcfeb8-6e3e-4d83-a5fe-38c96dfb91f5", "name": "Feldis - Richtung Casealas", "image": "https://viatpimtsoch.sos-ch-dk-2.exoscale-cdn.com/catalog/4/e/f/c/4efc80daf8411bab3754a0a3c58c9e96b16854e7_feldis_dorf_im_winter.jpg", "openstreetmap_id": "node/240035995"}, "geometry": {"type": "Point", "coordinates": ["9.43132281303406", "46.793288241230684"]}}, {"type": "Feature", "properties": {"identifier": "39e51482-190b-4d1c-aada-ecf9c9621a10", "name": "Obergmeind - Richtung Piz Beverin", "image": "https://viatpimtsoch.sos-ch-dk-2.exoscale-cdn.com/catalog/f/0/7/f/f07f2da697557ca7bade5d4911778e0bec2e7e82_obergemeind_skipiste_skilifte_tschappina_winter_demateo.jpg", "openstreetmap_id": "way/1043475493"}, "geometry": {"type": "Point", "coordinates": ["9.359359990848187", "46.69092448692598"]}}, {"type": "Feature", "properties": {"identifier": "51f23c97-431b-4d63-9072-b8b243bc3985", "name": "Andeer - Richtung Norden", "image": "https://viatpimtsoch.sos-ch-dk-2.exoscale-cdn.com/catalog/0/f/e/6/0fe6c6eea4d04345bc7de3750e9752b48e622a9c_andeer_mit_hotel_fravi_und_reformierte_kirche_im_winter_viamala_tourismus.jpg", "openstreetmap_id": "node/2238796065"}, "geometry": {"type": "Point", "coordinates": ["9.426178336143495", "46.60512550789521"]}}, {"type": "Feature", "properties": {"identifier": "53694ef8-18d3-4b5d-8eee-18313553784b", "name": "Avers - Juf Westen", "image": "https://viatpimtsoch.sos-ch-dk-2.exoscale-cdn.com/catalog/3/b/1/c/3b1c09eed569f0ab573ee5cb9bfc6e0f73b12b93_gasthaus_alpenrose_im_winter_1.jpg", "openstreetmap_id": "node/6329310381"}, "geometry": {"type": "Point", "coordinates": ["9.580013751983644", "46.44552356536379"]}}, {"type": "Feature", "properties": {"identifier": "6fd68e81-1b24-42cd-90b6-d35ce584d94b", "name": "Wergenstein", "image": "https://viatpimtsoch.sos-ch-dk-2.exoscale-cdn.com/catalog/a/3/9/8/a398728e39348ea3bafc6ffb104d45494b2f8450_center_da_capricorns_hotel_restaurant_capricorns_wergenstein_winter_dolores_rupa.jpg", "openstreetmap_id": "node/3929077482"}, "geometry": {"type": "Point", "coordinates": ["9.4075071", "46.6262957"]}}, {"type": "Feature", "properties": {"identifier": "7226e8a6-e021-445b-83ef-60c2799a25f5", "name": "Sarn - Mittelstation Dultschinas", "image": "https://viatpimtsoch.sos-ch-dk-2.exoscale-cdn.com/catalog/4/9/3/b/493b3049b8dfba9631d5dc58348fe7c630cda8e7_bergrestaurant_dultschinas_sarn_winter_demateo.jpg", "openstreetmap_id": "node/12197050661"}, "geometry": {"type": "Point", "coordinates": ["9.384008646011354", "46.7242969076248"]}}, {"type": "Feature", "properties": {"identifier": "739a47a4-c071-4e09-9646-d2cecb7b6a60", "name": "Obermutten - Muttner Horn", "image": "https://viatpimtsoch.sos-ch-dk-2.exoscale-cdn.com/catalog/4/6/0/1/4601e95e42db2377f84685d50f23215a86309d40_gasthaus_post_obermutten_winter.jpg", "openstreetmap_id": "way/363535765"}, "geometry": {"type": "Point", "coordinates": ["9.484671950340273", "46.67324172331749"]}}, {"type": "Feature", "properties": {"identifier": "7428e0d7-df2c-42b6-adb3-c3eba0fc94fe", "name": "Sufers - KHR Stausee", "image": "https://viatpimtsoch.sos-ch-dk-2.exoscale-cdn.com/catalog/2/9/8/8/29884e9f5e7b0c06349253f590b1e3a056985574_sufers_dorf_im_winter_demateo.jpg", "openstreetmap_id": "relation/1684178"}, "geometry": {"type": "Point", "coordinates": ["9.379577636718752", "46.567763753427236"]}}, {"type": "Feature", "properties": {"identifier": "7b12cee1-6272-49e6-9c16-223e29acc92b", "name": "Tschappina - Gasthaus Alpina", "image": "https://viatpimtsoch.sos-ch-dk-2.exoscale-cdn.com/catalog/8/5/7/9/8579ad92ac1511ac141da8872d6f59aae258497e_gasthaus_alpina_tschappina_heinzenberg_winter.jpg", "openstreetmap_id": "node/909028936"}, "geometry": {"type": "Point", "coordinates": ["9.3884838", "46.6877507"]}}, {"type": "Feature", "properties": {"identifier": "98c80e0d-d8e7-4910-8fd3-9c0aa5f1e1e7", "name": "Avers - Juf Osten", "image": "https://viatpimtsoch.sos-ch-dk-2.exoscale-cdn.com/catalog/b/a/5/0/ba506d14faef1a21e13f0a190f15f923513c7ed6_avers_juf_im_winter_demateo.jpg", "openstreetmap_id": "node/6329310381"}, "geometry": {"type": "Point", "coordinates": ["9.580174684524538", "46.44536856932679"]}}, {"type": "Feature", "properties": {"identifier": "ac962879-d0eb-4970-83bd-21443425b7e8", "name": "Feldis - Mutta Talstation SSF", "image": "https://viatpimtsoch.sos-ch-dk-2.exoscale-cdn.com/catalog/8/8/5/0/88501542fe166c9da823da37ed75b463a198cd58_sesselbahn_feldis_mutta_ssf_talstation_sommer_demateo.jpg", "openstreetmap_id": "node/240035995"}, "geometry": {"type": "Point", "coordinates": ["9.44027066230774", "46.79161626696942"]}}, {"type": "Feature", "properties": {"identifier": "adb0d90f-d7b8-415d-ade6-bd20ff7ec6e7", "name": "Feldis - Richtung Heinzenberg", "image": "https://viatpimtsoch.sos-ch-dk-2.exoscale-cdn.com/catalog/6/f/0/9/6f095cc121f83fefd75fe6c8ffbf32f835851ca6_feldis_dorf_im_sommer_richtung_heinzenberg.jpg", "openstreetmap_id": "node/240035995"}, "geometry": {"type": "Point", "coordinates": ["9.43081319332123", "46.79296081008457"]}}, {"type": "Feature", "properties": {"identifier": "baf4feab-f5ff-4dac-95d6-b26347f11f0c", "name": "Ausserferrera", "image": "https://viatpimtsoch.sos-ch-dk-2.exoscale-cdn.com/catalog/9/d/2/f/9d2f141073e474d38e795fe75f3014c0e77767d8_Ausserferrera_dorf_im_winter_viamala_tourismus.jpg", "openstreetmap_id": "node/240094598"}, "geometry": {"type": "Point", "coordinates": ["9.44001317024231", "46.55693111298112"]}}, {"type": "Feature", "properties": {"identifier": "bfa36957-2e33-4b46-9d6c-44694f9f5742", "name": "Feldis - Mutta Natureisfeld Alp Raguta", "image": "https://viatpimtsoch.sos-ch-dk-2.exoscale-cdn.com/catalog/4/6/2/4/462421f2e14ed1761cdc1d4e7ee011b774ba7490_alp_raguta_natureisfeld_feldiser_hochland_drohnenaufnahme_switzerland_tourism.jpg", "openstreetmap_id": "way/324909769"}, "geometry": {"type": "Point", "coordinates": ["9.460183382034304", "46.79618900291337"]}}, {"type": "Feature", "properties": {"identifier": "ce81cb84-96de-4a92-aaeb-95da19a366f5", "name": "Feldis - Mutta Alp Raguta", "image": "https://viatpimtsoch.sos-ch-dk-2.exoscale-cdn.com/catalog/0/2/d/d/02dd4270de0ba36ec91a2b56b1cb0c1af4a12266_bergstation_sesselbahn_feldis_mutta_winter_demateo.jpg", "openstreetmap_id": "node/240035995"}, "geometry": {"type": "Point", "coordinates": ["9.456052780151369", "46.79655594636156"]}}, {"type": "Feature", "properties": {"identifier": "dde617d1-00f6-428f-b5b5-69ebec0cd20f", "name": "Avers - Juppa Richtung Tscheischa", "image": "https://viatpimtsoch.sos-ch-dk-2.exoscale-cdn.com/catalog/d/9/a/5/d9a5b76e1c54d04968c342deecf61c810aa47dcb_natureisfeld_avers_juppa_winter_markus_mueller.jpg", "openstreetmap_id": "node/2335598005"}, "geometry": {"type": "Point", "coordinates": ["9.55388903617859", "46.45128218902112"]}}]}